Place ID,Place Name,Address,City,State,Zip,Phone,Website,Description,Paid,Category,Subcategory,Parking,Restroom,Change table,Stroller trail,Playground,Enclosed playground,"Material of playground floor (rubber, grass, dirt, sand, concrete, wood chip/mulch, asphalt) ",Water play,Sand pit,Toddler Playground,Pre-schooler Playground (2-5) ,School aged Playground (5-12),Picnic table,BBQ,Snugabug Pick
PLA1,Amador Valley Park,4301 Black Ave,Pleasanton,CA,94566,925 931 5361,http://ptownlife.org/play/parks/amador-valley-community-park,,N,Playgrounds,,Y,Y,,Y,Y,N,Wood chip/mulch,N,Y,N,Y,N,N,N,N
PLA10,Brommer Park,1451-1453 30th Ave,Santa Cruz,CA,95062,,,,N,Playgrounds,,Y,Y,,N,Y,N,rubber,N,N,Y,Y,N,Y,Y,N
PLA100,Bayport Park,Mosely Ave & King Fisher Ave,Alameda,CA,94501,,http://alamedaca.gov/recreation/bayport-park,,N,Playgrounds,,Y,Y,,N,Y,Y,mulch,N,N,Y,Y,N,N,N,N
PLA101,Codornices Park,1201 Euclid Ave,Berkeley,CA,94708,510 981 6700,http://www.ci.berkeley.ca.us/Parks_Rec_Waterfront/Trees_Parks/Parks__Cordornices_Park.aspx,"Located next to the Berkeley Rose Garden, Codornices Park is famous for the very tall cement slide. Make sure to sit on cardboard, normally found by the bottom, while riding down the slide. There are also two traditional wooden play structures.",N,Playgrounds,,N,Y,,N,Y,Y,sand,N,Y,Y,Y,Y,Y,N,Y
PLA102,Catamaran Park,Catamaran & Shell Blvd,San Mateo,CA,94404,,,,N,Playgrounds,,N,Y,,Y,Y,N,mulch,N,Y,N,Y,N,N,N,N
PLA103,Crack Park,Villa Savona Ct,Fremont,CA,94539,,,,N,Playgrounds,,N,N,,N,Y,N,mulch,N,N,Y,Y,N,Y,Y,N
PLA104,Central Park,50 E 5th Ave,San Mateo,CA,94010,650 522 7530,,,N,Playgrounds,,Y,Y,N,N,Y,N,mulch,N,Y,Y,Y,Y,Y,Y,N
PLA106,Flickinger Park,Flickinger Ave & Doxey Pl,San Jose,CA,95131,,,Flickinger Park is a sport based park having 3 baseball diamonds and 2 basketball courts. The park contains plenty of parking and has two playgrounds. The picnic area overlooks the tot playground while the older kids playground is slightly further down. ,N,Playgrounds,,Y,Y,,N,Y,N,mulch,N,N,Y,Y,Y,Y,Y,N
PLA107,Golden Hills Park,Bernice lane,Martinez,CA,94553,,,,N,Playgrounds,,N,Y,,Y,Y,N,mulch,N,Y,Y,Y,Y,N,N,N
PLA108,Fairwood Park,1255 Sandia Ave,Sunnyvale,CA,94089,,,"Fairwood Park has an amazing BBQ area which would be great for large parties. It overlooks the big kids playground, which is sand base. It unfortunately doesn't overlook the tot playground which is sand and rubber based. There are a number of other picnic tables & BBQ pits throughout the park that, while smaller, have better vantages to the playground.",N,Playgrounds,,N,Y,,N,Y,N,sand,N,Y,Y,Y,Y,Y,Y,N
PLA109,Heritage Park,300 Homer Ave,Palo Alto,CA,94301,650 496 6962,,,N,Playgrounds,,N,N,,N,Y,N,mulch,N,Y,Y,Y,Y,N,N,N
PLA11,Avalon Park,Dorado Way and Alta Vista Dr,South San Francisco,CA,94080,650 829 3800,,,N,Playgrounds,,Y,Y,,N,Y,N,rubber,N,N,N,Y,Y,Y,Y,N
PLA110,Kennedy Park,2318-2386 Streblow Dr,Napa,CA,94558,,http://www.cityofnapa.org/index.php?option=com_content&view=article&id=374&Itemid=1082,"Kennedy Park runs along the Napa River. The playground is by the second parking lot at the end of Streblow drive. The 350 acre park also offers five reservable picnic areas, stroller trails, softball, soccer, volleyball, boat launching, hiking, and the 18-hole Napa Golf Course. ",N,Playgrounds,,Y,Y,,Y,Y,N,mulch,N,N,Y,Y,Y,Y,Y,Y
PLA111,Kevin Moran Park,12415 Scully Ave,Saratoga,CA,95070,,,,N,Playgrounds,,Y,Y,Y,Y,Y,N,mulch,N,N,Y,Y,Y,Y,N,N
PLA112,Golden Gate Park Children's Playground,Haight St and Stanyan Streets,San Francisco,CA,94117,(415) 831-2700,http://www.golden-gate-park.com/childrens-playground.html,"Koret Children's Quarter in Golden Gate Park is one of the oldest, biggest, and best playgrounds in San Francisco - featuring a huge, gloriously terrifying slide down a hillside, an antique carousel, and an amazing climbing structure. ",N,Playgrounds,,Y,Y,,Y,Y,N,"rubber, sand",N,Y,Y,Y,Y,Y,Y,Y
PLA113,Emerald Glen Park,4201 Central Pkwy,Dublin,CA,94568,,http://www.ci.dublin.ca.us/Facilities/Facility/Details/Emerald-Glen-Park-13,"The main playground by Tassajara Rd and Central Pkwy has a water play area and two play structures for older and younger kids. There are two slides built into a rock climbing wall and a nice sized sand pit. The water play area is generally operational from the Memorial Day weekend through the Labor Day weekend. During the drought, check online for operating hours. There is a smaller playground past the soccar fields with a play structure, some climbing equipment and swings. ",N,Playgrounds,,Y,Y,,Y,Y,N,mulch,Y,Y,Y,Y,Y,Y,Y,Y
PLA114,Golden Gate Park Mothers Meadow,501-599 Martin Luther King Jr Dr,San Francisco,CA,94118,(415) 831-2700,,,N,Playgrounds,,N,Y,,Y,Y,N,sand,N,Y,Y,Y,N,N,N,N
PLA115,Dorothy Bolte Park,540 Spruce Street,Berkeley,CA,94707,,http://www.ci.berkeley.ca.us/Parks_Rec_Waterfront/Trees_Parks/Parks__Dorothy_Bolte_Park.aspx,Cement slide!,N,Playgrounds,,N,N,,N,Y,N,sand,N,Y,Y,Y,N,N,N,N
PLA116,Fowler Creek Park,Fowler Road at Cortona Dr,San Jose,CA,95109,,http://www.sanjoseca.gov/Facilities/Facility/Details/Fowler-Creek-Park-117,,N,Playgrounds,,N,Y,,Y,Y,N,"sand, rubber",Y,Y,Y,Y,Y,Y,Y,N
PLA117,Lake Merritt / Lakeside Park,Perkins St. & Bellevue Ave.,Oakland,CA,94610,(510) 230-0339,http://www.lakemerritt.org/,"Lake Merritt is an urban oasis, a treasure for the Oakland residents and visitors. Take a stroller hike around the lake, visit the dozen or so gardens, and bird watch along the shores. The playground is fairly ordinary, but has a great location by the lake. Children's Fairyland, a fabulous amusement park for kids under 8, is also located at Lake Merritt. ",N,Playgrounds,,Y,N,,Y,Y,N,"dirt, sand",N,Y,Y,Y,Y,Y,N,Y
PLA118,Coyote Point Recreation Area,1701 Coyote Point Dr,San Mateo,CA,94401,650 573 2592,https://parks.smcgov.org/coyote-point-recreation-area,"Coyote Point is a regional recreation area that provides a wide variety of opportunities: picnicking, swimming, windsurfing, bicycling, jogging, fishing, boating, and sailing.The highlights for kids are the Magic Mountain Playground and CuriOdyssey, a natural history musuem with a small zoo. Magic Mountain is separated into a two parts and has a castles and dragons theme. The 3 story high slide is sure to delight any child. Great place for hosting celebrations. Entrance is $5 per car. ",Y,Playgrounds,,Y,Y,Y,Y,Y,Y,"Mulch, rubber, sand",N,Y,Y,Y,Y,Y,Y,Y
PLA119,Harbor View Park,1725 Monte Diablo Ave,San Mateo,CA,94403,,,"Harbor View Park provides easy access to the Bay Trails. The park has 2 playground. The older kids playground is primarily for climbing. The younger kids play area has a dedicated sand pit. The park also has a baseball diamond, picnic tables & BBQ pits & dedicated parking.  ",N,Playgrounds,,Y,Y,,N,Y,N,rubber,Y,Y,Y,Y,Y,Y,N,N
PLA12,Balboa Park,San Jose Ave & Sgt John V Young St,San Francisco,CA,94112,,http://www.sfparksalliance.org/our-parks/parks/balboa-park-and-pool,"This large park, home to the Balboa pool, includes a sand playground with climbing structures, four baseball fields, a soccer stadium, tennis courts, and a picnic area.",N,Playgrounds,,Y,Y,,Y,Y,Y,rubber,N,N,Y,Y,Y,Y,N,N
PLA120,Oak Hill Park,1 Parkside Ter,Petaluma,CA,94952,,http://cityofpetaluma.net/parksnrec/parks-pages/oak-hill.html,,N,Playgrounds,,Y,Y,,N,Y,N,mulch,N,N,N,N,Y,Y,Y,N
PLA121,Erckenbrack Park,Niantic Dr,Foster City,CA,94404,,http://www.fostercity.org/parksandrecreation/Erckenbrack-Park.cfm,"With a beautiful waterfront setting, Erckenbrack Park provides 3.4 acres of lawn area, sand beach, a children's playground, and restroom facilities.",N,Playgrounds,,Y,Y,,N,Y,N,mulch,N,Y,N,Y,N,Y,N,N
PLA122,Jose Avenue Park,1435 Jose Ave,Santa Cruz,CA,95062,,,,N,Playgrounds,,Y,Y,,N,Y,N,"rubber, sand",N,Y,Y,Y,Y,N,N,N
PLA123,Berkeley Aquatic Park,80 Bolivar Way,Berkeley,CA,94710,,http://www.ci.berkeley.ca.us/Parks_Rec_Waterfront/Trees_Parks/Parks__Aquatic_Park.aspx,,N,Playgrounds,,Y,Y,,N,Y,Y,mulch,Y,Y,Y,Y,Y,N,N,N
PLA124,Jack Fisher Park,1400 Abbott Ave,Campbell,CA,95008,,,,N,Playgrounds,,N,Y,Y,N,Y,N,mulch,Y,Y,Y,Y,N,Y,N,N
PLA125,Maddux Park,Maddux Dr at Kensington Rd,Redwood City,CA,94061,,,,N,Playgrounds,,N,Y,,N,Y,N,mulch,N,N,Y,Y,Y,Y,N,N
PLA126,Paradise Valley Park,Hillside Blvd & Belmont Ave ,South San Francisco,CA,94080,650 583 2348,,,N,Playgrounds,,N,N,,N,Y,Y,mulch,N,N,Y,Y,N,N,N,N
PLA127,Mariposa Park,301 Mariposa Ave,Mountain View,CA,94041,650 903 6326,,,N,Playgrounds,,N,N,,N,Y,N,rubber,N,Y,Y,Y,Y,Y,N,N
PLA129,Jollyman Park,1000 S Stelling Rd,Cupertino,CA,95014,,,,N,Playgrounds,,Y,Y,,Y,Y,N,mulch,N,N,Y,Y,Y,Y,Y,N
PLA13,Grundy Park,567 El Camino Real,San Bruno,CA,94066,,,,N,Playgrounds,,N,Y,,Y,Y,N,mulch,N,N,Y,Y,Y,Y,Y,N
PLA130,Holly Park Circle,Bocana St & Highland Ave,San Francisco,CA,94110,,http://www.sfparksalliance.org/our-parks/parks/holly-park,"This circular park is built on a hill and at the top is a spectacular view. Also at the top is a tennis and basketball court, and a flat ball field. On the side of the hill is a children's playground.",N,Playgrounds,,N,Y,,Y,Y,Y,rubber,N,Y,Y,Y,N,Y,Y,N
PLA131,George Page Park,Santa Teresa Boulevard & Miyuki Drive,San Jose,CA,95119,,http://www.sanjoseca.gov/Facilities/Facility/Details/George-W-Page-Park-144,,N,Playgrounds,,N,N,,N,Y,N,mulch,N,N,N,Y,Y,Y,Y,N
PLA132,Greystone Park,Camden Ave & Mt Carmel Dr,San Jose,CA,95120,,http://www.sanjoseca.gov/Facilities/Facility/Details/Greystone-Park-35,,N,Playgrounds,,N,Y,,N,Y,N,mulch,N,N,N,Y,Y,Y,Y,N
PLA133,Greenwood Park,Middle ln. & Eden ave.,Hayward,CA,94545,,,,N,Playgrounds,,N,N,,N,Y,N,mulch,N,N,Y,Y,Y,Y,N,N
PLA134,Bonaire Park,Juniper St & Sagewood Ave,San Leandro,CA,94579,510 577 3462,https://sanleandro.org/depts/rec/parks/bonaire_park/default.asp,"Located at the corner of Juniper and Sagewood streets, is a 5-acre neighborhood park with unique mounded turf areas. Amenities include picnic areas, play apparatus, restrooms, horseshoe pits and plenty of off-street parking.",N,Playgrounds,,Y,Y,,Y,Y,Y,mulch,N,N,Y,Y,Y,Y,Y,N
PLA135,Mercy-Bush Park,Mercy Street & Bush Street,Mountain View,CA,94041,,,,N,Playgrounds,,N,N,,N,Y,N,rubber,N,N,N,N,Y,Y,N,N
PLA136,Middle Harbor Shoreline Park,2777 Middle Harbor Rd,Oakland,CA,94607,,,,N,Playgrounds,,Y,Y,,Y,Y,N,rubber,N,Y,Y,Y,Y,Y,Y,N
PLA137,Mill Creek Hollow,Deerwood Drive & Deerwood Road,San Ramon,CA,94582,,,,N,Playgrounds,,N,Y,,N,Y,N,rubber,N,N,N,Y,N,Y,N,N
PLA138,Mission Hills Park,Junipero Street & Independence Street,Pleasanton,CA,94566,,http://ptownlife.org/play/parks/mission-hills-park,,N,Playgrounds,,N,N,,Y,Y,N,mulch,N,Y,Y,Y,Y,Y,Y,N
PLA139,Hoover Park,2901 Cowper St,Palo Alto,CA,94309,,,,N,Playgrounds,,N,Y,,N,Y,N,mulch,N,N,Y,Y,Y,Y,Y,N
PLA14,Cardoza Park,Kennedy Dr & Prada Dr.,Milpitas,CA,95035,,http://www.ci.milpitas.ca.gov/government/recreation/parks.asp,,N,Playgrounds,,Y,Y,,N,Y,N,rubber,N,N,Y,Y,Y,Y,Y,N
PLA140,Linda Vista Park,11000 Linda Vista Dr,Cupertino,CA,95014,,,Linda Vista Park is nestled in the Cupertino hills and is great for stroller trail walks. They also have 2 playgrounds. The first playground situated at the upper level of the parking lot is for older kids. The middle level contains older picnic tables & a large BBQ pit. The bottom level is the playground for tots. There is also a huge open grass area for kids to run around.  ,N,Playgrounds,,Y,Y,,Y,Y,N,mulch,N,N,Y,Y,N,Y,Y,N
PLA141,Montague Park,3595 MacGregor Lane,Santa Clara,CA,95054,408 615 3140,,"Montague Park is a huge park that has an attached school. There are a total of 5 play structures in this park. Two belong to the school, but are accessible outside school hours. 

On one side of the park there is a unique sand play structure near the restrooms. This play struture is semi enclosed and even contains tunnels for kids to use. Youg kids would surely love to utilze this unique and quite large sand pit play structure. There are a number of picnic tables and BBQs overlooking the play structure. 

At the center of the park, are the two play structures connected to the school. These are dedicated to older kids. 

At the far end of the park, there are two more play structures. One dedicated to older kids and one to younger kids. ",N,Playgrounds,,N,Y,,Y,Y,N,"sand, mulch",N,Y,Y,Y,Y,Y,Y,N
PLA143,Altamont Creek Park,6800 Altamont Crk. Dr.,Livermore,CA,94550,,,"Altamont Creek Park is a 6.9-acre neighborhood park attached to Altamont Creek Elementary School and is closed during school hours. The park offers two medium-sized soccer fields designed for kids 10 and under and accommodates two youth-sized baseball fields. It also offers tot lot equipment, barbecue pits, picnic tables and hiking and biking trails. Park users include Pony Baseball and Livermore Youth Soccer League.",N,Playgrounds,,Y,Y,,Y,Y,N,Wood chip/mulch,N,N,N,Y,N,Y,N,N
PLA145,Huntington Park,California St & Cushman St,San Francisco,CA,94108,,http://www.sfparksalliance.org/our-parks/parks/huntington-park,"Located on Nob Hill and surrounded by the Grace Cathedral, the Fairmont Hotel, and the Mark Hopkins Hotel, Huntington Park is a quiet place that features a playground for kids, plenty of benches to kick back on, and a nice area for your dogs. There are restrooms available, too.",N,Playgrounds,,N,Y,,Y,Y,N,sand,N,Y,Y,Y,N,N,N,N
PLA146,Franklin Park,2095 Franklin Ave,Santa Rosa,CA,95404,,http://ci.santa-rosa.ca.us/departments/recreationandparks/parks/cityparks/listofparks/Pages/FranklinPark.aspx,,N,Playgrounds,,Y,Y,,N,Y,N,sand,N,Y,Y,Y,N,Y,Y,N
PLA148,Oak Meadow Park,Blossom Hill Rd & Roberts Rd,Los Gatos,CA,95032,408 399 5781,http://www.losgatosca.gov/910/Oak-Meadow-Park,"Our favorite park in Los Gatos has a large playground area with a real, decommissioned USAF T-33 Jet. Your children will love the Carousel and Billy Jones Wildcat Railroad. Oak Meadow is also connected to Vasona Park, which has lots of reservable picnic areas. Parking lot is paid parking.",N,Playgrounds,,Y,Y,,Y,Y,N,mulch,N,N,Y,Y,Y,Y,Y,Y
PLA149,Osage Station Park,816 Brookside Dr,Danville,CA,94526,,http://www.danville.ca.gov/Things-To-Do/Parks/Community-Parks/Osage-Station/,"Osage Station Park is known for its beautiful, memorial rose garden and children's play area with train station.

This 35-acre park features four tennis courts, four baseball diamonds, several soccer fields, plus a path around the park. The tennis courts and sports fields can be rented. An additional parking lot is located near the tennis courts, off Orange Blossom Way. The twenty picnic tables and five barbecue pits are located near the children's play area and are available to rent.

The park is named after the ranch that grew Osage Oranges, and there are still three Osage Orange trees at the park.",N,Playgrounds,,Y,Y,,Y,Y,N,"sand, mulch, rubber",Y,Y,Y,Y,N,Y,Y,N
PLA15,Cannery Park,B St. & Martin Luther King Way,Hayward,CA,94541,510 881 6747,,,N,Playgrounds,,N,Y,,N,Y,N,rubber,Y,Y,N,Y,Y,N,N,N
PLA150,Indian Springs Park,W 39th Ave & Lola St,San Mateo,CA,94403,,,Indian Springs Park has a small parking lot and 2 playgrounds. The playgrounds have a number of climbing structures. There is also an oval paved area in front of the playgrounds with a grassy center for kids to play.  ,N,Playgrounds,,Y,Y,,N,Y,N,mulch,N,N,Y,Y,N,N,N,N
PLA153,Jerry Bowden Park,High St. & N California Ave.,Palo Alto,CA,94301,,,,N,Playgrounds,,Y,N,,N,Y,Y,"sand, rubber",N,Y,Y,Y,Y,Y,N,N
PLA154,Joe DiMaggio Playground,Columbus Ave & Greenwich St.,San Francisco,CA,94133,,http://www.sfparksalliance.org/our-parks/parks/joe-dimaggio-playground-and-north-beach-pool,"Joe DiMaggio Playground features basketball courts where you can find pick-up games during the week, well-maintained tennis courts and a backboard for solo players to use. Baseball players can enjoy the two fields that are available! Finally, there is a Bocce Ball court if you know the rules of this strategic Italian game.",N,Playgrounds,,N,Y,,Y,Y,Y,sand,N,Y,Y,Y,Y,Y,N,N
PLA155,Peralta Hacienda Historical Park,2465 34th Ave,Oakland,CA,94601,510 532 9142,,,N,Playgrounds,,N,N,,N,Y,N,rubber,N,Y,Y,Y,N,N,N,N
PLA156,José Higuera Adobe Park,Wessex Pl & N Park Victoria,Milpitas,CA,95035,,http://www.ci.milpitas.ca.gov/government/recreation/parks.asp,,N,Playgrounds,,Y,Y,,N,Y,N,sand,N,N,Y,Y,N,Y,Y,N
PLA157,John McLaren Park,100 John F Shelley Dr,San Francisco,CA,94134,,,,N,Playgrounds,,Y,N,,Y,Y,N,rubber,N,N,Y,Y,Y,Y,Y,N
PLA158,Julius Kahn Park,West Pacific Ave & Spruce St,San Francisco,CA,94129,,http://www.sfparksalliance.org/our-parks/parks/julius-kahn-playground-clubhouse,"Locally known as ""JK,"" Julius Kahn is adjacent to the Presidio, the nation's largest urban National Park. The playground is in excellent condition and provides kids and parents two structures to choose from--one designed for babies and toddlers, and another for school-aged kids. Both playgrounds are situated in a sand pit.",N,Playgrounds,,N,Y,,Y,Y,Y,"sand, rubber",N,Y,Y,Y,Y,Y,N,Y
PLA159,Pioneer Park,1308 Cedar St,Calistoga,CA,94515,707 942 2838,,,N,Playgrounds,,Y,Y,,N,Y,N,mulch,N,N,N,Y,Y,N,N,N
PLA16,Al Caffodio Park,Shawnee Rd. & Chippewa Way,Livermore,CA,94551,,http://www.larpd.org/parks/maps/1.html,,N,Playgrounds,,N,N,,Y,Y,N,mulch,N,N,Y,Y,N,Y,Y,N
PLA160,Lakewood Park,834 Lakechime Dr,Sunnyvale,CA,94089,408 730 7751,,"Lakewood Park is a large park with much to do. The tot playground is above sand and also has a small dedicated sand pit. The big kids playground has a spaceship theme and is located on rubber. 
The park also has a skate area, baseball diamond, tennis courts and basketball court. There is also a paved trail through the park to allow for bike riding.",N,Playgrounds,,N,Y,,Y,Y,N,rubber,Y,Y,Y,Y,Y,Y,Y,N
PLA161,Ken Mercer Sports Park,5800 Parkside Dr,Pleasanton,CA,94566,925 931 5340,http://ptownlife.org/play/parks/ken-mercer-sports-recreation-community-park,Pleasanton’s largest developed park is Pleasanton Sports & Recreation Community Park approximately 103 acres in overall area.,N,Playgrounds,,Y,Y,,Y,Y,N,mulch,N,N,Y,Y,Y,Y,Y,N
PLA162,Koret Children's Quarter,320 Bowling Green Dr,San Francisco,CA,94199,,http://www.sfparksalliance.org/our-parks/parks/koret-childrens-quarter,"Koret Children's Quarter in Golden Gate Park is one of the oldest, biggest, and best playgrounds in San Francisco - featuring a huge, gloriously terrifying slide down a hillside, an antique carousel, and an amazing climbing structure.",N,Playgrounds,,Y,Y,,Y,Y,N,"rubber, sand",N,Y,Y,Y,Y,Y,Y,Y
PLA163,Rancho San Ramon Community Park,2000 Rancho Park Loop Rd,San Ramon,CA,94582,,http://www.ci.san-ramon.ca.us/parks/parks_facilities/parks.htm,"This recently opened park has everything, play structures for each age range, sand pit, water play, climbing structures, and picnic tables. Our only complaint is the limited shade available.",N,Playgrounds,,Y,Y,,N,Y,N,mulch,Y,Y,Y,Y,Y,Y,N,Y
PLA165,Lafayette Park,Gough and Sacramento Street,San Francisco,CA,94109,,http://www.sfparksalliance.org/our-parks/parks/lafayette-park,"This park is great if you want to get some fresh air! Four blocks long, the numerous paths allow you to walk or run. There is plenty of open space to play with your child and lots of trees to provide shade on a hot day. Also, its a great place for a picnic! There is a small, fenced in playground for kids, designed by Miller Company Landscape Architects. It is in good condition with two tennis courts. There are picnic tables to sit at and restrooms available.",N,Playgrounds,,N,Y,,Y,Y,Y,rubber,N,N,Y,Y,Y,Y,N,Y
PLA166,Red Willow Park,190 Red Willow Rd,San Ramon,CA,94582,,,,N,Playgrounds,,Y,N,,Y,Y,N,mulch,N,N,Y,Y,N,N,N,N
PLA167,Glendale La Loma Park,1310 La Loma Ave,Berkeley,CA,94708,,http://www.ci.berkeley.ca.us/Parks_Rec_Waterfront/Trees_Parks/Parks__Glendale_La_Loma_Park.aspx,,N,Playgrounds,,Y,Y,,N,Y,N,sand,N,Y,Y,Y,N,N,N,N
PLA168,Howarth Park,630 Summerfield Rd,Santa Rosa,CA,95405,,http://ci.santa-rosa.ca.us/departments/recreationandparks/parks/howarth/Pages/default.aspx,"Come visit Howarth Park, the “jewel"" of Santa Rosa. This 152-acre community park provides endless recreational opportunities with a beautiful lake for fishing & boating, a softball field, tennis courts, picnic areas, unique playground structures, miles of hiking and jogging trails, and an amusement area featuring a miniature train ride, carousel, animal farm & pony rides.",N,Playgrounds,,Y,Y,,Y,Y,N,dirt,Y,Y,Y,Y,Y,Y,Y,Y
PLA169,Rodgers-Smith Park,Grayson Terrace & Grayson Rd,Pleasant Hill,CA,94523,,http://www.pleasanthillrec.com/locations/parksandoutdoorspaces.html,"This park is great for picnics: company picnics, family reunions, and barbecues! Reservable Picnic Area with Barbecue, Softball/Sports Field, Sand Volleyball Court, Surfaced Basketball Court, Lighted Bocce Courts. ",N,Playgrounds,,Y,Y,,N,Y,N,"rubber, sand",N,Y,N,Y,Y,Y,Y,N
PLA17,Campbell Park,Gilman & Campbell Ave,Campbell,CA,95008,,,"Location! This great park is right by Downtown Campbell and is a major access point to Los Gatos Creek Trail which connects Downtown San Jose to Lexington Reservoir in Los Gatos. The playground has a fun spinning wheel and a nice sand pit. There are a very small number of first-come, first-served picnic tables available in the park.",N,Playgrounds,,Y,Y,,Y,Y,Y,mulch,Y,N,Y,Y,Y,Y,N,N
PLA170,Guadalupe River Park,W Santa Clara St & N Autumn St,San Jose,CA,95110,,http://www.grpg.org/river-park-gardens,"Guadalupe River Park is a three-mile ribbon of park land that runs along the banks of the Guadalupe River in the heart of downtown San Jose. The Rotary PlayGarden is located at Arena Green, the section of the park located between Santa Clara Street on the south, Julian Street on the north, and directly across Autumn Street from HP Pavilion. There are 2 brightly colored playgrounds for children both young and old, featuring swings, slides, a play fort and climbing structures. ",N,Playgrounds,,Y,Y,,Y,Y,Y,mulch,N,N,Y,Y,Y,Y,N,Y
PLA171,Cherry Grove Park,1600 Williams St,San Leandro,CA,94577,510 577 3462,https://sanleandro.org/depts/rec/parks/cherry.asp,"This 4-acre neighborhood park, is located on Leonard Drive at Williams Street. The park provides neighborhood-oriented facilities, including picnic areas and tennis courts. The park is adjacent to the large open spaces of John Muir School. Amenities include 10 barbecue pits, night lighting, parking, 21 picnic tables, play areas and restrooms.",N,Playgrounds,,Y,Y,,Y,Y,Y,mulch,N,N,Y,Y,Y,Y,Y,N
PLA172,Floresta Park,3750 Monterey Blvd,San Leandro,CA,94578,,https://sanleandro.org/depts/rec/parks/floresta.asp,"Located at 3750 Monterey Boulevard, this park offers both picnic and play areas. Green space and a baseball diamond are located on the adjacent school site.",N,Playgrounds,,N,Y,,N,Y,Y,mulch,N,N,Y,Y,Y,Y,Y,N
PLA173,Grove Park,1730 Oregon St,Berkeley,CA,94703,,http://www.ci.berkeley.ca.us/Parks_Rec_Waterfront/Trees_Parks/Parks__Grove_Park.aspx,,N,Playgrounds,,N,Y,,N,Y,Y,sand,N,Y,Y,Y,N,Y,Y,N
PLA174,Joinville Park,2111 Kehoe Ave,San Mateo,CA,94403,650 522 7434,,"Joinville Park is located next to Bayside Performing Arts Center. The park has a pool, 2 tennis courts, a baseball diamond and a big play structure. The play structure is interconnected for both the tots and big kids. The picnic tables that overlook the play area don't provide great supervision opportunities.  ",N,Playgrounds,,Y,Y,,Y,Y,N,mulch,N,N,Y,Y,Y,N,N,N
PLA175,Scotts Valley Tim Brauch Memorial Skate Park,361 Kings Village Rd,Scotts Valley,CA,95066,,,"Tim Brrauch Memorial skate park shares it's grounds with Skypark. For older kids that want to skate, this is a great area. For younger kids, it's great that you have some playgrounds around the corner. ",N,Playgrounds,,Y,Y,,Y,Y,N,sand,Y,N,Y,Y,Y,Y,Y,N
PLA176,Lakeshore Park,1500 Marina Ct.,San Mateo,CA,94403,,,,N,Playgrounds,,Y,Y,N,Y,Y,Y,mulch,N,N,N,Y,Y,Y,Y,N
PLA177,McCoppin Square,1300 Taraval St,San Francisco,CA,94116,,http://www.sfparksalliance.org/our-parks/parks/mccoppin-square,,N,Playgrounds,,Y,Y,,Y,Y,Y,rubber,N,N,Y,Y,Y,N,N,N
PLA178,Sharon Park,Sharon Park Dr & Lassen Dr,Menlo Park,CA,94025,650 330 2200,http://www.menlopark.org/Facilities/Facility/Details/Sharon-Park-10,"The highlight of Sharon park is the large pond where you are see fish, turtles and occasionally ducks and geese. There is a path around the pond where you can push a stroller or bike. One small play structure in fully fenced and shaded. ",N,Playgrounds,,Y,N,,Y,Y,Y,mulch,N,N,N,Y,N,Y,N,N
PLA18,Kottinger Village Park,4100 Vineyard Ave,Pleasanton,CA,94566,,http://ptownlife.org/play/parks/kottinger-village-park,,N,Playgrounds,,Y,N,,Y,Y,N,mulch,N,N,N,N,Y,Y,N,N
PLA180,Shoreline Park,N Shoreline Blvd & North Rd,Mountain View,CA,94043,,,,N,Playgrounds,,Y,Y,,Y,Y,N,sand,N,Y,Y,Y,N,Y,Y,N
PLA181,Shoup Park,400 University Ave,Los Altos,CA,94023,,,,N,Playgrounds,,Y,Y,N,N,Y,N,mulch,N,Y,Y,Y,Y,Y,Y,N
PLA182,McKinley Square,20th St & Vermont,San Francisco,CA,94107,,http://www.sfparksalliance.org/our-parks/parks/mckinley-square,"Located at the corner of 20th Street and Vermont in the Potrero Hill neighborhood, McKinley square features a playground with a large sand pit, and a large grassy open area for soccer, football, a game of catch, or to just let the dogs roam. There is a walking trail with benches. ",N,Playgrounds,,N,N,,N,Y,Y,sand,N,Y,Y,Y,Y,Y,N,N
PLA183,Michaelangelo Park,Greenwich St,San Francisco,CA,94109,415 267 575,http://www.sfparksalliance.org/our-parks/parks/michelangelo-playground-community-garden,"Michelangelo is another nice addition to the Russian Hill area. It is extraordinarily maintained and locals consider it the jewel of the neighborhood. There is a half basketball court, a large tennis backboard to hit on, and a playground with sand area for children. There are benches and picnic tables where you can watch your kids and have lunch. The grass is really nice to sit/lay down on too! ",N,Playgrounds,,N,N,,N,Y,Y,sand,N,Y,Y,Y,Y,Y,N,N
PLA184,Mission Playground,Valencia St. and Cunningham Pl.,San Francisco,CA,94110,(415) 641-2841,http://www.sfparksalliance.org/our-parks/parks/mission-playgroundpool,"Mission Playground, surrounded mostly by family housing, boasts nearly 100,000 sf of park space. Located off of 19th and Linda streets and bordering on Valencia Street in the Mission District, the park features a clubhouse, outdoor pool with lockers, playground, soccer field, tennis and basketball courts, and open lawn areas. Very little shade at this park.",N,Playgrounds,,N,N,,N,Y,Y,"sand, rubber",Y,Y,Y,Y,Y,N,N,Y
PLA185,Moscone Recreation Center,1800 Chestnut St,San Francisco,CA,94123,415 292 2045,http://www.sfparksalliance.org/our-parks/parks/moscone-recreation-center,"Moscone Rec offers a plethora of activities for kids and adults. There are four baseball fields and four full tennis courts, two full basketball courts, and a remodeled playground.

Dogs are welcome too.

There are bathrooms at the rec center and this park also offers two putting greens.",N,Playgrounds,,N,Y,,Y,Y,Y,"rubber, sand",N,Y,Y,Y,Y,N,N,N
PLA186,Stafford Grove Park,1035 7th St,Novato,CA,94945,,http://novato.org/Home/Components/FacilityDirectory/FacilityDirectory/45/535?npage=2,"Stafford Grove is the closest playground to Novato's downtown area. The park is equipped with a large playground and benches that are shaded by trees. Stafford Grove is a quaint neighborhood park, which offers a nice break for those shopping with children along Grant Avenue. ",N,Playgrounds,,N,N,,N,Y,N,mulch,N,Y,Y,Y,N,Y,N,N
PLA187,John D. Morgan Park,540 W Rincon Ave,Campbell,CA,95008,408 866 2105,http://www.ci.campbell.ca.us/393/Park-Rental-Information,"John Morgan Park, shares its field with Campbell Middle School. It contains two baseball diamonds and two playgrounds on opposite ends of the park. The first playground West Rincon Ave. is primarily dedicated to younger kids. The play area is sand based, with a complex climbing structure for older kids. There is also a water feature present here. The second playground, located Budd Ave. is primarily a big kids play area. The play area has a mulch base, and numerous slides and climbing walls. Both playgrounds have picnic tables, with BBQs, that overlook the play area. There are also bathroom close to each playground. ",N,Playgrounds,,Y,Y,,N,Y,N,"mulch, sand, rubber",Y,Y,Y,Y,Y,Y,N,Y
PLA188,Bill Clark Park,Mollie Ct & Mollie Cir.,Livermore,CA,94551,,,,N,Playgrounds,,N,N,,Y,Y,N,sand,N,Y,N,Y,Y,N,N,N
PLA189,Sun Terrace Neighborhood Park,Vancouver Way & Montreal Cir.,Concord,CA,94520,,http://www.ci.concord.ca.us/page.asp?pid=3025,"Turfed area for free play and a children's play area with swings, slide and climbing apparatus.",N,Playgrounds,,N,N,,N,Y,N,mulch,N,N,Y,Y,Y,Y,Y,N
PLA19,Bernal Heights Playground,500 Cortland Ave,San Francisco,CA,94107,,http://www.sfparksalliance.org/our-parks/parks/bernal-heights-rec-center-and-playground,"Located just behind the Bernal Heights Branch Library. A very welcoming playground, Bernal Heights is designed around a few trees that shelter small clusters of benches and picnic tables. The play equipment is in fairly good shape and quite inviting. There are restrooms located at the library itself. ",N,Playgrounds,,N,N,,N,Y,Y,sand,N,Y,Y,Y,Y,N,N,N
PLA190,Mountain Lake Park,Lake St. and Funston Ave.,San Francisco,CA,94118,,http://www.sfparksalliance.org/our-parks/parks/mountain-lake-park,"Situated next to Mountain Lake where the southern edge of the Presidio meets the Richmond District, this park offers many different amenities. Children enjoy the sand-floor playground at the 12th Avenue entrance that feature slides, swings, and a multi-level play structure. There is a covered picnic/card playing pavilion opposite the 9th Avenue entrance. The great meadow is a favorite place to spend the afternoon for a picnic or to rent for children's birthday parties. ",N,Playgrounds,,N,Y,,Y,Y,N,mulch,N,Y,Y,Y,Y,Y,Y,N
PLA191,Sycamore Valley Park,Camino Tassajara & Holbrook Dr,Danville,CA,94506,,http://www.danville.ca.gov/Things-To-Do/Parks/Community-Parks/Sycamore-Valley/,"Sycamore Valley Park, located at Holbrook Drive and Camino Tassajara, has a children's play area with popular recreational fountain, a reflection pond with waterfall, and a jogging path that meanders through the park.
 
The picnic area adjacent to the baseball diamonds include eight picnic tables and barbecue pits. In addition, a new group picnic area has been added adjacent to the bocce ball courts that will accommodate up to 65 people.",N,Playgrounds,,Y,Y,,Y,Y,N,rubber,Y,Y,Y,Y,Y,Y,Y,N
PLA193,Orange Memorial Park,Orange Ave and Tennis Dr,South San Francisco,CA,94080,650 829 3800,http://www.ssf.net/1713/Parks,"Indoor swimming pool,",N,Playgrounds,,Y,Y,,Y,Y,N,rubber,N,N,Y,Y,Y,Y,Y,N
PLA194,Thamien Park,4321 Lick Mill Blvd,Santa Clara,CA,95054,,,Thamien Park is a small neighborhood park which contains two play structures. One for older kids and one for younger kids. There are picnic tables overlooking the play structures. From the park you can access the Guadalupe River Trail. ,N,Playgrounds,,Y,Y,,Y,Y,N,"rubber, sand",N,Y,Y,Y,Y,Y,Y,N
PLA195,James Kenney Park,1720 Eighth Street,Berkeley,CA,94710,,http://www.ci.berkeley.ca.us/Parks_Rec_Waterfront/Trees_Parks/Parks__James_Kenney_Park.aspx,,N,Playgrounds,,N,Y,,N,Y,Y,sand,N,Y,Y,Y,N,Y,N,N
PLA196,John Hinkel Park,41 Somerset Place,Berkeley,CA,94707,,http://www.ci.berkeley.ca.us/Parks_Rec_Waterfront/Trees_Parks/Parks__John_Hinkel_Park.aspx,,N,Playgrounds,,N,N,,N,Y,N,"grass, dirt",N,N,Y,Y,N,Y,N,N
PLA197,Franklin Park,1432 San Antonio Ave,Alameda,CA,94501,,http://alamedaca.gov/recreation/franklin-park,,N,Playgrounds,,N,Y,,Y,Y,Y,mulch,N,Y,Y,Y,N,N,N,N
PLA198,Parkside Square,26th Ave & Vicente St,San Francisco,CA,94116,,http://www.sfparksalliance.org/our-parks/parks/parkside-square,"Located next to Stern Grove, Parkside Square is a nice park to visit on a weekend afternoon. There are quite a few amenities that include a walking trail, brand new playground equipment and sand area for children, four tennis courts and a basketball court too; in addition, there is a baseball field, dogs are welcome, and there are clean bathrooms and water fountains available!",N,Playgrounds,,Y,Y,,Y,Y,Y,rubber,N,Y,Y,Y,Y,Y,N,Y
PLA199,Patricia's Green,Hayes St and Octavia St,San Francisco,CA,94102,,,,N,Playgrounds,,N,N,,N,Y,N,rubber,N,N,N,Y,Y,N,N,N
PLA2,24th Street Mini Park,24th St & York St,San Francisco,CA,94110,(415) 717-2872,http://www.sfparksalliance.org/our-parks/parks/24th-and-york-mini-park,"This recently-renovated mini park has great public art and murals on display! There is a children's playground with picnic tables and seating. The park provides two swings and a merry-go-round for children to enjoy. Also, kids can enjoy playing on the mosaic serpent, which shoots water from his tail! There are also many benches and picnic tables to rest, eat lunch, and watch your kids play.",N,Playgrounds,,N,N,N,N,Y,Y,Rubber,Y,N,Y,Y,N,Y,N,N
PLA20,Booster Park,Gable Dr & Hoyt St,Fremont,CA,94539,,,,N,Playgrounds,,N,N,,N,Y,N,sand,N,Y,Y,Y,N,Y,Y,N
PLA201,Valley View Park,N Monarch and N Wedgewood,San Ramon,CA,94582,,,,N,Playgrounds,,Y,Y,,Y,Y,N,mulch,N,N,Y,Y,Y,Y,N,N
PLA202,Veterans Plaza Park,550 Peters Ave,Pleasanton,CA,94566,,http://ptownlife.org/play/parks/veterans-plaza,,N,Playgrounds,,N,N,,Y,Y,Y,mulch,N,N,N,N,Y,N,N,N
PLA203,Falcon Drive Neighborhood Park,Falcon Dr & Peregrine Way,Fremont,CA,94555,,,,N,Playgrounds,,N,N,,N,Y,N,rubber,N,N,Y,Y,N,N,N,N
PLA207,Hillview Park,97 Hillview Ave,Los Altos,CA,94023,,,This playground has a unique old west play structure dedicated to toddlers. They'll have a plast playing with the train and the old west buildings. ,N,Playgrounds,,Y,N,,N,Y,N,mulch,N,N,Y,Y,N,N,N,N
PLA208,Portsmouth Square,733 Kearny St,San Francisco,CA,94108,,http://www.sfparksalliance.org/our-parks/parks/portsmouth-square,"Portsmouth Square is a community treasure and meeting point. People come here to enjoy their free time and there is something to do for everyone. This is a good central place if you're going to spend time in Chinatown. If you have children, they will enjoy the playground. Checkers/Chess players come here too to enjoy the unique competitive vibe. There is Tai Chi practiced here; however, it is very early in the morning.",N,Playgrounds,,N,Y,,Y,Y,N,rubber,N,Y,Y,Y,Y,N,N,N
PLA209,Wildwood Park,20764 4th St,Saratoga,CA,95070,,http://www.saratoga.ca.us/cityhall/rec/facility_and_park_reservations/parks/wildwood.asp,"A beautiful wooded 4 acre park with a creek, this park is the perfect setting for your wedding, family picnic, or company party. This park offers barbecue and picnic facilities, a children's play area with water feature, two horseshoe pits, a sand volleyball court, restrooms & stage.",N,Playgrounds,,N,N,,N,Y,N,mulch,N,N,N,N,Y,Y,Y,N
PLA21,Frederick Street Park,168 Frederick St,Santa Cruz,CA,95067,831 420 5270,http://www.cityofsantacruz.com/departments/parks-recreation/parks-beaches-and-open-spaces/neighborhood-parks/frederick-street-park,,N,Playgrounds,,N,Y,,N,Y,N,"rubber, sand",N,Y,Y,Y,Y,Y,N,N
PLA211,Potrero Hill Playground & Rec. Center,801 Arkansas St,San Francisco,CA,94107,415 695 5009,http://www.sfparksalliance.org/our-parks/parks/potrero-hill-playground-rec-center,"In the summer of 2007, the city renovated the lower playground giving kids and families a brand new, large and colorful place to play. There is also a baseball field, two tennis courts, and a basketball court; however, the real treat for the public is the recreation center that is extremely well maintained and has a variety of sports/activities to choose from!

There are plenty of picnic tables for lunch, in addition to the BBQ pits, and enough space for your pooch to run around.",N,Playgrounds,,N,N,,N,Y,N,rubber,N,N,Y,Y,Y,Y,Y,N
PLA212,Yountville Community Park,Lincoln St and Jackson St,Yountville,CA,94599,707 944 8712,http://www.townofyountville.com/index.aspx?page=114,Get some lunch from town and picnic in this nice park. New sponge surface is great. ,N,Playgrounds,,Y,Y,,N,Y,N,"rubber, mulch",N,N,Y,Y,Y,Y,N,N
PLA213,Bruno Canziani Park,Charlotte Way & Carnegie Way,Livermore,CA,94550,,,,N,Playgrounds,,Y,N,,Y,Y,N,mulch,N,Y,Y,Y,Y,Y,N,N
PLA214,Allan Witt Park,1741 W Texas St,Fairfield,CA,94533,(707) 428 7428,http://www.fairfield.ca.gov/gov/depts/pw/parks/parks/allan_witt_community_park.asp,"Two small playgrounds at opposite ends of this park. The main attraction here is the aquatic park here which has an amazing shallow play area for kids including slides, climbing structures and water spray toys. There are two 30-foot giant pool slides as well. ",N,Playgrounds,,Y,Y,,Y,Y,N,"mulch, sand",N,Y,Y,Y,Y,Y,Y,N
PLA215,Arguello Park,260 Wellington Dr,San Carlos,CA,94071,,,"Arguello Park is a sports park. There is a large baseball diamond and concession stand. There are a number of picnic tables & BBQ pits overlooking the baseball diamond, perfect for having a cookout while watching a game. The playground is located past the baseball diamond, is fully enclosed, situated on rubber & dedicated for younger kids. ",N,Playgrounds,,Y,Y,,N,Y,Y,rubber,N,N,N,N,Y,Y,Y,N
PLA216,Astro Park,550 El Embarcadero,Oakland,CA,94610,,,,N,Playgrounds,,Y,Y,,Y,Y,N,rubber,N,N,N,Y,Y,N,N,N
PLA218,Hester Park,Dana Ave. & Naglee Ave,San Jose,CA,95126,,,"Hester Park is located on Naglee Ave, just off Dana street. The playground is fully enclosed and contains two play structures; one for older kids and one for tots. There are park benches around the play areas to allow for supervision.  ",N,Playgrounds,,N,N,,N,Y,N,"mulch, rubber",N,Y,Y,Y,Y,N,N,N
PLA219,Bellingham Square Park,1281 Bellingham Way,San Ramon,CA,94506,,,,N,Playgrounds,,N,Y,,Y,Y,N,mulch,N,Y,Y,Y,Y,Y,N,N
PLA22,Moller Park,5500 Pleasant Hill Rd,Pleasanton,CA,94588,,http://ptownlife.org/play/parks/moller-park,,N,Playgrounds,,N,N,,Y,Y,N,mulch,N,N,N,Y,Y,Y,N,N
PLA220,Ben Lomond Park,9525 Mill St,Ben Lomond,CA,95005,,,,N,Playgrounds,,Y,Y,,N,Y,N,sand,N,Y,N,Y,N,Y,N,N
PLA221,Live Oak Park,1301 Shattuck Ave,Berkeley,CA,94709,510 981 6700,http://www.ci.berkeley.ca.us/Parks_Rec_Waterfront/Trees_Parks/Parks__Live_Oak_Park.aspx,,N,Playgrounds,,N,Y,,N,Y,Y,dirt,N,Y,Y,Y,Y,Y,Y,N
PLA222,Bernal Community Park,7001 Pleasanton Ave,Pleasanton,CA,94566,,http://ptownlife.org/play/parks/bernal-community-park,,N,Playgrounds,,Y,Y,,Y,Y,N,mulch,N,N,Y,Y,Y,Y,Y,N
PLA223,Richmond Playground,18th Ave. between Lake and California,San Francisco,CA,94121,,http://www.sfparksalliance.org/our-parks/parks/richmond-playground-and-rec-center,"Richmond Playground includes two basketball courts, a tennis court, a large multipurpose court, and a climbing structure with sand pit for children.

There is a clubhouse with restrooms.

There is a rec center down the street at 251 18th Ave between California and Clement. During the summer there is a day camp for kids and during the fall/school year there are after school and tiny tots programs. Call for more information: (415) 666-7020.",N,Playgrounds,,N,Y,,N,Y,N,sand,N,Y,Y,Y,N,N,N,N
PLA225,Kolb Park,Brighton Dr & Bristol Rd,Dublin,CA,94568,,http://www.dublin.ca.gov/index.aspx?NID=485,,N,Playgrounds,,N,Y,,N,Y,N,mulch,N,N,Y,Y,Y,Y,N,N
PLA227,Rochambeau Playground,24th Ave. btw Lake and California,San Francisco,CA,94121,,http://www.sfparksalliance.org/our-parks/parks/rochambeau-playground,"Located in the Richmond District, Rochambeau Playground has a well-kept recreation area that offers two full basketball courts, a tennis court, four-square court, hopscotch blacktops, and a dual-level playground with great climbing structures and sand area. One playground is designed for younger tots and one for older children. There are restrooms at the recreation center and plenty of benches and picnic tables to rest at. The gate closes at 6:00 pm.",N,Playgrounds,,N,Y,,N,Y,N,"rubber, sand",N,Y,Y,Y,Y,N,N,N
PLA228,Christensen Park,Cypress Point Dr. & Pasatiempo St.,Livermore,CA,94551,,,,N,Playgrounds,,N,N,,Y,Y,N,mulch,N,N,Y,Y,Y,N,N,N
PLA229,Houge Park,White Oaks Ave & Twilight Dr,San Jose,CA,95124,408 559 1221,,,N,Playgrounds,,Y,Y,,N,Y,N,mulch,N,Y,Y,Y,Y,Y,Y,N
PLA23,Moss Beach Park,Virginia Ave Etheldore St,Moss Beach,CA,94038,,https://parks.smcgov.org/moss-beach-park,"The playground at Moss Beach Park features a pirate boat, a miniature lighthouse, dolphin slides, swings and a tot area. Midcoast residents came together in 2004 and turned what had been a ramshackle collection of donated toys and play structures into a lovingly conceived and imaginative play area for kids of all ages. Consultation was provided by local play experts, i.e. the kids.",N,Playgrounds,,N,N,,N,Y,Y,mulch,N,Y,Y,Y,Y,Y,N,Y
PLA230,Cambridge Park,1135 Lacey Ln,Concord,CA,94520,925 671 3329,http://www.ci.concord.ca.us/page.asp?pid=3025,"There are picnic tables, shade trees, expansive turfed playfields for soccer and casual play and a children's play area.",N,Playgrounds,,N,Y,,Y,Y,N,"mulch, rubber",N,N,Y,Y,N,N,N,N
PLA232,Laurie Meadows Park,111 Laurie Meadows Dr,San Mateo,CA,94497,,,"Laurie Meadow Park has a large grassy area, an oval walking trail, an enclosed dog park & 2 playgrounds. The playgrounds are older and a little dated. There are picnic tables surounding the play area and have BBQ pits. The park is connected to Casanova Park.",N,Playgrounds,,N,Y,,Y,Y,N,"sand, rubber",N,Y,Y,Y,Y,Y,Y,N
PLA233,Meadow Square,Yates Way & Wayne Way,San Mateo,CA,94403,,,,N,Playgrounds,,N,Y,N,N,Y,N,mulch,N,N,N,Y,N,Y,N,N
PLA234,Ocean View Park,900 Buchanan St,Albany,CA,94706,,,,N,Playgrounds,,Y,Y,,Y,Y,Y,mulch,N,N,Y,Y,N,Y,Y,N
PLA235,Fischer Park,5155 Deep Creek Rd,Fremont,CA,94555,,,,N,Playgrounds,,N,N,,Y,Y,N,rubber,N,N,N,Y,Y,N,N,N
PLA236,Grover Cleveland Park,861 O'Donnell Ave,San Leandro,CA,94577,,https://sanleandro.org/depts/rec/parks/cleveland.asp,,N,Playgrounds,,Y,N,,N,Y,N,mulch,N,N,Y,Y,Y,N,N,N
PLA237,Las Palmas Park,850 Russet Dr,Sunnyvale,CA,94087,408 730 7751,http://sunnyvale.ca.gov/Departments/CommunityServices/Parks/LasPalmasPark.aspx,Polynesian themed Park has two separate enclosed playgrounds. ,N,Playgrounds,,Y,Y,,N,Y,Y,mulch,N,Y,Y,Y,Y,Y,Y,N
PLA238,Coyote Crossing Park,3495 Rosincress Dr,San Ramon,CA,94583,925 973 3200,,,N,Playgrounds,,Y,Y,,Y,Y,N,mulch,N,N,N,Y,Y,Y,N,N
PLA239,Paddock Park,Baze Rd & Derby Ave,San Mateo,CA,94403,650 627 0,,,N,Playgrounds,,N,Y,Y,N,Y,Y,rubber,N,Y,Y,Y,Y,Y,N,N
PLA24,Canyonview Park,Daisy Ct. & Farm Hill Dr.,Hayward,CA,94542,,,,N,Playgrounds,,N,N,,Y,Y,N,mulch,N,N,N,N,Y,N,N,N
PLA240,Creekside Park,5665 W. Las Positas,Pleasanton,CA,94588,,http://ptownlife.org/play/parks/creekside-park,,N,Playgrounds,,Y,Y,,Y,Y,N,mulch,N,N,Y,Y,Y,Y,Y,N
PLA241,Crestview Park,1000 Crestview Dr,San Carlos,CA,94070,,,Crestview Park is set behind houses with a single entrace. The park has a large soccer field & a basketball court. The playground is partially enclosed with a big kids and little kids play area. The playground also has a dedicated sand pit & awnings to protect from the sun. There are picnic tables & BBQ pits overlooking the play area.,N,Playgrounds,,Y,N,,N,Y,N,"rubber, sand",N,Y,Y,Y,Y,N,N,N
PLA242,Rossi Playground,Arguello Blvd & Anza St,San Francisco,CA,94118,415 666 7014,http://www.sfparksalliance.org/our-parks/parks/rossi-angelo-j-playground,"Rossi Playground has two baseball fields and a large grass area, three tennis courts, a full basketball court, an indoor pool, and a play area for children. There are two sections of the playground: one is for older kids and one is for younger tots.",N,Playgrounds,,N,N,,N,Y,Y,rubber,N,N,Y,Y,Y,N,N,N
PLA243,Ortega Park,636 Harrow Way,Sunnyvale,CA,94085,,,"Ortega park, has both a tots & big kids play area. The tot play area is enclosed and has a mulch base. There are also picnic tables within the enclosed play area, for you to supervise or simply have lunch. 
The big kids play area is also mulch base, and is located next to the the tot play area, which allows for easy supervision.
The park also has a dedicated climbing wall and a water feature. There is a huge picnic area with a BBQ pit, excellent for hosting a birthday party.",N,Playgrounds,,Y,Y,Y,N,Y,Y,mulch,Y,Y,Y,Y,Y,Y,Y,Y
PLA244,Murphy Park,1588 Saratoga Dr,Milpitas,CA,95035,,,,N,Playgrounds,,Y,Y,,N,Y,N,sand,N,N,N,Y,Y,Y,Y,N
PLA245,Hayward Rotary Playground,Mission Blvd & D St,Hayward,CA,94541,,,,N,Playgrounds,,Y,N,,N,Y,Y,rubber,N,N,Y,Y,Y,N,N,N
PLA246,Fremont Central Park (Lake Elizabeth),40000 Paseo Padre Pkwy,Fremont,CA,94538,(510) 790 5541,https://www.fremont.gov/317/Central-Park,"One of the best parks in the neighborhood with 4 separate playgrounds, stroller trail around the lake, boating in the summer and Aqua Adventure Water Park. One playground is right by the parking off Paseo Padre Parkway, there is a climbing net, big kid and toddler play structures. The largest playground is between Lake Elizabeth and Aqua Adventure. It has a fun forest theme. The third playground is a tot lot past the Boathouse in the direction of the Fremont Main Library. The last playground is the Always Dream Playground, an accessible playground great for younger tots and children with disabilities. It's on the other side of the park off Stevenson Boulevard by the soccar and softball fields. ",N,Playgrounds,,Y,Y,,Y,Y,N,rubber,N,Y,Y,Y,Y,Y,Y,Y
PLA247,Fremont Skate Park,40000 Paseo Padre Pkwy,Fremont,CA,94538,510 790 5546,,Fremont Skate Park is located next to Fremont Central Park (Lake Elizabeth) playground. ,N,Playgrounds,,Y,Y,,Y,Y,N,rubber,N,Y,Y,Y,Y,Y,N,N
PLA248,Saint Mary's Playground,Murray St & Justin Dr,San Francisco,CA,94112,,http://www.sfparksalliance.org/our-parks/parks/saint-marys-square,"St. Mary's Square is great place to visit if you're downtown. Any green space in this area is very valuable to the locals! This place is really gorgeous though. There are lots of trees and bushes, plenty of benches to relax on after a ton of walking, and a play structure if you have kids! There are restrooms available too.",N,Playgrounds,,N,N,,N,Y,N,"rubber, sand",N,Y,Y,Y,N,N,N,N
PLA249,Dover Park,800-826 E Travis Blvd,Fairfield,CA,94533,(707) 428 7428,http://www.fairfield.ca.gov/gov/depts/pw/parks/parks/dover.asp,,N,Playgrounds,,N,N,,Y,Y,N,rubber,N,N,Y,Y,Y,Y,N,N
PLA25,Creighton Park,Big Bear Ct.,Milpitas,CA,95035,,,,N,Playgrounds,,Y,N,,N,Y,N,sand,N,N,N,Y,N,Y,Y,N
PLA250,Dracena Quarry Park,130 Dracena Ave,Piedmont,CA,94611,,,"Great neighborhood park with a climbing wall, sand pit, cement slide and play structure. ",N,Playgrounds,,N,Y,,Y,Y,N,"sand, rubber",N,Y,Y,Y,Y,N,N,N
PLA251,Sellick Park,Appian Way,South San Francisco,CA,94080,,,,N,Playgrounds,,Y,Y,,Y,Y,N,mulch,N,Y,Y,Y,N,Y,Y,N
PLA252,Eagle Park,652 Franklin St,Mountain View,CA,94041,,,,N,Playgrounds,,Y,N,,N,Y,N,"rubber, sand",N,Y,N,N,Y,Y,N,N
PLA253,John Mise Park,Mitty Way & Moorpark Ave,San Jose,CA,95129,,,"John Mise Park has an amazing soccer field with stadium lighting. The park also contains two basketball courts. 
The playground is dedicated towards older kids and there are picnic tables that overlook it. Bathroom are nearby as well. ",N,Playgrounds,,N,Y,,N,Y,N,mulch,N,N,N,Y,Y,Y,Y,N
PLA254,Johnson Park,Waverley St. & Hawthorne Ave.,Palo Alto,CA,94301,,,,N,Playgrounds,,N,N,,N,Y,Y,"sand, rubber",N,Y,N,N,Y,Y,N,N
PLA255,El Quito Park,12855 Paseo Presada,Saratoga,CA,95070,,,,N,Playgrounds,,N,Y,Y,N,Y,N,mulch,N,Y,Y,Y,Y,Y,Y,N
PLA257,Gomes Park,Lemos Ln & Chiltern Dr.,Fremont,CA,94539,,,,N,Playgrounds,,N,N,,Y,Y,N,sand,N,Y,Y,Y,Y,N,N,N
PLA258,Mape Memorial Park,11711 Mape Way,Dublin,CA,94568,,http://www.dublin.ca.gov/Facilities/Facility/Details/8,,N,Playgrounds,,N,Y,,N,Y,N,mulch,N,N,Y,Y,N,Y,N,N
PLA26,Harvey West Park,326 Evergreen St,Santa Cruz,CA,95067,,http://www.cityofsantacruz.com/departments/parks-recreation/parks-beaches-and-open-spaces/community-parks/harvey-west-park,,N,Playgrounds,,Y,Y,,N,Y,N,"rubber, sand",N,Y,Y,Y,Y,Y,Y,N
PLA260,Fire Truck Park,2070 Arlington Way,San Ramon,CA,94583,,,,N,Playgrounds,,N,N,,N,Y,N,mulch,N,Y,N,Y,Y,Y,N,N
PLA261,J.A. Lewis Park,Hayward Blvd & Plumas Ct,Hayward,CA,94543,,,,N,Playgrounds,,N,Y,,Y,Y,N,mulch,N,Y,N,Y,Y,N,N,N
PLA262,Kirk Park,1601 Foxworthy Ave,San Jose,CA,95118,408 723 1571,http://www.sanjoseca.gov/Facilities/Facility/Details/Kirk-Park-17,,N,Playgrounds,,Y,Y,,N,Y,N,mulch,N,N,Y,Y,Y,Y,Y,N
PLA263,Halcyon Park,1245 147th Ave,San Leandro,CA,94578,510 577 3462,https://sanleandro.org/depts/rec/parks/halcyon.asp,This neighborhood park is almost 5 acres and is located at 1245 147th Avenue. A concrete volleyball court and tot lot are also available for use.,N,Playgrounds,,Y,Y,,N,Y,Y,mulch,N,N,Y,Y,Y,Y,N,N
PLA264,Memorial Park,10185 N Stelling Rd,Cupertino,CA,95015,,http://cupertino.org/index.aspx?page=591,"Memorial Park, in Cupertino, is located next to Quinlan Community Center. The park has a huge open grass area for kids to play as well as a baseball diamond. There are 2 picnic areas that overlook each of the two playgrounds. The playgrounds are good for all age groups. ",N,Playgrounds,,Y,Y,,Y,Y,N,mulch,N,Y,Y,Y,Y,Y,Y,N
PLA265,Rincon Valley Community Park,Badger Rd & Rincon Meadows Ct,Santa Rosa,CA,95409,,http://ci.santa-rosa.ca.us/departments/recreationandparks/parks/cityparks/listofparks/Pages/RinconValleyPark.aspx,,N,Playgrounds,,Y,Y,,Y,Y,N,sand,N,N,Y,Y,Y,Y,Y,N
PLA266,Fremont Park,1303 Fremont St,Santa Clara,CA,95052,408 615 2200,,"Fremont Park has two play structures for both younger and older kids. The playground has an Atlantis type theme incorporating Pegasus statues and sunken dinosaur bones. The playground contains 6 slides, 2 of which are quite large and would be entertaining for big kids. The play structure is located on sand and there is also rubber to make it handicap accessible. There are swings for both tots and big kids. Surrounding the play structure are benches so you can supervise the kids. The park also has three picnic tables overlook the playground and one shared BBQs pit. Note the picnic tables are located on dirt, if you go after a morning shower the area is a little muddy. The park also contains a paved trail that is stroller friendly and can be used when learning to ride a bike.",N,Playgrounds,,Y,N,,Y,Y,N,"rubber, sand",N,Y,Y,Y,Y,Y,Y,N
PLA268,Frog Park,5500 Claremont Ave,Oakland,CA,94618,,http://www.frogpark.org/,"There are two playgrounds – Redondo and Hardy – stand at the southern and northern ends. Hardy Playground, the larger of the two structures is designed primarily for children aged 5-12, although it does have a small tot lot and sandbox. It is tucked behind the redwood trees that line the south-east corner of the Hardy Park greenspace, at the intersection of Hudson and Claremont Streets. Redondo Playground is a tot lot designed for children 2-5 years old. It is located beneath the grove of redwoods at the intersection of Redondo Street and Clarke Street.",N,Playgrounds,,N,N,,N,Y,N,dirt,Y,N,Y,Y,Y,N,N,N
PLA269,Frontierland Park,900 Yosemite Drive,Pacifica,CA,94044,650 738 7381,http://www.cityofpacifica.org/depts/rec_department/parksbeaches/beach_and_park_info_and_rules/frontierland.asp,"Frontierland Park is nestled up against the hills of Pacifica with lots of open space and picnic, BBQ, horseshoes and playground amenities. We have one large-group picnic area that can be reserved. Call 650-738-7381 for availability or to make a reservation. We also have several individual picnic tables which are first come, first serve. In the reservable large-group picnic area, we have 10 picnic tables, which seat about 6 to 8 people each. This area also has a counter prep area behind the 2 BBQ pits.",N,Playgrounds,,Y,Y,,N,Y,N,mulch,Y,N,Y,Y,Y,Y,Y,N
PLA27,Leghorns park,Casella Way & Casella Al,Petaluma,CA,94954,707 778 4380,http://cityofpetaluma.net/parksnrec/parks-pages/leghorns.html,,N,Playgrounds,,Y,Y,,Y,Y,N,mulch,N,N,Y,Y,Y,Y,Y,N
PLA270,Fuller Park,Jefferson St & Oak St,Napa,CA,94558,707 257 9529,,,N,Playgrounds,,N,Y,,Y,Y,Y,"rubber, sand",N,Y,Y,Y,Y,Y,Y,N
PLA271,Gary Falati Neighborhood Park,5100 Falati Ln,Fairfield,CA,94533,(707) 428 7428,http://www.fairfield.ca.gov/gov/depts/pw/parks/parks/falati_park.asp,,N,Playgrounds,,N,N,,Y,Y,N,mulch,N,N,Y,Y,Y,Y,Y,N
PLA273,Ohlone Park,1701 Hearst Avenue,Berkeley,CA,94703,,,,N,Playgrounds,,N,N,,Y,Y,N,sand,N,Y,Y,Y,N,Y,Y,N
PLA274,Edendale Park,16335 E 14th St,San Leandro,CA,94580,,,,N,Playgrounds,,Y,Y,,N,Y,N,rubber,N,N,Y,Y,Y,N,N,N
PLA276,Parkside Aquatic Park,Seal St.,San Mateo,CA,94403,,,"Parkside Aquatic Park, bordering the Marina Lagoon, has two playstructures on sand. Both play structures are for younger kids. There are picnic tables overlooking the play area with BBQ pits. You can also rent canoes & kayaks or unload your boat into the Lagoon. ",N,Playgrounds,,Y,Y,,N,Y,N,"sand, rubber",Y,Y,Y,Y,N,Y,Y,N
PLA277,Hawes Park,Rosevalt Ave. & Iris St.,Redwood City,CA,94061,650 780 7317,,"Hawes Park is a sport field, with a baseball diamond. The park is connected to Hawes Elementary School. During off school hours, the school's playgrounds are accessible. The playground is dedicated for older kids. The playground itself is also enclosed and there are school picnic tables surounding the area. ",N,Playgrounds,,N,N,,N,Y,Y,mulch,N,N,N,N,Y,Y,N,N
PLA278,Hawkins Park,367-371 Summerfield Dr,Vacaville,CA,95687,,,,N,Playgrounds,,Y,N,,N,Y,N,mulch,N,N,Y,Y,Y,Y,Y,N
PLA28,Bol Park,3590 Laguna Ave,Palo Alto,CA,94306,,,Bol Park is a quiet neighborhood park. The play structures are good for all ages. Behind the park is a walking / biking trail that can be used. A unique feature of this park is that on Sunday's donkeys are brought to the park to interact with visitors. ,N,Playgrounds,,N,N,,Y,Y,N,mulch,N,Y,Y,Y,Y,Y,N,N
PLA280,Heritage Oaks Park,1305 Mckenzie Avenue,Los Altos,CA,94024,,,,N,Playgrounds,,Y,Y,,N,Y,N,mulch,N,Y,Y,Y,Y,Y,Y,N
PLA281,Juana Briones Park,Maybell Ave & Clemo Ave,Palo Alto,CA,94309,,http://www.cityofpaloalto.org/news/displaynews.asp?NewsID=101&TargetID=14,,N,Playgrounds,,N,N,,N,Y,N,"mulch, sand",N,Y,Y,Y,Y,Y,N,N
PLA282,O'Toole Elms Park,700 South Abel St,Milpitas,CA,95035,,,,N,Playgrounds,,N,N,,N,Y,N,rubber,N,N,Y,Y,N,Y,Y,N
PLA283,Highlands Park,2600 Melendy,San Carlos,CA,94070,,,"Highlands Park is a sports based park, having 3 baseball diamonds, a soccer field & 5 tennis courts totalling 11.25 acres in size. The park has two parking lots and plenty of street parking. There are two playgrounds situated next to the restrooms for tots & big kids. The playground also has a sand pit.   ",N,Playgrounds,,Y,N,,N,Y,N,mulch,N,Y,Y,Y,N,Y,N,N
PLA284,Hillcrest Park,2086-2098 Olivera Rd,Concord,CA,94520,,http://www.ci.concord.ca.us/RECREATION/parks/matteo/index.html,"The playground at Hillcrest Park is called Matteo's Dream. It is an all accessible playground where kids of all abilities can play together. There are lots of ramps, tunnels, and slides. ",N,Playgrounds,,Y,Y,,Y,Y,N,rubber,Y,N,N,Y,Y,Y,N,N
PLA285,Lincoln Glen Park,Radio Ave & Curtner Ave,San Jose,CA,95125,,,"Lincoln Glen Park has two playground, one for older kids and one for tots. The entire park is enclosed, which is great for allowing the little ones to run around unsupervised. The tot playground is mulch and rubber based, while the older kids play structure is sand and rubber based. The park also has a water feature and picnic tables that overlook the play structures. ",N,Playgrounds,,Y,Y,,N,Y,Y,rubber,Y,Y,Y,Y,Y,Y,N,N
PLA286,Holbrook Palmer Park,150 Watkins Ave,Atherton,CA,94027,650 688 6534,,"Holbrook Parlmer Park, is Atherton's only recreation site, and large at 22 acres. There is a large parking lot, lots of open grass area for kids to play, stroller trails and is dog friendly. 
There are two playgrounds within the park. The younger kids play structure is train themed, enclosed and has picnic tables inside.  ",N,Playgrounds,,Y,Y,Y,Y,Y,Y,"sand, rubber",N,Y,Y,Y,Y,Y,Y,N
PLA287,Homeridge Park,Stevenson St & Barto St.,Santa Clara,CA,95052,408 615 2200,,"Homeridge Park is a neighborhood park dedicated to older kids, aged 5-12. The wooden play structures are located on sand. The play area is partially enclosed, approximately 80% and is only open where the picnic tables and BBQs are located. This allows for easy supervision of the kids without worry. The park itself also has an open field area for kids to run and play. The park also contains a public restroom.",N,Playgrounds,,Y,Y,N,N,Y,N,sand,N,Y,N,Y,Y,Y,Y,N
PLA288,Mitchell Park,600 E Meadow Dr,Palo Alto,CA,94309,650 463 4900,,,N,Playgrounds,,Y,Y,,Y,Y,N,"mulch, sand",Y,Y,Y,Y,Y,Y,Y,N
PLA289,Hagemann Park,Hummingbird Lane & Turnstone Dr.,Livermore,CA,94551,,,,N,Playgrounds,,N,N,,Y,Y,N,mulch,N,N,Y,Y,Y,Y,N,N
PLA29,Cayuga Playground,301 Naglee Ave,San Francisco,CA,94112,,http://www.sfparksalliance.org/our-parks/parks/cayuga-playground,"The playground features a baseball diamond, tennis and basketball courts, a sand playground, blacktop with four game squares, and a recreation center.",N,Playgrounds,,N,Y,,N,Y,Y,rubber,N,Y,Y,Y,Y,N,N,N
PLA290,Jefferson Square Park,618 Jefferson St,Oakland,CA,94607,,,,N,Playgrounds,,N,N,,N,Y,Y,rubber,N,N,Y,Y,N,N,N,N
PLA291,Jenny Strand Park,200 Howard Dr,Santa Clara,CA,95051,408 615 2200,,"Jenny Strand Park is located at the end of a cul-du-sac and has a small parking lot. The park has a large grass areas and a small circular play area for kids. The play structure is partially fenced off, on the street side. The play structure is dedicated for younger kids age 0-5 with a wooden play structured residing  on sand. there are two swings, one for big kids and one for little kids. The park has individual bbq pits associate to each picnic table. While you have a clear view of the play structure it is too far away to leave young kids unsupervised.",N,Playgrounds,,Y,Y,N,N,Y,N,sand,N,Y,N,Y,Y,Y,Y,N
PLA292,Sigmund Stern Grove,Sloat Blvd & 19th Ave,San Francisco,CA,94132,415 252 6252,http://www.sfparksalliance.org/our-parks/parks/sigmond-stern-grove-including-stern-grove-annex,"Stern Grove is the host of the annual Stern Grove Festival. Every Sunday every summer, a music festival is held in the Stern Grove outdoor amphitheater. ",N,Playgrounds,,N,Y,,Y,Y,N,dirt,N,N,N,Y,Y,Y,N,N
PLA294,South Beach Playground,2nd St. & King St.,San Francisco,CA,94107,,http://www.sfparksalliance.org/our-parks/parks/south-beach-park,"Privately built by the South Beach Marina Association, South Beach Park is a lovely location on the waterfront for families and locals. There is a nice little playground for tiny tots with a small sand area and climbing structure appropriate for their ages.

There is also lots of grass for kids to run around in.

There are benches here to sit down and relax, and this spot is a nice walk to AT&T Park or the Ferry Building.",N,Playgrounds,,N,N,,Y,Y,Y,rubber,N,Y,Y,Y,N,N,N,N
PLA295,Monta Vista Park,Voss Ave and S Foothill Blvd,Cupertino,CA,95014,408 777 3120,,"Monta Vista Parks has 2 playgrounds, 2 baseball diamonds, 2 tennis courts & the Monta Vista Recreation Center within the park grounds. The playgrounds are on Woodridge Ct. There are two picnic tables that are situated between the playgrounds. Next to the playgrounds is a grassy area for kids to run and play. ",N,Playgrounds,,N,Y,,N,Y,N,mulch,N,N,N,Y,Y,N,N,N
PLA296,Peter D Gill Memorial Park,Paseo Refugio & Bereesford Park,Milpitas,CA,95035,,,,N,Playgrounds,,Y,Y,,Y,Y,N,sand,N,N,Y,Y,N,Y,Y,N
PLA297,South Park,64 S Park St,San Francisco,CA,94107,,http://www.sfparksalliance.org/our-parks/parks/south-park,"This park is in the heart of the SOMA neighborhood. It has a small playground with recent improvements. It also has a sand pit and some unique climbing structures. There are plenty of paths and picnic tables to enjoy and appreciate your surroundings. This park is well-kept and has a ton of beautiful trees and bushes that surround the park.

Dogs are welcome too! There is plenty of space for your pup to run around and play fetch!

After a nice afternoon at South Park, head over to one of the cafes or restaurants around the perimeter!",N,Playgrounds,,N,N,,N,Y,Y,dirt,N,Y,Y,Y,N,Y,N,N
PLA298,South Sunset Playground,40th Ave & Vicente St,San Francisco,CA,94116,415 753 7037,http://www.sfparksalliance.org/our-parks/parks/south-sunset-playground,"South Sunset Playground has been recently renovated. It sports a brand new artificial turf field designed to hold two baseball diamonds and three U-10 soccer fields. There are two basketball courts, a tennis court, and a multi-use court. The playground has very bright colors. There is a clubhouse and restrooms available.",N,Playgrounds,,N,Y,,N,Y,Y,rubber,N,N,Y,Y,Y,N,N,N
PLA299,Irvington Community Park,Blacow Rd. & Greenpark Dr.,Fremont,CA,94538,,https://www.fremont.gov/334/Community-Park-Picnic-Areas-and-Fees,,N,Playgrounds,,Y,Y,,N,Y,N,Rubber,N,N,Y,Y,Y,Y,N,N
PLA3,San Ramon Athan Downs Park,680 Montevideo Rd,San Ramon,CA,94583,925 973 2817,,"Modern and new play structure sets this park apart. There is a seesaw, spinning seat, rolling slide and lots of ramps.",N,Playgrounds,,Y,Y,,Y,Y,N,rubber,N,Y,Y,Y,Y,Y,Y,Y
PLA30,Baylands Park,999 E Caribbean Dr,Sunnyvale,CA,94088,408 730 7751,http://sunnyvale.ca.gov/Departments/CommunityServices/Parks/BaylandsPark.aspx,"Located on the beautiful San Francisco Bay, Baylands Park provides over seventy acres of developed parkland offering active recreation, pathways and picnic areas for families and large groups. Baylands Park has a Naturalist theme which is enhanced by the many acres of native grasses, open meadows and wonderful vistas. An additional 105 acres of seasonal wetlands is protected as a Wetlands Preserve providing habitat for plants and wildlife. Baylands Park is a successful joint venture between Santa Clara County which owns the property and the City of Sunnyvale which manages and maintains the Park.

The Discovery Play Area will catch your child's imagination. This creative playground is wheelchair-accessible. Play features include climbing structures, see-saw snake, spring toys, sand terraces and talk tubes. Young explorers can find fossil imprints in the archeological dig and follow dinosaur tracks.  Three smaller play areas feature swings, a climbing net and a play town.",Y,Playgrounds,,Y,Y,,Y,Y,N,sand,N,N,Y,Y,Y,Y,Y,N
PLA300,Meadows Park,Bluefield Dr and Edelweiss Dr,San Jose,CA,95136,408 793 5510,,,N,Playgrounds,,Y,Y,,Y,Y,N,mulch,N,N,Y,Y,Y,Y,Y,N
PLA301,Murdock Park,Wunderlich Drive and Castle Glen Avenue,San Jose,CA,95106,,,,N,Playgrounds,,N,Y,,N,Y,N,mulch,N,N,Y,Y,Y,Y,Y,N
PLA302,Lafayette Square Park,635 11th St,Oakland,CA,94607,510 238 7275,,,N,Playgrounds,,Y,Y,,N,Y,N,rubber,N,N,Y,Y,N,Y,N,N
PLA304,Ponderosa Park,811 Henderson Ave,Sunnyvale,CA,94085,,,"Ponderosa Park shares its space with Ponderosa Elementary School. The park itself has two soccer fields, a baseball diamond, basketball court, two tennis courts & two play structures in a western motif. The play area has has swings for both younger and older kids. The restroom, lated next to the play area, includes change tables. There are small picnic tables surounding the play area, and a larger reservable picnic area with BBQ pit closer to the parking lot. ",N,Playgrounds,,Y,Y,Y,N,Y,N,"rubber, sand",N,Y,Y,Y,Y,Y,Y,N
PLA305,Larry J Marsalli Park,Lafayette and El Camino Real,Santa Clara,CA,95050,,,"Larry J. Marsalli Park's playground is located at the back of the park behind the parking lot and baseball diamond. The playground is dedicated for older kids and has a baseball theme to it. The play structure resides on sand and mulch. The playground also has tot swings, and possibly the more adventurous 2-5 yr olds could also play here. There are two sets of picnic tables that overlook the playground. Each set contains two picnic tables and 1 BBQs pit.the park also contains public restrooms.  The playground is partially fenced in, completely from the street with the opening only to the Parking lot, so kids can safely run free. One downside of this park is that it's located btw two major streets so it gets a little loud, but is completely safe due to the park being primarily fenced in.",N,Playgrounds,,Y,Y,,N,Y,N,"rubber, sand",N,Y,N,Y,Y,Y,Y,N
PLA306,Raynor Park,1565 Quail Ave,Sunnyvale,CA,94087,,,"Raynor Park is primarily a sport field, having 2 baseball diamonds. The park also has 2 play structures. The younger kids play structure is fully enclosed, has an awning and is located next to the restrooms. The older kids play area, has a dinosaur motif, a dedicated sand pit, is partially enclosed and also has an awning. ",N,Playgrounds,,Y,Y,,N,Y,Y,"rubber, sand",N,Y,Y,Y,Y,Y,Y,N
PLA307,Laureola Park,515 Old County Rd,San Carlos,CA,94070,,,"Laureola Park is a nice neighborhood park. The parking lot is located on Old County Rd behind Heating Supply Co. The park has a large baseball field, a grassy area for kids & a fully enclosed tot & big kids playground. There are picnic tables & BBQ pits overlooking the play areas. The playground theme has a forest / tree fort theme. There are also picnic tables within the play area. ",N,Playgrounds,,Y,Y,,Y,Y,Y,rubber,Y,N,Y,Y,Y,Y,Y,N
PLA309,Godfrey Park,281 Beach Road,Alameda,CA,94502,,http://alamedaca.gov/recreation/godfrey-park,,N,Playgrounds,,N,Y,,N,Y,N,mulch,N,N,N,Y,Y,N,N,N
PLA31,Franco Park,10981 Franco Ct,Cupertino,CA,95014,408 777 3120,,,N,Playgrounds,,N,N,,N,Y,N,rubber,N,N,N,N,Y,Y,N,N
PLA310,Limerick Park,2833 Bethany Rd.,San Ramon,CA,94506,,,,N,Playgrounds,,N,Y,,Y,Y,N,mulch,N,N,Y,Y,Y,Y,N,N
PLA311,Krusi Park,Otis Dr & Mound St,Alameda,CA,94501,(510) 522 4341,http://alamedaca.gov/recreation/krusi-park,"The older kids playground at Krusi is very extensive with lots of bridges, slides and climbing structures. There is a separate fenced tot lot. Two picnic area can be rented, other areas are first-come, first serve. Also at Krusi are baseball/softball fields, tennis courts, and shuffleboard.",N,Playgrounds,,N,Y,,Y,Y,Y,"mulch, sand",N,Y,Y,Y,Y,Y,Y,N
PLA312,Portal Park,10299 N Portal Ave,Cupertino,CA,95014,,,,N,Playgrounds,,N,Y,,N,Y,N,mulch,N,Y,Y,Y,Y,Y,Y,N
PLA313,Lions Park,1st & 3rd,San Bruno,CA,94066,,,,N,Playgrounds,,Y,Y,,N,Y,N,mulch,N,N,Y,Y,Y,Y,N,N
PLA315,Karl Nordvik Park,6029 Commerce Dr,Fremont,CA,94555,,,,N,Playgrounds,,Y,Y,,N,Y,N,rubber,N,N,N,Y,N,N,N,N
PLA316,Lone Tree Creek Park,500 Starlight Way,Fremont,CA,94539,,,,N,Playgrounds,,N,N,,N,Y,N,rubber,N,N,Y,Y,N,N,N,N
PLA317,Los Cerritos Community Park,3377 Alder Ave,Fremont,CA,94536,510 791 4351,,,N,Playgrounds,,Y,Y,,N,Y,N,sand,N,Y,Y,Y,Y,Y,Y,N
PLA319,Mankas Park,2800 Owens St,Fairfield,CA,94534,(707) 428 7428,http://www.fairfield.ca.gov/gov/depts/pw/parks/parks/mankas.asp,,N,Playgrounds,,N,N,,Y,Y,N,mulch,Y,N,Y,Y,Y,Y,N,N
PLA32,Becky Temko Tot Park,2424 Roosevelt Way,Berkeley,CA,94703,,http://www.ci.berkeley.ca.us/Parks_Rec_Waterfront/Trees_Parks/Parks__Becky_Temko_Tot_Park.aspx,,N,Playgrounds,,N,N,,N,Y,N,sand,N,Y,Y,Y,N,Y,N,N
PLA320,Jack Williams Park,2041 Neptune Rd,Livermore,CA,94550,,,,N,Playgrounds,,N,N,,Y,Y,N,mulch,N,N,Y,Y,Y,Y,Y,N
PLA321,Livermore Downs Park,Livermore Downs Park,Livermore,CA,94551,,,,N,Playgrounds,,Y,N,,Y,Y,N,mulch,N,Y,Y,Y,Y,N,N,N
PLA322,Maxwell Farms Regional Park,100 Verano Ave ,Sonoma,CA,95476,,,,Y,Playgrounds,,Y,Y,,Y,Y,N,mulch,N,Y,N,Y,Y,Y,N,N
PLA323,Maywood Park,3330 Pruneridge Ave,Santa Clara,CA,95052,408 615 3140,,"Maywood Park is a large park that shares the grounds with an elementary school. In one corner there is a play structure dedicated for kids 2-5 and 5-12. They playground also contains a riding horse for tots as well as tot swings. The play area is located on sand and has some rubber for handicap accessibility. There are picnic tables that overlook the play structure and you can supervise the kids from here.

The school itself has two play structures that can be used off school hours. These structures are dedicated for kids age 5-12 with an occasional slide that younger kids could use.

The park also has public restrooms but they are further away from the play structures, a short walk away. The park has paved trails throughout which can be used for biking or stroller walks. Throughout the park, there a numerous picnic tables with personal bow pits.",N,Playgrounds,,N,Y,,Y,Y,N,"sand, mulch",N,Y,Y,Y,Y,Y,Y,N
PLA324,McKenzie Park,707 Fremont Avenue,Los Altos,CA,94024,,,"A hidden oasis by Foothill Exp, you walk through the parking lot, turn right down the pathway to find the playground, picnic area and large lawn. Two separate play structures for older and younger kids await you. ",N,Playgrounds,,Y,Y,,N,Y,N,mulch,N,N,Y,Y,Y,Y,Y,N
PLA325,Somerset Park,10798 Stokes Ave,Cupertino,CA,95014,408 777 3120,,"Sommerset Park is a small park located at the end Stokes Ave., which is also the only entrace to the park. The park has one play structure and even though it claims to be for younger kids, I believe older kids will enjoy it too. The park has an oval for taking a brisk walk, a basketball hoop & a grassy area for kids to run and play. ",N,Playgrounds,,N,N,,Y,Y,N,mulch,N,N,Y,Y,Y,Y,Y,N
PLA326,Mezes Park,300-398 Howland St,Redwood City,CA,94063,,,,N,Playgrounds,,N,Y,,N,Y,N,mulch,N,N,Y,Y,N,Y,N,N
PLA328,Monta Loma Park,Thompson Ave and Laura Ln,Mountain View,CA,94043,650 903 6326,,"Monta Loma Park shares its space with Monta Loma Elementary School. The park itself has a play structure dedicated for younger kids. It has a sand pit and has picnic benches nearby. Transitioning over to the school, you have two playgrounds. One dedicated to big kids, and one for younger kids. The younger kids play area is enclosed. The park itself also has a large grass area for kids to run and play or partake in a game of soccer or baseball. ",N,Playgrounds,,N,Y,N,Y,Y,Y,"sand, rubber, mulch",N,Y,Y,Y,Y,Y,N,N
PLA329,Mosswood Park,3612 Webster St,Oakland,CA,94609,510 597 5038,,,N,Playgrounds,,Y,Y,,Y,Y,N,rubber,N,Y,Y,Y,N,Y,Y,N
PLA33,Christopher Park,Near 5214 Diamond Heights Blvd,San Francisco,CA,94131,,http://www.sfparksalliance.org/our-parks/parks/christopher-playground,"This playground has a play structure with a sand pit. There is also a softball field, tennis court, and basketball court. A nice area to take dogs for walks; however, it is not an official ""off-leash"" area. In addition, there is a clubhouse and rest rooms on site.",N,Playgrounds,,N,N,,Y,Y,N,sand,N,Y,Y,Y,Y,N,N,N
PLA330,Sue Bierman Park,Clay St & Drumm St,San Francisco,CA,94105,,,,N,Playgrounds,,N,N,,Y,Y,Y,rubber,N,N,Y,Y,Y,N,N,N
PLA331,Muirwood Community Park,Muirwood Dr. & Highland Oaks Dr.,Pleasanton,CA,94588,,http://ptownlife.org/play/parks/muirwood-community-park,,N,Playgrounds,,N,Y,,Y,Y,N,mulch,N,N,Y,Y,N,Y,N,N
PLA332,Nealon Park,800 Middle Ave,Menlo Park,CA,94025,650 330 2200,,"Nealon Park is just off of Middle Ave. The park has it's own dedicated parking and the playground is fully enclosed. There are two play structures, one for older kids and one for younger. There is also a dedicated sand pit with an awning. There are numerous park benches and also picnic tables within the playground enclosure.
The park also has a baseball diamond and 5 tennis courts. It's also a short walk from Safeway and Peet's Coffee.  ",N,Playgrounds,,Y,N,,N,Y,Y,mulch,N,Y,Y,Y,Y,Y,N,N
PLA334,Newark Community Park,35501 Cedar Blvd,Newark,CA,94560,510 578 4000,,,N,Playgrounds,,Y,Y,,N,Y,N,mulch,Y,Y,Y,Y,Y,Y,N,N
PLA335,Newhall Community Park,1351 Newhall Pkwy,Concord,CA,94521,925 671 3000,http://www.ci.concord.ca.us/page.asp?pid=3025,"Access is via Newhall Parkway south of Clayton Road or from Turtle Creek Road. Galindo Creek meanders through the park. Approximately 30 acres of park is improved with ponds along the creek, a play structure, picnic areas, bocce courts, and turfed athletic fields. There is one reservable group picnic area in a secluded creekside setting with large oak trees. ",N,Playgrounds,,Y,Y,,Y,Y,N,mulch,N,N,Y,Y,N,Y,N,N
PLA336,Lowry Park,33100 Great Salt Lake Dr,Fremont,CA,94555,,,,N,Playgrounds,,N,N,,Y,Y,N,rubber,N,N,Y,Y,Y,N,N,N
PLA337,Remillard Park,80 Poppy Ln,Berkeley,CA,94708,,http://www.ci.berkeley.ca.us/Parks_Rec_Waterfront/Trees_Parks/Parks__Remillard_Park.aspx,,N,Playgrounds,,N,N,,N,Y,N,sand,N,N,N,Y,Y,Y,N,N
PLA338,Old Alvarado Park,3871 Smith St,Union City,CA,94587,510 670 7275,,,N,Playgrounds,,Y,N,,N,Y,N,sand,N,Y,Y,Y,Y,Y,Y,N
PLA339,Meyer Park,38220 Glenmoor Dr,Fremont,CA,94536,510 791 9830,,,N,Playgrounds,,N,Y,,N,Y,N,mulch,N,N,Y,Y,Y,Y,Y,N
PLA34,Alamo Creek Park,7601 Shady Creek Rd,Dublin,CA,94568,,http://www.dublin.ca.gov/Facilities/Facility/Details/2,,N,Playgrounds,,Y,Y,,Y,Y,N,mulch,N,Y,Y,Y,N,Y,Y,N
PLA340,Sunnyside Playground,Foerster St & Melrose Ave,San Francisco,CA,94127,415 337 4720,http://www.sfparksalliance.org/our-parks/parks/sunnyside-playground-recreation-center,"Sunnyside Playground was renovated in 2007 and now offers kids and families a much-improved park and recreation center. There is a colorful play structure, a large sand area with fountain, and a fun merry go-round. There is also a tennis and basketball court, a large grass area for playing catch or frisbee, and dogs are welcome too! There are plenty of picnic tables and restrooms available on-site!",N,Playgrounds,,N,Y,,N,Y,Y,rubber,N,Y,Y,Y,Y,N,N,N
PLA341,Marina Park,14001 Monarch Bay Dr,San Leandro,CA,94577,,https://sanleandro.org/depts/rec/parks/marina.asp,"Located off Monarch Bay Drive near Fairway Drive, this 30-acre regional park that borders the beautiful San Leandro Shoreline. Amenities include picnic areas with barbecue grills, play apparatus, three newly renovated large group picnic areas, a large grassy area and a mile-long par course.",N,Playgrounds,,Y,Y,,Y,Y,N,mulch,N,N,Y,Y,Y,Y,Y,N
PLA342,McCartney Park,Sunnyside Dr. & Breed Ave.,San Leandro,CA,94577,,https://sanleandro.org/depts/rec/parks/mccartney.asp,"This small, one-acre park is located on Breed Avenue at Sunnyside Drive. The park has two backstops for playing baseball or softball, a barbecue pit and a picnic table. There is a fenced tot lot, which is shared by Washington School for use during recess and physical education classes.",N,Playgrounds,,N,N,,N,Y,Y,mulch,N,N,Y,Y,Y,Y,Y,N
PLA343,Palm Park,1443 Hudson St,Redwood City,CA,94061,,,"Palm Park is a small enighborhood park, the play structures are good for kids of all ages. Surounding the park there are a number of picnic tables, which is great for supervision. There is only one picnic table that has its own BBQ, which is also shaded by the trees. ",N,Playgrounds,,N,N,,N,Y,N,mulch,N,N,Y,Y,Y,Y,Y,N
PLA344,Paul Moore Park,Hillsdale Ave & Cherry Ave,San Jose,CA,95118,,,,N,Playgrounds,,N,Y,Y,N,Y,N,mulch,N,N,Y,Y,Y,Y,Y,N
PLA345,Pinewood Park,298 Lonetree Ct,Milpitas,CA,95035,,http://www.ci.milpitas.ca.gov/government/recreation/parks.asp,,N,Playgrounds,,N,Y,,N,Y,N,"sand, rubber",N,Y,Y,Y,N,Y,Y,N
PLA346,Playground Fantastico,2449 Old Sonoma Rd,Napa,CA,94558,707 257 9529,http://www.cityofnapa.org/index.php?option=com_content&view=article&id=374&Itemid=1082,"This playground can be difficult to find but is worth the effort. It's tucked behind the parking lot of Harvest Middle School. This fully enclosed playground has lots of pretend and physical play opportunities. There are animal statues, wooden cars, play houses, a castle themed play structure and a climbing wall.",N,Playgrounds,,Y,N,,Y,Y,N,mulch,N,Y,Y,Y,N,Y,Y,Y
PLA347,Rainbow Park,Johnson and Rainbow,San Jose,CA,95129,,,,N,Playgrounds,,N,Y,,N,Y,N,"mulch, rubber",Y,Y,Y,Y,Y,Y,Y,N
PLA349,Pleasanton Tennis and Community Park,5801 Valley Blvd,Pleasanton,CA,94566,925 931 3449,http://ptownlife.org/play/parks/tennis-community-park,,N,Playgrounds,,Y,Y,,Y,Y,N,mulch,Y,N,Y,Y,Y,Y,Y,N
PLA35,City Hall Play Area,Miller Ave & Walnut Ave,South San Francisco,CA,94080,,,,N,Playgrounds,,Y,N,,N,Y,Y,rubber,N,N,Y,Y,Y,N,N,N
PLA350,Serra Park,739 The Dalles Ave,Sunnyvale,CA,94087,408 730 7751,,,N,Playgrounds,,Y,Y,,N,Y,Y,"sand, mulch, rubber",Y,Y,Y,Y,Y,Y,Y,N
PLA351,Mission San Jose Park,St Anthondy Dr. & St Phillip Ct.,Fremont,CA,94539,,,,N,Playgrounds,,Y,Y,,N,Y,N,mulch,N,Y,Y,Y,N,Y,N,N
PLA352,River Glen Park,1600 Parkside Ave,San Jose,CA,95125,408 793 5510,,"River Glen Park has 2 baseball diamonds, 2 basketball courts, 2 tennis courts and 2 playgrounds. The tot playground is enclosed and has a mulch base and a separate sand pit area. The older kids playground has a number of slides, including two fully enclosed slides. 
The restrooms are located close to the play structures which is great. We believe that picnic area #2 is a great place to reserve for special events. ",N,Playgrounds,,N,Y,,N,Y,Y,mulch,N,Y,Y,Y,Y,Y,Y,N
PLA353,Ramona Park,6330 Murdock Way,San Ramon,CA,94582,,,,N,Playgrounds,,N,Y,,Y,Y,N,mulch,N,N,Y,Y,Y,Y,N,N
PLA354,Maitland R. Henry Park,1525 Mendocino Rd,Livermore,CA,94551,,,,N,Playgrounds,,N,N,,Y,Y,N,mulch,N,N,Y,Y,N,Y,Y,N
PLA355,Seven Seas Park,1010 Morse Ave,Sunnyvale,CA,94089,,,"Seven Seas playground, as the park name suggests, is a water themed playground. The play area is build around a pirate ship theme, with a rubber base. The play area is good for all ages, has a sand pint, is enclosed and has some covering overhead to protect from the sun.
The park also has it's own water feature. There are a number of picnic tables with dedicated BBQs. The parking lot is small, but there is plenty of street parking.  ",N,Playgrounds,,Y,Y,Y,N,Y,Y,rubber,Y,Y,Y,Y,Y,Y,Y,Y
PLA356,Red Morton Community Park,1120 Roosevelt Ave,Redwood City,CA,94061,,,"Red Morton Community Park is almost 32 acres of fun for kids. The park has 5 baseball diamonds, 2 soccer fields, 4 tennis courts, a skate park and playgrounds. 
The two playground are located on opposite sides of the park. The first playground, dedicated to older kids is located near the tennis courts near McKinley & Roosevelt. The playground has a unique rock climbing wall and an awning to keep kids cool. There are also picnic tables around the play area. The other playground, is dedicated to younger kids. There are picnic tables with BBQ pits overlooking the younger kids playground. 
There is a large reservable picnic area with an awning near one of the baseball diamonds. ",N,Playgrounds,,Y,Y,,Y,Y,N,mulch,N,N,Y,Y,Y,Y,Y,N
PLA357,San Pablo Park,Russell St & Park St,Berkeley,CA,94702,510 981 6640,http://www.ci.berkeley.ca.us/Parks_Rec_Waterfront/Trees_Parks/Parks__San_Pablo_Park.aspx,,N,Playgrounds,,N,Y,,N,Y,N,Sand,N,Y,Y,Y,N,Y,Y,N
PLA358,Rex Manor Park,Farley Street & Central Expressway,Mountain View,CA,94043,650 903 6326,,"Rex Manor Tot Park is primarily focused for tots. The playground has 3 slides; 2 are for tots and one is for bigger kids. The play area is sand based, but doesn't contain a dedicated sand pit. There is one picnic table that overlooks the play area. ",N,Playgrounds,,N,N,,N,Y,N,"rubber, sand",N,Y,Y,Y,Y,Y,N,N
PLA359,Peers Park,Park Blvd & Leland Ave,Palo Alto,CA,94306,,,"Peers park has a huge grass area. Primarily used for soccess games. The park also contains a restrooms with change tables. 
There are two playground: for older and younger kids and one picnic table situated between them. The older kids playground has a unique rock climbing feature as well as numerous slides. Behind the tennis courts, more picnic tables can be found, if you're having a party for a larger group. ",N,Playgrounds,,N,N,,N,Y,N,sand,N,Y,N,Y,Y,Y,N,N
PLA36,Cow Hollow Playground,1 Miley St,San Francisco,CA,94123,,,,N,Playgrounds,,N,Y,,N,Y,Y,sand,N,Y,Y,Y,N,N,N,N
PLA360,River Oaks Park,Cres Village Cir & River Oaks Pkwy,San Jose,CA,95134,,,"River Oaks Park has a new playground for tots and big kids. There are numerous picnic tables that overlook the play area and one BBQ pit. The restrooms are located near the playground. Even though there is no parking, street parking is readily available. 
The park also has a large grass area, stroller trails, 2 tennis courts and a 1/2 basketball court. ",N,Playgrounds,,N,Y,,Y,Y,N,rubber,N,N,Y,Y,N,Y,Y,N
PLA361,Marlin Pound Park,2010 Bluebell Dr,Livermore,CA,94551,,,,N,Playgrounds,,N,N,,Y,Y,N,mulch,N,N,Y,Y,Y,Y,N,N
PLA363,San Bruno City Park,251 City Park Way,San Bruno,CA,94066,,,,N,Playgrounds,,Y,Y,,Y,Y,N,mulch,N,N,Y,Y,Y,Y,Y,N
PLA365,Rubino Park,Desmet Dr & Brunetti Dr.,San Jose,CA,95125,,,,N,Playgrounds,,N,N,,N,Y,Y,mulch,N,N,Y,Y,Y,Y,Y,N
PLA367,Seascape Park,Summer Ave & Via Lantana,Aptos,CA,95003,,http://scparks.com/Home/Parks/ListofAllCountyParks/SeascapePark.aspx,,N,Playgrounds,,Y,Y,,Y,Y,N,sand,N,Y,N,Y,Y,Y,N,N
PLA368,Semeria Park,Semeria Ave & Casa Bona Ave,Belmont,CA,94002,650 595 7442,http://www.belmont.gov/Home/Components/FacilityDirectory/FacilityDirectory/70/702,,N,Playgrounds,,N,N,,N,Y,N,rubber,N,N,Y,Y,N,Y,N,N
PLA369,Kennedy Park,Hesperian Blvd & Golf Course Rd.,Hayward,CA,94541,,http://www.haywardrec.org/Facilities/Facility/Details/Kennedy-Park-1,"Entertain your kids with a train, merry-go-round and Triple Pines Ranch Animal Farm. Ofcourse there is playground too.",N,Playgrounds,,Y,Y,,Y,Y,N,mulch,N,N,N,Y,Y,Y,Y,Y
PLA37,Buena Vista Park,Mackintosh St. & Canyon Heights Dr.,Fremont,CA,94539,,,,N,Playgrounds,,N,N,,N,Y,N,sand,N,N,Y,Y,N,N,N,N
PLA370,Six Pillars Park,12219 Windemere Pkwy,San Ramon,CA,94582,,,,N,Playgrounds,,N,Y,,Y,Y,N,mulch,N,N,N,N,Y,Y,N,N
PLA371,Skypark,361 Kings Village Rd,Scotts Valley,CA,95066,,,"Nice sized playground with lots of options. The park has lots of picnic tables. a nice path for biking or stroller hike, and a skate park. ",N,Playgrounds,,Y,Y,,Y,Y,N,sand,Y,N,Y,Y,Y,Y,Y,Y
PLA372,Sonoma Plaza,453 1st St E,Sonoma,CA,95476,,,,N,Playgrounds,,N,Y,,Y,Y,N,sand,N,Y,Y,Y,Y,N,N,N
PLA373,Sonoma Plaza Park,453 1st St E,Sonoma,CA,95476,707 933 2218,,,N,Playgrounds,,N,Y,,Y,Y,N,sand,N,Y,Y,Y,Y,N,N,N
PLA375,Meek Park,240 Hampton Rd,Hayward,CA,94541,510 581 223,http://www.haywardrec.org/Facilities/Facility/Details/Meek-Park-69,,N,Playgrounds,,Y,Y,,Y,Y,N,mulch,N,N,N,Y,Y,Y,Y,N
PLA376,Souyen Park,1548 Watermill Rd,San Ramon,CA,94582,,,,N,Playgrounds,,Y,Y,,N,Y,N,mulch,N,N,Y,Y,Y,Y,N,N
PLA378,Stafford Park,King St at Hopkins Ave,Redwood City,CA,94062,650 780 7250,,,N,Playgrounds,,N,Y,Y,N,Y,Y,mulch,Y,N,Y,Y,Y,Y,Y,N
PLA379,Starlite Park,450 Rudyard Dr,Milpitas,CA,95035,,,,N,Playgrounds,,N,Y,,N,Y,N,sand,N,N,Y,Y,N,Y,Y,N
PLA38,Andrew Spinas Park,2nd Ave & Bay Road,Redwood City,CA,94061,,,,N,Playgrounds,,N,Y,N,N,Y,Y,mulch,Y,N,Y,Y,Y,Y,N,N
PLA380,Memorial Park,1105 Bancroft Ave,San Leandro,CA,94577,510 577 3462,https://sanleandro.org/depts/rec/parks/memorial.asp,"Originally dedicated in 1938, this is one of the City's oldest parks. It is located at the intersection of Bancroft and Callan avenues, across from Bancroft Middle School. San Leandro Creek runs along the north side of the park. The park features extensive sitting areas and picnic facilities and two separate play areas. There are five barbecue pits, 10 picnic tables and restroom facilities.",N,Playgrounds,,Y,Y,,Y,Y,Y,mulch,N,N,Y,Y,Y,Y,Y,N
PLA381,Three Oaks Park,Candlelight Way & Shadowhill Ln,Cupertino,CA,95014,408 777 3120,,"Three Oaks Park is a nice neighborhood park, which contains two playgrounds. There are two picnic tables situated between the playgrounds and a grass field to run around in. ",N,Playgrounds,,Y,N,,N,Y,N,mulch,N,N,Y,Y,Y,Y,Y,N
PLA382,Stevenson Park,750 San Pierre Way,Mountain View,CA,94043,650 903 6326,,"Stevenson Park shares its grounds with two elementary schools: Theuerkauf Elementary School & Stevenson Elementary School. Thus, during non school hours, there are plenty of playgrounds to choose from. The tot playground, part of the school, is enclused. It has a tree fort theme and has a covered sand pit.There are three more playgrounds adjecent to the field, each having multiple slides and climbing walls. Two of the playgrounds have rubber bases and one is mulch. ",N,Playgrounds,,N,Y,,Y,Y,Y,"rubber, mulch",N,Y,Y,Y,Y,Y,N,N
PLA383,Ryland Park,Fox Ave. & N San Pedro St.,San Jose,CA,95110,,,"Ryland Park is a primarily enclosed park and shares its space with Rotary Ryland Pool. The playground is train themed. The park has two play structures for older kids and one for younger kids, which is enclosed and has a sandpit. There are picnic tables and BBQ grills overlooking the play structures. ",N,Playgrounds,,Y,Y,,N,Y,Y,"rubber, mulch",N,N,Y,Y,Y,Y,N,N
PLA384,Stulsaft Park,3700 Farm Hill Blvd,Redwood City,CA,94061,,,"Stulsaft Park is an enclosed is a fully enclosed park which has two levels. The top level is dedicated to younger kids, and has a water play feature, playground and sand pit. There are also covered picnic tables so you can watch over the kids. The second level, accessed through stairs or 3 slides, is dedicated to older kids, and also has covered picnic tables. ",N,Playgrounds,,N,Y,,N,Y,Y,"mulch, rubber",Y,Y,Y,Y,Y,Y,Y,N
PLA385,Ryder Park,1801 J Hart Clinton Dr,San Mateo,CA,94401,,,Ryder Park is located just off Bay Trail and Seal Point Park trail. The playground is deidicated for younger kids and has an interesting climbing structure in the center of the playground. There are 2 large picnic sections with BBQ pits that overlook the playground. The restrooms are located next to the playground for easy access. ,N,Playgrounds,,Y,Y,,Y,Y,N,rubber,Y,Y,Y,Y,Y,Y,Y,N
PLA386,May Nissen Park,685 Rincon Ave,Livermore,CA,94551,,,,N,Playgrounds,,Y,Y,,N,Y,N,sand,Y,Y,Y,Y,Y,Y,N,N
PLA388,Northgate Community Park,Milton St & Southhampton Terrace,Fremont,CA,94555,,,,N,Playgrounds,,Y,Y,,N,Y,N,sand,N,Y,Y,Y,Y,Y,N,N
PLA389,Mt. Eden Park,2451 W Tennyson,Hayward,CA,94545,,,,N,Playgrounds,,Y,Y,,N,Y,N,mulch,N,N,Y,Y,Y,Y,Y,N
PLA39,Coffey Park,1624 Amanda Pl,Santa Rosa,CA,95403,,http://ci.santa-rosa.ca.us/departments/recreationandparks/parks/cityparks/listofparks/Pages/CoffeyPark.aspx,,N,Playgrounds,,N,N,,Y,Y,N,rubber,N,Y,Y,Y,Y,Y,Y,N
PLA390,Mocho Park        ,Mocho St. & Holmes St.,Livermore,CA,94550,,,,N,Playgrounds,,N,N,,Y,Y,N,mulch,N,N,N,Y,Y,Y,Y,N
PLA391,Westlake Park Community Center ,145 Lake Merced Blvd,Daly City,CA,94015,650 991 8021,,,N,Playgrounds,,Y,N,,N,Y,N,mulch,N,N,Y,Y,Y,Y,N,N
PLA392,Todos Santos Plaza,2151 Salvio St,Concord,CA,94520,,http://www.ci.concord.ca.us/page.asp?pid=3025,"There is a grassy area with large trees, colorful flowers, picnic tables, benches and a small children's play area.",N,Playgrounds,,N,N,,N,Y,N,sand,N,N,Y,Y,N,Y,N,N
PLA393,Twin Pines Park,1 Twin Pines Ln,Belmont,CA,94002,650 595 7441,http://www.belmont.gov/Home/Components/FacilityDirectory/FacilityDirectory/208/702,,N,Playgrounds,,Y,Y,,Y,Y,N,mulch,N,Y,Y,Y,Y,Y,Y,N
PLA394,Union Landing Park,3300 Regents Blvd,Union City,CA,94587,,,,N,Playgrounds,,Y,N,,N,Y,Y,rubber,N,N,Y,Y,N,Y,Y,N
PLA395,Val Vista Community Park,6701 Payne Drive,Pleasanton,CA,94588,,http://ptownlife.org/play/parks/val-vista-community-park,"Three separate play structures, water play and a climbing structure offer a lot of variety. There is also a skate park, soccar field and rollar hockey rink. Unfortunately the park is next a water treatment plant and it can get smelly in some parts of the park. ",N,Playgrounds,,Y,Y,,Y,Y,N,mulch,Y,N,Y,Y,Y,Y,Y,N
PLA396,Vasona Lake County Park,333 Blossom Hill Rd,Los Gatos,CA,95032,408 356 2729,,,Y,Playgrounds,,Y,Y,,Y,Y,N,sand,N,Y,Y,Y,Y,Y,Y,N
PLA397,Upper Noe Recreation Center,295 Day St,San Francisco,CA,94131,415 970 8061,http://www.sfparksalliance.org/our-parks/parks/upper-noe-rec-center,"This park has just been renovated and completed in June 2008. Upper Noe offers the neighborhood a brand new playground with a sand pit, an indoor gym, a baseball diamond and multipurpose field, basketball and tennis courts, and a recreation center with restrooms.",N,Playgrounds,,N,Y,,N,Y,N,rubber,N,Y,Y,Y,Y,Y,N,N
PLA398,Saratoga Creek Park,Hoyet and Cordelia,San Jose,CA,95129,,http://www.sanjoseca.gov/Facilities/Facility/Details/Saratoga-Creek-Park-79,,N,Playgrounds,,Y,Y,,Y,Y,N,mulch,N,Y,Y,Y,Y,Y,Y,N
PLA399,Village Green Park,Village Pkwy & Triana Way,San Ramon,CA,94583,,,,N,Playgrounds,,Y,Y,,Y,Y,N,mulch,N,Y,N,Y,Y,Y,N,N
PLA4,Alamo Square Park,Steiner St & Hayes St,San Francisco,CA,94115,,http://www.sfparksalliance.org/our-parks/parks/alamo-square,"A hilltop park with views of the City (including the famous ""Postcard Row""), Alamo Square features many things to do. There is a full tennis court, plenty of walking trails and benches, flower beds, and a dual-level kids' lot that had six swings, three slides and a pair of climbing structures. The upper level is for older kids (age 5-12), while the lower level is for the younger ones (age 2-5). Wheelchair access is available at the gate leading into the upper level.",N,Playgrounds,,N,Y,,Y,Y,N,"Rubber, sand",N,Y,N,Y,Y,N,N,N
PLA40,California Terrace Park,Pond Dr. & Fieldstone Dr.,Fremont,CA,94536,,,,N,Playgrounds,,N,N,,N,Y,N,rubber,N,N,Y,Y,Y,N,N,N
PLA400,Walnut Park,Petaluma Blvd & D St,Petaluma,CA,94952,,http://cityofpetaluma.net/parksnrec/parks-pages/walnut.html,,N,Playgrounds,,N,Y,,N,Y,N,mulch,N,N,Y,Y,Y,Y,N,N
PLA401,War Memorial Playground,295 Monroe St.,Santa Clara,CA,95050,,,"War Memorial Playground is a unique playground. It's an ant themed playground. The park is enclosed expect for the entrance. WMP is a small playground. They have a slide for the young kids, a challenging climbing structure for the older kids and a sand pit for tots. The picnic table is located in the center of the park to overlook the entire playground. There is a hill that separates the playground from the grass area where kids can run around. The park contains a parking lot and the public restrooms are right next to the playground.",N,Playgrounds,,Y,Y,Y,N,Y,Y,"rubber, sand",N,Y,Y,Y,Y,Y,N,N
PLA402,Washington Park,840 W Washington St,Sunnyvale,CA,94086,408 730 7751,,,N,Playgrounds,,Y,Y,,N,Y,Y,"mulch, rubber, sand",N,Y,Y,Y,Y,Y,Y,N
PLA403,Northfront Park,Almaden Way,Livermore,CA,94551,,,,N,Playgrounds,,N,N,,Y,Y,N,mulch,N,N,Y,Y,Y,Y,N,N
PLA404,Saratoga Square,Yates Way & David St.,San Mateo,CA,94403,,,,N,Playgrounds,,N,Y,N,N,Y,N,mulch,N,N,N,Y,N,Y,N,N
PLA405,Victoria Manalo Draves Park,Folsom St and Sherman St,San Francisco,CA,94103,,http://www.sfparksalliance.org/our-parks/parks/victoria-manalo-draves-park,"Victoria Manalo Draves Park, a two acre park in SOMA, opened in October, 2006. It is located on Folsom Street between 6th and 7th streets. The park features a ball field, basketball court, bathrooms, a childrens' play area featuring a teepee-style jungle gym and a slide, a community garden, a landscaped area, picnic area, and play field.",N,Playgrounds,,N,Y,,N,Y,Y,rubber,N,N,Y,Y,Y,Y,N,N
PLA406,Whisman Park,400 Easy St,Mountain View,CA,94043,,,"Whisman Park shares its grounds with Whisman Park. The playground is dedicated towards big kids. There are a number of picnic tables & BBQ pits surounding the playground, which are reservabe. There is a concrete trail through the park for bike riding and a grassy area for kids to play. ",N,Playgrounds,,N,Y,,N,Y,N,"rubber, sand",N,Y,N,N,Y,Y,Y,N
PLA408,Selma Olinder Park,Woodborough Dr. & Woodborough Ct.,San Jose,CA,95116,,,"Selma Plinder Park shares its grounds with Olinder Elementary School, which provides for more playground access. The park itself has one playground dedicated to older kids. The school has an additional 2 playgrounds that are accessable. One is for tots and the other is a climbing structure for older kids. There is a reservable picnic area that overlooks the park's playground. 
This park has an extensive set of walking trails that are paved.",N,Playgrounds,,N,Y,,Y,Y,N,rubber,N,N,N,Y,Y,Y,N,N
PLA409,Walter Haas Playground,Addison St. & Farnuum St.,San Francisco,CA,94131,,http://www.sfparksalliance.org/our-parks/parks/walter-haas-playground,"Walter Haas Park and Playground was renovated in 2005 and became a spectacular neighborhood park that people of all ages may enjoy. This park has a little something for everyone: a basketball court, large grass area, dog park, and a two tier playground: one for toddlers and one for older children.",N,Playgrounds,,N,N,,Y,Y,Y,rubber,N,Y,Y,Y,Y,Y,N,N
PLA41,Dixon Landing Park,Jurgens Dr. &  Gingerwood Dr.,Milpitas,CA,95035,,,,N,Playgrounds,,Y,Y,,N,Y,N,sand,N,Y,Y,Y,Y,Y,Y,N
PLA410,Wilson Park,10298 S Portal Ave,Cupertino,CA,95014,408 777 3200,,,N,Playgrounds,,Y,Y,,N,Y,Y,mulch,N,Y,Y,Y,Y,Y,Y,N
PLA411,Washington & Hyde Mini Park,Union and Columbus,San Francisco,CA,94133,,http://www.sfparksalliance.org/our-parks/parks/washington-hyde-mini-park,This downtown park is a great escape from the fast-paced atmosphere of the city. It has beautiful landscaping and a children's playground at the end of the park. There are restrooms available too.,N,Playgrounds,,N,Y,,N,Y,Y,"rubber, sand",N,Y,Y,Y,N,Y,N,N
PLA412,Ygnacio Valley Park,901 Oak Grove Rd,Concord,CA,94518,,http://www.ci.concord.ca.us/page.asp?pid=3025,"This park has ball fields, jogging path, picnic and barbecue facilities (including one reservable group site), a popular children's play area and large expanse of green for free play.",N,Playgrounds,,Y,Y,,Y,Y,N,mulch,N,Y,Y,Y,N,Y,N,N
PLA413,Livorna Park,Livorna Park,Alamo,CA,94507,,http://www.co.contra-costa.ca.us/DocumentCenter/Home/View/3784,,N,Playgrounds,,Y,Y,,N,Y,N,Sand,N,Y,N,N,Y,Y,Y,N
PLA414,Memorial Park,1325 Portland Ave,Albany,CA,94706,,http://www.albanyca.org/index.aspx?page=588,,N,Playgrounds,,N,Y,,N,Y,Y,"mulch, rubber, sand",N,Y,N,Y,Y,Y,Y,N
PLA415,Leydecker Park,3181 Mecartney Rd,Alameda,CA,94502,510 521 1266,http://alamedaca.gov/recreation/leydecker-park,,N,Playgrounds,,Y,Y,,N,Y,N,mulch,N,Y,N,Y,Y,N,N,N
PLA416,Lincoln Park,1450 High St,Alameda,CA,94501,510 523 6222,http://alamedaca.gov/recreation/lincoln-parkharrison-center,,N,Playgrounds,,Y,Y,,N,Y,N,mulch,N,N,N,Y,Y,Y,Y,N
PLA417,Longfellow Park,520 Lincoln Avenue,Alameda,CA,94501,,,,N,Playgrounds,,N,Y,,N,Y,Y,"mulch, sand",N,Y,Y,Y,N,N,N,N
PLA418,McKinley Park,2165 Buena Vista Avenue,Alameda,CA,94501,,,,N,Playgrounds,,Y,Y,,N,Y,N,dirt,N,Y,Y,Y,Y,N,N,N
PLA419,Tillman Park,Robert Davey Jr Dr & Aughinbaugh Way,Alameda,CA,94502,,http://alamedaca.gov/recreation/tillman-park,,N,Playgrounds,,N,Y,,N,Y,N,sand,N,Y,Y,Y,Y,N,N,N
PLA42,Avenue Terrace Playground,Jordan Rd and Bennett Pl,Oakland,CA,94602,,,,N,Playgrounds,,N,N,,N,Y,Y,sand,N,N,Y,Y,N,N,N,N
PLA420,Washington Park,740 Central Ave,Alameda,CA,94501,510 521 162,http://alamedaca.gov/recreation/washington-park,,N,Playgrounds,,Y,Y,,Y,Y,N,Mulch,N,Y,Y,Y,Y,Y,N,N
PLA421,Avila Beach Park,50 San Juan Street,Avila Beach,CA,93424,,http://www.avilabeachpier.com/information/pirate-park.html,,N,Playgrounds,,N,Y,,Y,Y,N,Sand,N,Y,Y,Y,N,Y,Y,N
PLA422,Shorebird Park,162 University Ave,Berkeley,CA,94710,510 981 6720,http://www.ci.berkeley.ca.us/Parks_Rec_Waterfront/Trees_Parks/Parks__Shorebird_Park.aspx,"Located next to Shorebird Nature Center and Adventure Playground, Shorebird park has a nice play area featuring disabled-accessible playground equipment for both tot and school-age children, including swings, and climbing structures.",N,Playgrounds,,Y,Y,,Y,Y,N,Sand,N,N,N,Y,Y,Y,Y,N
PLA423,Strawberry Creek Park,1260 Allston Way,Berkeley,CA,94702,,http://www.ci.berkeley.ca.us/Parks_Rec_Waterfront/Trees_Parks/Parks__Strawberry_Creek_Park.aspx,,N,Playgrounds,,N,N,,N,Y,N,sand,N,Y,Y,Y,N,Y,Y,N
PLA424,Totland Playground,1644 Virginia Street,Berkeley,CA,94703,,http://www.ci.berkeley.ca.us/Parks_Rec_Waterfront/Trees_Parks/Parks__Virginia-McGee_Totland.aspx,"Really interesting tot focused playground where there lots of ""left over"" toys for childs to play with including ride on cars, push wagons and play kitchens more. There is also a regular play structure with slides, ramps and climbers. ",N,Playgrounds,,N,Y,,N,Y,Y,sand,Y,Y,Y,Y,N,Y,N,Y
PLA425,Willard Park,2720 Hillegass Ave,Berkeley,CA,94705,510 644 8517,http://www.ci.berkeley.ca.us/Parks_Rec_Waterfront/Trees_Parks/Parks__Willard_Park.aspx,,N,Playgrounds,,N,Y,,N,Y,N,"sand, rubber",N,Y,Y,Y,N,Y,N,N
PLA426,Arbor View Park,817 Atherton Boulevard,Brentwood,CA,94513,,,,N,Playgrounds,,Y,N,,N,Y,N,"mulch, astroturf ",N,Y,Y,Y,N,Y,N,N
PLA427,Blue Goose Park,1765 Adams Lane,Brentwood,CA,94513,,http://www.brentwoodca.gov/gov/parks/water/features/goose.asp,Barn themed playground with an awesome water play feature. There is a net and wall climber and a separated fenced area for toddlers.,N,Playgrounds,,Y,Y,,N,Y,N,mulch,Y,N,Y,Y,N,Y,Y,Y
PLA428,King Park,1379 Bauer Way,Brentwood,CA,94513,,,,N,Playgrounds,,N,N,,Y,Y,N,mulch,N,N,Y,Y,N,Y,Y,N
PLA429,Orchard Park,40 Griffith Lane,Brentwood,CA,94513,,,,N,Playgrounds,,N,N,,N,Y,N,mulch,N,N,Y,Y,N,N,N,N
PLA43,Azule Park,12239-12249 Goleta Ave,Saratoga,CA,95070,,,,N,Playgrounds,,N,N,,Y,Y,N,mulch,N,N,Y,Y,Y,Y,Y,N
PLA430,Stojanovich Family Park,316 Union Ave,Campbell,CA,95008,,,,N,Playgrounds,,N,N,,N,Y,N,rubber,N,N,Y,Y,N,Y,N,N
PLA431,Rengstorff Park,201 S Rengstorff Ave,Mountain View,CA,94040,,http://www.mountainview.gov/depts/cs/parks/parks/default.asp,"Rengstorff park is one of the largest parks in Mountain View, and as such has playgrounds to boot. There are a total of 5 play areas at the park, not including the pool. The play structures are primarily on rubber and sand, and have climbing walls, slides and swings. Towards the back of the park, away from Rengstorff & Crisanto is an enclosed playground, which is part of Learning Links Preschool. This enclosed play area included music instruments and a play structure. 
Rengstorff park has three major parking lots. One on Rengstorff Street, the other two on Crisanto Ave. The park has a large picnic and BBQ area between the two parking lots on Crisanto Ave.",N,Playgrounds,,Y,Y,,Y,Y,Y,"mulch, sand, rubber",N,Y,Y,Y,Y,Y,Y,Y
PLA432,Cannon Park,Carlsbad Blvd. and Cannon Rd.,Carlsbad,CA,92008,,,,N,Playgrounds,,N,Y,,N,Y,N,"sand, rubber",N,Y,Y,Y,N,N,N,N
PLA433,Hosp Grove Park,Jeffersons St. and Marron Rd.,Carlsbad,CA,92008,,,,N,Playgrounds,,Y,Y,,Y,Y,N,"sand, rubber",N,Y,Y,Y,N,Y,N,N
PLA434,Poinsettia Community Park,6600 Hidden Valley Rd.,Carlsbad,CA,92011,,,,N,Playgrounds,,Y,Y,,N,Y,N,"sand, rubber",N,Y,Y,Y,N,Y,N,N
PLA435,A.B. Morris (Adobe) Park,20395 San Miguel Ave.,Castro Valley,CA,94546,,,,N,Playgrounds,,Y,Y,,N,Y,N,"mulch, sand",N,Y,N,Y,Y,Y,N,N
PLA436,Carlos Bee Park,1905 Grove Way,Castro Valley,CA,94546,,,,N,Playgrounds,,Y,Y,,Y,Y,N,mulch,N,N,Y,Y,N,Y,N,N
PLA437,Deerview Park,5780 Thousand Oaks Dr,Castro Valley,CA,94552,,,,N,Playgrounds,,N,N,,N,Y,N,mulch,N,N,N,Y,N,Y,N,N
PLA438,Earl Warren Park,4660 Crow Canyon Rd,Castro Valley,CA,94552,,,,N,Playgrounds,,N,Y,,N,Y,N,sand,N,Y,N,Y,Y,Y,N,N
PLA439,Five Canyons Park,25847 Five Canyons Pkwy,Castro Valley,CA,94552,,,,N,Playgrounds,,Y,Y,,N,Y,N,mulch,N,N,N,Y,Y,Y,N,N
PLA44,Bachman Park,Bachman Ave at Belmont St,Los Gatos,CA,95032,,http://www.losgatosca.gov/899/Bachman-Park,"A picturesque downtown neighborhood park with a playground, picnic tables, basketball court, and lawn area.",N,Playgrounds,,N,Y,,Y,Y,N,mulch,N,Y,Y,Y,N,N,N,N
PLA440,Greenridge Park,6132 Greenridge Rd,Castro Valley,CA,94552,,,,N,Playgrounds,,Y,Y,,N,Y,N,mulch,N,N,N,Y,Y,Y,Y,N
PLA441,Palomares Park,7200 Villareal Dr,Castro Valley,CA,94552,,,,N,Playgrounds,,N,Y,,N,Y,N,mulch,N,N,Y,Y,N,N,N,N
PLA442,Parsons Park,Walnut Rd & School Way,Castro Valley,CA,94552,,,,N,Playgrounds,,N,N,,N,Y,N,mulch,N,N,N,Y,Y,Y,N,N
PLA443,Community Park,6000 Heritage Trail,Clayton,CA,94517,,,,N,Playgrounds,,Y,Y,,N,Y,Y,rubber,N,N,Y,Y,N,Y,N,N
PLA444,The Grove,6100 Main St.,Clayton,CA,94517,,,,N,Playgrounds,,N,Y,,N,Y,N,rubber,Y,N,Y,Y,Y,Y,N,N
PLA445,Baldwin Park,2790 Parkside Cir,Concord,CA,94519,,http://www.ci.concord.ca.us/page.asp?pid=3025,"Baldwin Park has a basketball court, softball field, bocce courts, Baldwin Dog Park and a children's play area. There is reservable group picnic or barbecue area on a raised platform overlook, and several individual picnic tables with barbecues scattered throughout the park.",N,Playgrounds,,Y,Y,,N,Y,N,mulch,N,N,Y,Y,N,N,N,N
PLA446,Concord Community Park,3501 Cowell Rd,Concord,CA,94518,(925) 671-3404,http://www.ci.concord.ca.us/page.asp?pid=3025,"Concord Community Park is home to an Olympic size swimming pool, with diving facilities and a wading pool. There are two large playgrounds and two reservable group picnic/barbecue areas and many individual picnic tables with barbecues scattered throughout the park.",N,Playgrounds,,Y,Y,,Y,Y,N,mulch,N,N,N,Y,Y,N,N,N
PLA447,Ellis Lake Park,1760 Clayton Rd,Concord,CA,94520,,http://www.ci.concord.ca.us/page.asp?pid=3025,"Rolling turf and a paved path around the lake, which is home to many species of waterfowl and several turtles. There are two children's play areas. ",N,Playgrounds,,Y,N,,Y,Y,N,mulch,N,N,Y,Y,N,N,N,N
PLA448,Corte Madera Town Park,498 Tamalpais Dr,Corte Madera,CA,94925,,,,N,Playgrounds,,Y,Y,,N,Y,Y,"mulch, sand",N,Y,Y,Y,Y,Y,Y,N
PLA449,Rainbow City Playground,1405 F St.,Davis,CA,95616,,http://parks.cityofdavis.org/rainbow-city,,N,Playgrounds,,Y,Y,,Y,Y,Y,"mulch, sand",Y,Y,Y,Y,Y,Y,N,N
PLA45,Central Park,Palm Ave. & Lansdale Ave. ,Millbrae,CA,94030,650 259 2360,http://www.ci.millbrae.ca.us/index.aspx?page=267,"Central Park is located east of the Recreation Center, this 13-acre park is considered Millbrae’s top recreational area. Residents and visitors enjoy using this park for family outings, birthdays, weekend BBQ’s, play, and relaxing. During the summer months Millbrae hosts Concerts in the Park and other various activities bringing numerous people to this beautiful area. You will rarely see this park empty. ",N,Playgrounds,,Y,Y,,N,Y,N,"rubber, mulch",N,N,Y,Y,Y,Y,Y,N
PLA450,Slide Hill Park,1526 Tulip Ln.,Davis,CA,95618,,http://parks.cityofdavis.org/slide-hill-park,,N,Playgrounds,,Y,Y,,N,Y,N,"mulch, sand",N,Y,Y,Y,Y,Y,Y,N
PLA451,Sycamore Park,1313 Sycamore Lane,Davis,CA,95616,,,,N,Playgrounds,,N,Y,,Y,Y,N,mulch,N,Y,Y,Y,Y,N,N,N
PLA452,Sunnybrae Park,818 Sunnybrae Blvd,San Mateo,CA,94402,,,Sunnybrae Park is an enclosed neighborhood park dedicated for younger kids. There are three play areas and a sand pit for kids to use. There are 7 picnic tables overlooking the area to help with supervision. ,N,Playgrounds,,N,N,,N,Y,Y,mulch,N,N,Y,Y,Y,Y,N,N
PLA453,Shannon Park,11600 Shannon Avenue,Dublin,CA,94568,,http://www.dublin.ca.gov/index.aspx?NID=336,,N,Playgrounds,,Y,Y,,N,Y,N,mulch,Y,Y,Y,Y,Y,Y,N,N
PLA454,Ted Fairfield Park,3400 Antone Way,Dublin,CA,94568,,http://www.dublin.ca.gov/Facilities/Facility/Details/11,"Ted Fairfield is located next to Green elementary school. There are three play structures, all are fairly small and more suitable for preschoolers than older kids. There is a volleyball court, basketball court and baseball field as well. Limited shade available.",N,Playgrounds,,N,Y,,Y,Y,N,mulch,N,N,Y,Y,N,Y,Y,N
PLA455,Arlington Park,1120 arlington blvd,El Cerrito,CA,94530,,,,N,Playgrounds,,N,N,,N,Y,N,rubber,N,Y,N,Y,Y,Y,N,N
PLA456,Cerrito Vista Park,7007 Moeser Ln,El Cerrito,CA,94530,,,,N,Playgrounds,,N,Y,,N,Y,N,rubber,N,N,N,Y,Y,Y,Y,N
PLA457,Doyle Hollis Park,1333 62nd St.,Emeryville,CA,94608,,,,N,Playgrounds,,N,Y,,N,Y,Y,rubber,N,N,N,Y,Y,N,N,N
PLA458,Stanford Avenue Park,Stanford Ave. & Beaudry St.,Emeryville,CA,94608,,,,N,Playgrounds,,N,N,,N,Y,N,rubber,N,Y,Y,Y,N,N,N,N
PLA459,Cottonwood Creek Park,95 N Vulcan Ave,Encinitas,CA,92024,,http://www.ci.encinitas.ca.us/index.aspx?page=290,,N,Playgrounds,,Y,Y,,Y,Y,N,"rubber, sand",N,Y,Y,Y,Y,N,N,N
PLA46,Belgatos Park,308 Belgatos Ln,Los Gatos,CA,95032,,http://www.losgatosca.gov/900/Belgatos-Park,"Belgatos Park is located off of Blossom Hill Road at the end of Belgatos Road. Limited on site parking is available.
 
Natural woodlands and wildlife abound in this beautiful 17 acre park. The park offers a variety of experiences for hikers, bicyclists, and equestrians on the 2 miles of trails. These trails connect to the Santa Rosa Open Space and the Heintz Open Space. Within the park is a playground, restroom, picnic tables, and lawn areas.",N,Playgrounds,,Y,Y,,Y,Y,N,mulch,N,N,Y,Y,Y,Y,N,N
PLA460,Encinitas Viewpoint Park,E D st. & Corish Dr,Encinitas,CA,92024,,http://www.ci.encinitas.ca.us/index.aspx?page=290,,N,Playgrounds,,N,N,,N,Y,N,"rubber, sand",N,Y,Y,Y,N,N,N,N
PLA461,Old Mission Park,1000 Pine St at Ibero,Fremont,CA,94539,,,,N,Playgrounds,,Y,Y,,Y,Y,N,sand,N,Y,Y,Y,Y,Y,Y,N
PLA462,Patterson Park,35475 Cabrillo Dr,Fremont,CA,94536,,,,N,Playgrounds,,N,N,,Y,Y,N,mulch,N,N,N,Y,Y,Y,N,N
PLA463,Rix Park,42679 Everglades Park Dr,Fremont,CA,94538,,,,N,Playgrounds,,N,N,,N,Y,N,rubber,N,N,Y,Y,Y,N,N,N
PLA464,Harvey Community Park,3850 Grand Lake Dr,Fremont,CA,94555,,,,N,Playgrounds,,N,Y,,N,Y,N,rubber,N,N,N,Y,Y,Y,N,N
PLA465,Warm Springs Park,47300 Fernald St,Fremont,CA,94539,510 791 4318,,,N,Playgrounds,,N,N,,Y,Y,N,rubber,N,N,Y,Y,N,Y,Y,N
PLA466,Westridge Park,36131 Fremont Blvd,Fremont,CA,94536,,,,N,Playgrounds,,N,N,,Y,Y,N,rubber,N,N,Y,Y,N,N,N,N
PLA467,Hal Brown Park at Creekside,Bon Air Rd,Greenbrae,CA,94904,,,,N,Playgrounds,,N,Y,,N,Y,N,"rubber, sand",Y,Y,N,N,Y,Y,N,N
PLA468,Mary Laveroni Community Park,Mary Laveroni Community Park,Groveland,CA,95321,,,,N,Playgrounds,,Y,Y,,N,Y,N,mulch,N,N,Y,Y,Y,Y,N,N
PLA469,Vista Park,1030 Vista Rd,Hillsborough,CA,94010,,,,N,Playgrounds,,N,N,,N,Y,N,rubber,N,N,Y,Y,N,Y,N,N
PLA47,Beresford Park,2720 Alameda de las Pulgas,San Mateo,CA,94403,650 522 7440,http://www.cityofsanmateo.org/index.aspx?NID=2442,"Beresford Park shares its grounds with Beresford Recreation Center. The park has 4 tennis courts, 4 bocce ball courts, 2 baseball diamonds, a skate park and 3 palygrounds. The tot playground is fully enclosed while the older kids playground has picnic tables to allow for easy supervision. There is an open field area for kids to run and play and surounding the big kids playground is a baved trail for riding your bike. ",N,Playgrounds,,Y,Y,,N,Y,N,sand,N,N,Y,Y,Y,Y,Y,Y
PLA470,Old Highlands Park,26180 Parkside Dr,Hayward,CA,94542,,,,N,Playgrounds,,Y,N,,N,Y,N,mulch,N,N,N,Y,Y,N,N,N
PLA471,San Felipe Park,2058 D St.,Hayward,CA,94541,510 881 6700,,,N,Playgrounds,,Y,Y,,N,Y,N,mulch,N,N,Y,Y,Y,Y,Y,N
PLA472,Silver Star Veteran's Park,695 Industrial Pkwy West,Hayward,CA,94544,,,,N,Playgrounds,,N,N,,N,Y,N,mulch,N,N,Y,Y,Y,Y,Y,N
PLA473,Southgate Park,26780 Chiplay,Hayward,CA,94545,,,,N,Playgrounds,,N,N,,Y,Y,N,mulch,N,N,Y,Y,Y,N,N,N
PLA474,Brook Street Park,3562 Brook St,Lafayette,CA,94549,,http://www.lovelafayette.org/city-hall/city-departments/parks-trails-recreation/parks/brook-street-park,"Tucked into a residential, downtown neighborhood, this small park represents Lafayette’s first neighborhood park. It’s a popular spot for picnic lunches and draws families with young children due to its whimsical Pirate Ship that captures the imaginations of young children with a top deck, steering wheel, climbing ropes and port holes. The play equipment area has a low perimeter fence that keeps the children safely enclosed. In the back, beneath a shade structure, is a children’s picnic table and side serving table that can accommodate small parties. There are no restroom facilities and use of the facilities is on a first-come, first-served basis.",N,Playgrounds,,N,N,,N,Y,N,mulch,N,N,Y,Y,Y,Y,N,N
PLA475,Lafayette Community Park,480 St Marys Rd,Lafayette,CA,94549,,http://www.lovelafayette.org/city-hall/city-departments/parks-trails-recreation/parks/community-park,"The 68-acre site of Lafayette Community Park contains a diverse array of topography, wildlife and recreation opportunities. The south-end has two sports fields that are used for baseball in the Spring and soccer in the Fall. There is a group picnic area that can be reserved and several single picnic tables. A Tot Playground with an adjoining lawn is near the picnic area and fields. A footbridge leads people from the parking lot, located at 480 Saint Mary’s Road, to the fields, picnic area and public restrooms.",N,Playgrounds,,Y,Y,,Y,Y,Y,rubber,N,N,Y,Y,Y,Y,N,N
PLA476,Ravenswood Park,Tahoe Dr. & Klamath Ct.,Livermore,CA,94550,,,,N,Playgrounds,,Y,N,,N,Y,N,mulch,N,N,Y,Y,Y,Y,Y,N
PLA477,Robertson Park,3200 Robertson Park Road,Livermore,CA,94550,925 960 2440,,"This park offers barbecue pits, picnic tables, rentable equestrian facilities, hiking/biking/horseback riding trails, restrooms, horseshoe pits and a rentable dog area. ",N,Playgrounds,,Y,Y,,Y,Y,N,"Rubber, Mulch",N,Y,Y,Y,Y,Y,Y,N
PLA478,Summit Park,Carson Pass Way & Fallen Leaf Dr,Livermore,CA,94551,,,,N,Playgrounds,,N,N,,Y,Y,N,mulch,N,Y,Y,Y,Y,Y,N,N
PLA479,Sunset Park,1055 Geneva St,Livermore,CA,94550,,,,N,Playgrounds,,N,N,,Y,Y,N,mulch,N,N,Y,Y,Y,Y,N,N
PLA48,Dolores Park (Helen Dillar Playground),19th St & Dolores St,San Francisco,CA,94114,,http://www.sfparksalliance.org/our-parks/parks/mission-dolores-park,Mission Dolores Park is one of the most popular parks in San Francisco with a local Mission District feeling. The playground has great climbing structures and sand area. Lots of grassy area for picnics. Best during the week as it can be overcrowded with picnickers on the weekends. ,N,Playgrounds,,N,Y,,N,Y,N,rubber,N,N,Y,Y,Y,N,N,Y
PLA480,Tex Spruiell Park,5411 Felicia Ave,Livermore,CA,94550,,,,N,Playgrounds,,N,N,,Y,Y,N,mulch,N,Y,Y,Y,N,Y,N,N
PLA481,Vista Meadows Neighborhood Park,2450 Westminster Way,Livermore,CA,94550,925 373 5700,,,N,Playgrounds,,N,N,,Y,Y,Y,mulch,Y,Y,Y,Y,Y,Y,N,N
PLA482,Wattenberger Park,1515 Honeysuckle Rd.,Livermore,CA,94551,,,,N,Playgrounds,,N,N,,N,Y,N,mulch,N,Y,N,Y,Y,Y,Y,N
PLA483,Live Oak Manor Park,210 Carlton Ave,Los Gatos,CA,95032,,http://www.losgatosca.gov/906/Live-Oak-Manor-Park,"A quiet neighborhood park with a playground, basketball court, picnic tables and large lawn areas.",N,Playgrounds,,N,N,,Y,Y,N,mulch,N,N,N,N,Y,Y,N,N
PLA484,Hidden Valley Park,Center Ave. & Redwood Dr.,Martinez,CA,94553,,http://www.cityofmartinez.org/depts/recreation/parks/hidden_valley.asp,"Two lighted tennis courts, picnic areas, playground area, two ballfields, restrooms, bicycle/jogging paths,1-mile exercise course and a 2-mile pathway leading up to Hidden Lakes Park. ",N,Playgrounds,,Y,Y,,Y,Y,N,"rubber, mulch",N,N,Y,Y,Y,Y,N,N
PLA485,Holiday Highlands Park,Fig Tree Ln. & Eastwoodbury Ln.,Martinez,CA,94553,,http://www.cityofmartinez.org/depts/recreation/parks/holiday.asp,"Neighborhood picnic area, playground area, multi-use field, bike racks and lighted pathways. All picnic areas are on a first come first serve basis. Click above for a map to this park.",N,Playgrounds,,N,N,,N,Y,N,mulch,N,N,N,Y,Y,Y,N,N
PLA486,John Muir National Historic Site,4202 Alhambra Ave,Martinez,CA,94553,925 228 8860,http://www.cityofmartinez.org/depts/recreation/parks/john_muir.asp,"Adjacent to John Muir School, playground and multi-use field.",N,Playgrounds,,Y,Y,,Y,Y,N,mulch,N,N,N,Y,Y,Y,N,N
PLA487,Waterfront Park,Martinez Waterfront Park,Martinez,CA,94553,,http://www.cityofmartinez.org/depts/recreation/parks/waterfront.asp,"Four ballfield complex with concessions and restroom, soccer field, picnic areas, playground areas, horse- shoe pits and bocce ball courts, restroom, the Marina and fishing pier. Twelve- hundred seat amphitheater and skateboard park. Contact Recreation Services to reserve a picnic area (925)372-3510.",N,Playgrounds,,Y,Y,,Y,Y,N,mulch,N,Y,Y,Y,Y,Y,N,N
PLA488,Nancy Boyd Park       ,Nancy Boyd Park,Martinez,CA,94553,,http://www.cityofmartinez.org/depts/recreation/parks/nancy.asp,"Pleasant Hill Road East and Church Street. Ballfield, basketball court, three lighted tennis courts, playground area, picnic areas and restrooms. Contact Recreation Services at (925) 372-3510 to reserve a picnic area.",N,Playgrounds,,Y,Y,,Y,Y,N,mulch,N,N,N,Y,Y,N,N,N
PLA489,Rankin Park,Glen Dr.,Martinez,CA,94553,,http://www.cityofmartinez.org/depts/recreation/parks/rankin.asp,"West end of Buckley Street. Swimming and diving complex, picnic areas, horseshoe pits, lighted softball field, restroom, playground area and gazebo.",N,Playgrounds,,Y,Y,,Y,Y,N,mulch,N,N,Y,Y,Y,Y,N,N
PLA49,Ashland Park,1530 167th Ave,San Leandro,CA,94578,,,,N,Playgrounds,,Y,Y,,N,Y,N,mulch,N,N,Y,Y,Y,Y,N,N
PLA490,Boyle Park,East Dr. & Sidney St.,Mill Valley,CA,94941,,http://www.cityofmillvalley.org/Index.aspx?page=416,,N,Playgrounds,,Y,Y,,N,Y,Y,"mulch, sand",N,Y,Y,Y,Y,Y,N,N
PLA491,Hauke Park,Hamilton Dr. & Roque Moraes Dr.,Mill Valley,CA,94941,,,,N,Playgrounds,,Y,Y,,Y,Y,N,mulch,N,Y,Y,Y,N,Y,N,N
PLA492,Rotary Park,"South Ashton, south of Millbrae Ave",Millbrae,CA,94030,650 259 2334,http://www.ci.millbrae.ca.us/index.aspx?page=276,"Rotary Park, situated on South Ashton just south of Millbrae Avenue is the perfect spot for children ages 2 to 5. Rotary Park offers smaller sized play equipment, a shaded picnic area, and a small grassy area. There is also a path for those who are looking to take a nice stroll or jog.",N,Playgrounds,,N,N,,N,Y,N,mulch,N,N,Y,Y,N,Y,Y,N
PLA493,Strickroth Park,Merz Ct.,Milpitas,CA,95035,,,,N,Playgrounds,,Y,N,,Y,Y,N,sand,N,Y,Y,Y,Y,Y,Y,N
PLA494,Beyer Park,3700 Beyer Park Dr,Modesto,CA,95355,,,,N,Playgrounds,,Y,Y,,Y,Y,N,"dirt, sand",N,Y,Y,Y,N,Y,Y,N
PLA495,Graceada Park,401 Needham St,Modesto,CA,95354,,,,N,Playgrounds,,N,Y,,Y,Y,N,mulch,Y,Y,Y,Y,Y,Y,Y,N
PLA496,King-Kennedy Memorial Center,601 North Martin Luther King Dr.,Modesto,CA,95355,,,,N,Playgrounds,,N,Y,,Y,Y,N,sand,Y,Y,Y,Y,N,Y,Y,N
PLA497,Cypress Park,Hoffman Ave. & Cypress St.,Monterey,CA,93940,,,,N,Playgrounds,,N,N,,N,Y,N,sand,N,N,N,Y,N,Y,N,N
PLA498,Dennis the Menace Park,777 Pearl St,Monterey,CA,93940,,http://monterey.org/en-us/Departments/Monterey-Recreation/Parks-and-Beaches/El-Estero-Park-Complex,"A destination playground. In addition to several play structure, they have a suspension bridge, slide made up of rollers, wavey slide, climbing wall, mini tunnel, mini maze train and more. Closed on non-holiday Tuesdays, September to May.",N,Playgrounds,,Y,Y,,Y,Y,N,sand,N,Y,Y,Y,Y,Y,N,Y
PLA499,Hill Top Park,Withers Ave & Jessie St.,Monterey,CA,93940,,,,N,Playgrounds,,N,N,,N,Y,N,sand,N,Y,Y,Y,N,Y,N,N
PLA5,Blossom Hill Park,16300 Blossom Hill Rd,Los Gatos,CA,95032,408 399 5770,http://www.losgatosca.gov/901/Blossom-Hill-Park,"Blossom Hill Park is located between Shannon Road and Blossom Hill Road east of Blossom Hill School.
 
A fully developed neighborhood park with six lighted tennis courts, a baseball field, playground area and picnic tables, B-B-Q pits, restroom facilities and large lawn areas.",N,Playgrounds,,Y,Y,,Y,Y,N,mulch,N,N,Y,Y,Y,Y,Y,N
PLA50,Boone Acres Park,Davona Dr & Westwood Ave,San Ramon,CA,94583,,,,N,Playgrounds,,N,Y,,Y,Y,N,sand,N,Y,Y,Y,Y,Y,Y,N
PLA500,Hoffman Park,McClellan Ave & Archer St.,Monterey,CA,93940,,,,N,Playgrounds,,N,N,,Y,Y,N,sand,N,Y,N,Y,Y,Y,Y,N
PLA501,Oak Newton Park,Newton St. & McClellan Ave.,Monterey,CA,93940,,,,N,Playgrounds,,N,Y,,Y,Y,N,sand,N,Y,N,Y,Y,Y,Y,N
PLA502,Via Paraiso Park,Via Paraiso & Herrmann Dr.,Monterey,CA,93940,,,,N,Playgrounds,,Y,Y,,Y,Y,N,sand,N,Y,Y,Y,Y,Y,Y,N
PLA503,Rancho Laguna Park,Camino Pablo & Knoll Dr.,Moraga,CA,94556,,,,N,Playgrounds,,Y,Y,,Y,Y,N,mulch,N,N,Y,Y,N,Y,Y,N
PLA504,Moraga Commons Park,745 Moraga Rd,Moraga,CA,94556,,,,N,Playgrounds,,Y,Y,,Y,Y,N,mulch,N,Y,Y,Y,N,Y,Y,N
PLA505,Morgan Hill Community Park,Bryce Dr. & Olympic Dr.,Morgan Hill,CA,95037,,,,N,Playgrounds,,Y,Y,,Y,Y,N,mulch,N,Y,Y,Y,Y,Y,N,N
PLA506,Diana Park,Diana Ave. & St. Joseph Dr.,Morgan Hill,CA,95037,,,,N,Playgrounds,,N,N,,Y,Y,N,mulch,N,Y,Y,Y,N,Y,N,N
PLA507,Anchor Memorial Park,351 Embarcadero,Morro Bay,CA,93442,,,,N,Playgrounds,,Y,Y,,Y,Y,N,sand,N,Y,Y,Y,N,N,N,N
PLA508,Duke Watkins Park,Filip Mendez Pkwy,Needles,CA,92363,,,,N,Playgrounds,,Y,Y,,N,Y,N,sand,N,Y,Y,Y,Y,Y,N,N
PLA509,Birch Grove,Birch St & Campanula Ct.,Newark,CA,94560,,,,N,Playgrounds,,Y,Y,,Y,Y,N,mulch,Y,Y,Y,Y,N,Y,Y,N
PLA51,Boothbay Park,Edgewater Blvd at Boothbay Ave,Foster City,CA,94404,650 286 3380,http://www.fostercity.org/parksandrecreation/Boothbay-Park.cfm,"Boothbay Park offers 11.2 acres of playground area, a sand volleyball pit, lawn area, a basketball court, four tennis courts, a tiny tot play area, barbecue pits, a small amphitheater seating area, and restroom facilities.

The large covered picnic pavilion area is ideal for family or company picnics and accommodates up to 100 people. Interested? Call (650)286-3380 to check availability.",N,Playgrounds,,Y,Y,,Y,Y,N,mulch,N,N,Y,Y,Y,Y,Y,N
PLA510,Freedom Park,5899 Dudley Blvd,North Highlands,CA,95652,,http://www.nhrpd.org/parksfacilities/,Big kids will enjoy the rocket themed play structure and climbing wall. There is a smaller play structure for toddlers and a water play area. ,N,Playgrounds,,Y,Y,,Y,Y,Y,rubber,Y,N,Y,Y,Y,Y,Y,Y
PLA511,Dorada Park,590 N Yosemite Ave,Oakdale,CA,95361,(209) 847-2244,,,N,Playgrounds,,N,Y,,N,Y,N,mulch,N,N,Y,Y,Y,Y,N,N
PLA512,Florabelle Brennan Park,E H St. & Pedersen Rd.,Oakdale,CA,95361,,,,N,Playgrounds,,N,N,,Y,Y,N,mulch,N,N,N,N,Y,N,N,N
PLA513,Orinda Community Park,28 Orinda Way,Orinda,CA,94563,(925) 254-2445,http://www.cityoforinda.org/index.asp?Type=B_BASIC&SEC={6346578C-6288-4F5A-9EBE-EC7A7DAFC34B},"The Community Park is located next to the Orinda Community Center at 28 Orinda Way. The Park includes a large open grass area, two playground areas (one featuring a water play area), picnic and barbecue areas along with three tennis courts with lights. The gazebo, meadow, and tennis courts are available for reservation. The picnic area adjacent to the large tot lot is available on a first-come, first-serve basis.",N,Playgrounds,,Y,Y,,N,Y,N,sand,Y,Y,Y,Y,Y,Y,Y,N
PLA514,Dover Park,5707 Dover St,Oakland,CA,94609,(510) 238-7275,,,N,Playgrounds,,N,N,,N,Y,N,rubber,N,N,Y,Y,N,Y,N,N
PLA515,Lakeside Park,Perkins St. & Bellevue Ave.,Oakland,CA,94610,(510) 230-0339,,,N,Playgrounds,,Y,N,,Y,Y,N,"dirt, sand",N,Y,Y,Y,Y,Y,N,N
PLA516,Montclair Park,6300 Moraga Ave,Oakland,CA,94611,(510) 482-7812,,,N,Playgrounds,,N,Y,,Y,Y,Y,"sand, rubber",N,Y,Y,Y,Y,Y,Y,N
PLA518,Edgemar Park,Channing Way & Fremont Ave.,Pacifica,CA,94044,,,,N,Playgrounds,,N,N,,N,Y,N,sand,N,Y,Y,Y,N,Y,Y,N
PLA52,Berryessa Creek Park,Isadora Dr & Messina Dr,San Jose,CA,95132,408 535 3570,,,N,Playgrounds,,N,N,,Y,Y,N,rubber,N,N,Y,Y,Y,Y,Y,N
PLA520,Ramos Park,800 E Meadow Dr,Palo Alto,CA,94301,,,,N,Playgrounds,,N,N,,N,Y,N,mulch,N,N,Y,Y,Y,Y,Y,N
PLA521,Rinconada Park,777 Embarcadero Road,Palo Alto,CA,94303,650 463 4900,,,N,Playgrounds,,Y,Y,,Y,Y,Y,"mulch, sand",N,Y,Y,Y,Y,Y,Y,N
PLA522,Robles Park,4116 Park Blvd,Palo Alto,CA,94306,,,Have audio but needed images,N,Playgrounds,,N,N,,N,Y,N,mulch,N,Y,Y,Y,Y,Y,Y,N
PLA523,Piedmont Park,10th St NE & Charles Allen Dr.,Piedmont,CA,94611,,,"Beautiful local park with an excellent playground, paved trails for bike riding or a stroller walk. Lots of mature trees and a creek runs through the park.",N,Playgrounds,,Y,Y,,Y,Y,N,sand,N,Y,Y,Y,N,N,N,N
PLA525,Placerville City Park,Benham St. & Pacific St.,Placerville,CA,95667,,,,N,Playgrounds,,N,Y,,Y,Y,Y,mulch,N,N,Y,Y,N,Y,N,N
PLA526,Brookwood Park,Taylor Blvd &  Withers Ave.,Lafayette,CA,94549,,http://www.pleasanthillrec.com/locations/parksandoutdoorspaces.html,"This 6.3 acre neighborhood park includes a picnic and barbeque area, surfaced court and children's play area. Visit this hidden gem! Great play structure, large grassy open area, and lots of shade trees. Rentals on weekends only; 30 person maximum capacity. Alcohol and Big Jumps are not permitted at this park. ",N,Playgrounds,,N,N,,Y,Y,N,mulch,N,N,N,N,Y,Y,N,N
PLA527,Pleasant Hill Park,147 Gregory Ln,Pleasant Hill,CA,94523,,http://www.pleasanthillrec.com/locations/parksandoutdoorspaces.html,"Softball diamond, 3 reservable Picnic Areas, 2 open Picnic Areas, Basketball Court, 2 Children's Playgrounds and Community Gardens.

Only open Monday - Friday 9am - 5pm.",N,Playgrounds,,Y,Y,,Y,Y,Y,mulch,Y,Y,Y,Y,Y,Y,Y,N
PLA528,Shannon Hills Park,265 Devon Avenue,Pleasant Hill,CA,94523,,,This park has a small sand pit and no play structures. There are several trails adjacent to the creek there is good for bike riding or stroller hikes. ,N,Playgrounds,,N,N,,Y,Y,N,sand,N,Y,N,N,N,N,N,N
PLA529,Fairlands Park,4100 Churchill Dr,Pleasanton,CA,94588,,,,N,Playgrounds,,N,N,,Y,Y,N,mulch,N,N,Y,Y,Y,Y,N,N
PLA53,Almond Park        ,1525 Almond Avenue,Livermore,CA,94550,,,,N,Playgrounds,,N,Y,,Y,Y,N,mulch,N,Y,Y,Y,N,Y,N,N
PLA530,Fawn Hills Park,1510 W Lagoon Rd,Pleasanton,CA,94566,,http://ptownlife.org/play/parks/fawn-hills-park,,N,Playgrounds,,N,N,,Y,Y,N,mulch,N,N,Y,Y,N,Y,N,N
PLA531,Hansen Park,5697 Black Ave,Pleasanton,CA,94566,,http://ptownlife.org/play/parks/hansen-park,,N,Playgrounds,,N,N,,Y,Y,N,mulch,N,Y,Y,Y,Y,Y,N,N
PLA532,Harvest Park Middle School,4900 Valley Ave,Pleasanton,CA,94566,,http://ptownlife.org/play/parks/harvest-park,,N,Playgrounds,,N,N,,Y,Y,N,mulch,N,Y,Y,Y,Y,Y,N,N
PLA533,Meadows Park,Foothill Knolls Dr. & Prairie Dr.,Pleasanton,CA,94588,,http://ptownlife.org/play/parks/meadows-park,,N,Playgrounds,,N,N,,Y,Y,N,mulch,N,N,Y,Y,Y,Y,Y,N
PLA534,Oakhill Park,4100 Muirwood Dr,Pleasanton,CA,94588,,http://ptownlife.org/play/parks/oakhill-park,,N,Playgrounds,,N,N,,Y,Y,N,mulch,N,N,N,Y,Y,N,N,N
PLA535,Upper Pleasanton Field,Abbie St & Whiting St.,Pleasanton,CA,94566,,http://ptownlife.org/play/parks/upper-pleasanton-field,,N,Playgrounds,,Y,N,,Y,Y,N,mulch,N,N,N,Y,Y,Y,N,N
PLA536,Bubb Park,Barbara Avenue & Montalto Drive ,Mountain View,CA,94040,,,,N,Playgrounds,,N,Y,,N,Y,N,"rubber, sand",N,Y,Y,Y,Y,Y,Y,N
PLA537,Barbara and Jay Vincent Park,Peninsula Dr,Richmond,CA,94804,,http://www.ci.richmond.ca.us/index.aspx?nid=1620,,N,Playgrounds,,Y,Y,,Y,Y,N,rubber,N,Y,Y,Y,Y,N,N,N
PLA538,McKinley Park,Alhambra Boulevard & Fat Alley,Sacramento,CA,95816,,http://portal.cityofsacramento.org/ParksandRec/Parks/Park-Directory/East-Sacramento/McKinley%20Park,"The McKinley Playground is a colorful custom designed playground, which is based on East Sacramento’s 125 year old past. It includes an “Alhambra Theater” entry archway, river boat, street trolley, the “Tower” bridge, large tree house, rubber surfacing with animal graphics, large climbing wall and boulders and concrete turtle. The playground also features a custom seat wall and sand area with a tile mural installed by local Sacramento artists.",N,Playgrounds,,N,Y,,Y,Y,N,mulch,N,Y,Y,Y,Y,Y,Y,Y
PLA539,Southside Park,6th St. & V St.,Sacramento,CA,95818,,http://portal.cityofsacramento.org/ParksandRec/Parks/Park-Directory/Central-City/Southside%20Park,"The theme of the playground is ""the solar system"". There are three seperate play areas for infants under the age of 2, a tot lot for pre-school age children, and an adventure play area for school age children. Unique play features include a merry-go-around, swings, spring riders, group rocking units, self propelled spin play units, independent climbing structures and play units with sound features.",N,Playgrounds,,N,Y,,Y,Y,N,mulch,Y,Y,Y,Y,Y,Y,Y,Y
PLA54,Burgess Park,701 Laurel St,Menlo Park,CA,94025,650 330 2200,http://www.menlopark.org/Facilities/Facility/Details/Burgess-Park-1,"Originally a part of the Dibble Hospital Facilities and purchased in 1948, Burgess Park is one of the first city-owned recreation areas in Menlo Park. Located adjacent to the Civic Center complex, the park provides diverse facilities easily accessible to all Menlo Park residents.",N,Playgrounds,,Y,Y,Y,Y,Y,Y,mulch,N,N,Y,Y,Y,Y,Y,N
PLA540,William Land Park,3800 S Land Park Dr,Sacramento,CA,95822,,http://portal.cityofsacramento.org/ParksandRec/Parks/Park-Directory/Land-Park/William-Land,"With 166.5 developed acres this regional park includes many amenities, including the Sacramento Zoo, Fairytale Town, Funderland, Picnic Areas for small events and large events, Wading Pool, Basketball Court, 6 Softball Field, Soccer Fields, Adventure Play Area, Lakes, Amphitheater, Rock Garden, Jogging Path, Village Green, Golf Course, Off-street Parking, Restrooms.",N,Playgrounds,,Y,Y,,Y,Y,Y,mulch,Y,Y,Y,Y,Y,Y,Y,N
PLA541,Crane Park,S Crane Ave. & Vallejo St.,St. Helena,CA,94574,,,,N,Playgrounds,,Y,Y,,Y,Y,N,mulch,N,Y,Y,Y,Y,Y,Y,N
PLA542,John Murphy Park,Murphy Rd and Poppy Glen Rd,Salida,CA,95368,,,,N,Playgrounds,,N,Y,N,Y,Y,N,sand,N,Y,Y,Y,Y,Y,N,N
PLA543,Segesta Park,Segesta Way & Bianco Way,Salida,CA,95368,,,,N,Playgrounds,,Y,Y,,Y,Y,N,sand,N,N,Y,Y,Y,Y,N,N
PLA544,Salida Park,Magnolia St. & Flint Ave.,Salida,CA,95368,,,,N,Playgrounds,,N,Y,,Y,Y,N,sand,N,N,Y,Y,Y,N,N,N
PLA545,San Anselmo Memorial Park,1000 Sir Francis Drake Blvd,San Anselmo,CA,94960,(415) 258-4640,http://www.townofsananselmo.org/Facilities/Facility/Details/4,"Millennium Playground was built by 1,500 volunteers in May 2000 during a one week period. The playground was designed by the children of San Anselmo and incorporates San Anselmo themes, such as a train depot, seminary tower and Town Hall tower.",N,Playgrounds,,Y,Y,,Y,Y,N,"mulch, sand",N,Y,Y,Y,Y,Y,N,Y
PLA546,West Sunset Playground,3223 Ortega St,San Francisco,CA,94122,415 753 7047,http://www.sfparksalliance.org/our-parks/parks/west-sunset-playground,"West Sunset Playground has a large soccer field, three baseball diamonds, two tennis courts, a full basketball court, three small basketball courts, a running track, a playground for kids, and a small recreation center.",N,Playgrounds,,N,Y,,N,Y,N,"rubber, sand",N,Y,Y,Y,Y,N,N,N
PLA547,Westborough Park,2380 Galway Dr,South San Francisco,CA,94080,650 875 6916,,,N,Playgrounds,,Y,Y,,Y,Y,Y,rubber,N,N,Y,Y,Y,Y,N,N
PLA548,Willy Woo Woo Wong Playground,830 Sacramento St,San Francisco,CA,94108,415 274 202,http://www.sfparksalliance.org/our-parks/parks/willie-woo-woo-wong-playground,"This multi-level park built into the side of a hill contains two sand play areas, three game and sports areas, and a big community recreation center and indoor gym. The Rec center runs an after school program that helps kids with homework and offers snacks and activities.

1 Basketball Court, Clubhouse/Activity Room, Kitchen, 2 Playgrounds, 4 Ping Pong Tables, Restrooms, 1 Tennis Court, 1 Volleyball Court.",N,Playgrounds,,N,Y,,N,Y,N,"rubber, sand",N,Y,Y,Y,Y,N,N,N
PLA549,Woh Hei Yuen Park,Powell St & John St,San Francisco,CA,94133,415 989 4442,http://www.sfparksalliance.org/our-parks/parks/woh-hei-yuen-park,"Despite its small size, Woh Hei Yuen provides a variety of activities, attracting everyone from the elderly to small children. Views to and from the park's adjacent streets are kept open, while park structures and planting help to define sub areas and create a sense of depth. The principal landscape area has many features encouraging exploration, including a pavilion; wood bridge over a dry creek, stone walls, and granite boulders carved into human faces and oversized fruits. Concrete and special paving link the park's main activities, as well as providing spaces for uses such as tai chi and ball play. ",N,Playgrounds,,N,Y,,N,Y,N,"sand, rubber",N,Y,Y,Y,N,Y,N,N
PLA55,Burton Park,1070 Cedar St,San Carlos,CA,94071,,,"Burton Park is one of the most popular parks in San Carlos. There are two play structures, one for tots and one for big kids. The big kids play structure has an awning to keep them cool during hot days. There is also a sand pit nearby. The tots play area, is located near the restrooms, and is completely enclosed. All the playgrounds have a rubber surface. ",N,Playgrounds,,Y,Y,Y,Y,Y,Y,rubber,Y,Y,Y,Y,Y,Y,Y,Y
PLA550,Townsend Park,Townsend Park Cir at Gordy Dr,San Jose,CA,95109,,,"Townsend Park is located next to the San Jose Municipal Golf Course. The playground has 2 playgrounds; one for tots and one for big kids. Surounding the play area, there is a pergola for covered supervision. ",N,Playgrounds,,N,N,,Y,Y,N,"rubber, mulch",N,Y,Y,Y,Y,Y,N,N
PLA551,Willow Street Frank Bramhall Park,1320 Willow St,San Jose,CA,95125,408 793 5510,http://www.sanjoseca.gov/Facilities/Facility/Details/Willow-Street-Frank-Bramhall-Park-70,,N,Playgrounds,,Y,Y,,N,Y,N,rubber,N,N,Y,Y,Y,Y,Y,N
PLA552,Mervin Morris Park,Nielson Ave & Devenwood Way,San Lorenzo,CA,94580,,,,N,Playgrounds,,Y,Y,,Y,Y,N,mulch,N,N,Y,Y,Y,Y,N,N
PLA553,San Lorenzo Community Center Park,1970 Via Buena Vista,San Lorenzo,CA,94580,,,,N,Playgrounds,,Y,Y,,Y,Y,N,mulch,N,N,Y,Y,Y,Y,N,N
PLA554,Seminary Oaks Park,299 Santa Monica Avenue,Menlo Park,CA,94025,,,"Seminary Oaks Park is a small neighborhood enclosed park. The playground is good for all ages. A cool feature of the play structure is three slides connected into one, so kids can race each other down. The park also has benches surounding the play structures to allow for supervision. ",N,Playgrounds,,N,N,,N,Y,Y,mulch,N,N,Y,Y,Y,N,N,N
PLA556,Siempre Verde Park,455 Park St,San Leandro,CA,94577,,https://sanleandro.org/depts/rec/parks/verde.asp,"Located at the corner of Park Street and San Leandro Boulevard, provides open green space and recreational facilities for the neighborhoods surrounding it. There are two barbecue pits, four picnic tables, a baseball field, a basketball court, a play area and restrooms.",N,Playgrounds,,N,Y,,N,Y,N,mulch,N,N,N,Y,Y,Y,N,N
PLA557,Stenzel Park,15300 Wicks Boulevard,San Leandro,CA,94579,510 577 3462,https://sanleandro.org/depts/rec/parks/stenzel.asp,"An important neighborhood park located on Wicks Boulevard at Elvina Drive. Over the years, four regulation ball fields have been developed here for organized baseball league play. There are also four barbecue pits, six picnic tables, a half court basketball court, restrooms and a concession booth.",N,Playgrounds,,Y,Y,,N,Y,N,mulch,N,N,Y,Y,Y,Y,N,N
PLA558,Thrasher Park,1300 Davis St,San Leandro,CA,94577,,https://sanleandro.org/depts/rec/parks/thrasher.asp,"Located at the intersection of Davis Street and Orchard Avenue, is the City's oldest park. Renovated in 1992, this community park has several unique features, including a lighted regulation softball field, a skateboard park, and a historical railway society building. In addition, the picnic areas, playground, and green space provide for neighborhood recreation needs. There are six barbecue pits, six picnic tables, a tot lot and restrooms.",N,Playgrounds,,Y,Y,,N,Y,N,mulch,N,N,Y,Y,N,Y,Y,N
PLA559,Toyon Park,Bancroft Ave. & Bancroft Ct.,San Leandro,CA,94578,,https://sanleandro.org/depts/rec/parks/toyon.asp,"Located on Bancroft Avenue at 145th Avenue. The park includes a variety of facilities not found in many other San Leandro parks, including bocce and horseshoe courts. There are also four barbecue pits, six picnic tables, a tiny tot area and restrooms.",N,Playgrounds,,Y,Y,,N,Y,N,mulch,N,N,Y,Y,Y,Y,N,N
PLA56,Hall Memorial Park,La Honda Dr,Milpitas,CA,95035,,http://www.ci.milpitas.ca.gov/government/recreation/parks.asp,Two large play structures are located in this quiet neighborhood park. Next to the playground are four tennis courts and green open space.,N,Playgrounds,,Y,Y,,N,Y,N,"sand, rubber",N,N,Y,Y,Y,Y,Y,N
PLA560,Warden Park,626 Warden Ave,San Leandro,CA,94577,510 577 3462,https://sanleandro.org/depts/rec/parks/warden.asp,"Warden Park is a small park that provides recreation amenities for nearby residents. It is located at the corner of Warden Avenue and Tudor Road. There are two barbecue pits, two picnic tables, a basketball court and a tot lot.",N,Playgrounds,,Y,N,,N,Y,N,sand,N,Y,Y,Y,Y,Y,Y,N
PLA561,Washington Manor Park,Mersey Ave. & Zelma  St.,San Leandro,CA,94579,,https://sanleandro.org/depts/rec/parks/washington.asp,"This 15-acre neighborhood park is located at 14900 Zelma, near Manor Boulevard. Its amenities include a new aquatic center with a variety of water features and a community room, tennis courts, barbecue pits, basketball courts, playground apparatuses, two softball areas and an open grassy field.",N,Playgrounds,,Y,Y,,N,Y,N,mulch,Y,N,Y,Y,Y,Y,Y,N
PLA562,West Hillsdale Park,400 Heather Ln,San Mateo,CA,94403,,,"West Hillsdale Park is hidden from the street and only accessible through one of the six walking entrances. The park has a large grassy area, a basketball court, an oval walking trail & a small playground for all age groups. ",N,Playgrounds,,N,N,,N,Y,N,mulch,N,N,Y,Y,Y,Y,N,N
PLA563,Bret Harte Park,Baywood Ter. & Irwin St.,San Rafael,CA,94901,,,,N,Playgrounds,,N,Y,,N,Y,Y,mulch,N,N,Y,Y,Y,N,N,N
PLA564,Freitas Park,Montecillo and Trellis Dr,San Rafael,CA,94903,,,,N,Playgrounds,,N,Y,,N,Y,N,rubber,Y,N,N,N,Y,Y,N,N
PLA565,Gerstle Park,Clark St. & San Rafael Ave.,San Rafael,CA,94901,,,,N,Playgrounds,,N,Y,,Y,Y,Y,mulch,N,Y,Y,Y,Y,Y,Y,N
PLA566,Santa Margarita Park,Near 97 De La Guerra Rd,San Rafael,CA,94903,,,,N,Playgrounds,,Y,Y,,N,Y,N,mulch,N,Y,Y,Y,Y,Y,Y,N
PLA567,Arlington Park,Knightsbridge Way & Holborn Way,San Ramon,CA,94582,,,,N,Playgrounds,,Y,Y,,Y,Y,N,mulch,N,N,N,N,Y,Y,Y,N
PLA568,Central Park,12501 Alcosta Blvd,San Ramon,CA,94583,925 973 3200,,,N,Playgrounds,,Y,Y,,Y,Y,N,"rubber, mulch",Y,Y,N,N,Y,Y,N,N
PLA569,Creekside Park,1343 S. Wedgewood Rd,San Ramon,CA,94582,(925) 973-3290,,,N,Playgrounds,,Y,Y,,Y,Y,N,mulch,N,N,Y,Y,Y,Y,N,N
PLA57,Castro Valley Community Center-Park,18988 Lake Chabot Rd,Castro Valley,CA,94546,510 881 9897,http://haywardrec.org/Facilities/Facility/Details/Castro-Valley-Community-Park-31,Great park with four play structures offering something for all age groups. In the center of the play structures is a water play area. ,N,Playgrounds,,Y,Y,,N,Y,Y,"mulch, concrete, sand",Y,Y,Y,Y,Y,Y,N,N
PLA570,East Branch Park,Pemberton Dr. & Jasper Hill Dr.,San Ramon,CA,94582,,,,N,Playgrounds,,Y,Y,,N,Y,N,mulch,N,N,N,Y,Y,Y,N,N
PLA571,Hidden Crest Park,Star Jasmine Dr. & Asterbell Dr.,San Ramon,CA,94582,(925) 973-3290,,,N,Playgrounds,,N,N,,N,Y,N,mulch,N,N,N,N,Y,Y,Y,N
PLA572,Hidden Valley Park,Silva Way & Albion Rd.,San Ramon,CA,94582,,,Has a baseball and soccar fields. Large diamond shaped climbing structure and a small toddler play structure. ,N,Playgrounds,,Y,Y,,Y,Y,N,mulch,N,N,N,N,Y,Y,N,N
PLA573,Memorial Park,Bollinger Canyon Road & Talavera Dr.,San Ramon,CA,94583,,,"One of the best parks in San Ramon. This 16 acre park has 2 playgrounds, BMX Track, bocce courts and a baseball field. ",N,Playgrounds,,Y,Y,,Y,Y,N,mulch,N,Y,Y,Y,Y,Y,N,N
PLA574,Monarch Park,N Monarch Rd & Japonica Way,San Ramon,CA,94582,,,,N,Playgrounds,,Y,Y,,Y,Y,Y,mulch,N,N,Y,Y,Y,Y,N,N
PLA575,Piccadilly Square Park,2503 Piccadilly Circle,San Ramon,CA,94582,,,"Located in a quiet residential neighborhood, Picadilly Square Park has a prehistoric theme. There is a dinosaur fossil in the sandpit and themed play structured. General lack of shade in this park.",N,Playgrounds,,N,Y,,Y,Y,N,mulch,N,Y,Y,Y,Y,Y,N,N
PLA576,Kid's World,E Micheltorena St & Garden St.,Santa Barbara,CA,93101,,,"One of the best playground, and a must visit. There is a multi level wooden castle play structure, with picnic tables all around it to watch your kids from and a smaller version for toddlers. There are also sea creature statutes for kids to climb on and a turtle pond. ",N,Playgrounds,,N,N,,Y,Y,Y,mulch,N,Y,Y,Y,Y,Y,N,Y
PLA577,Chase Palm Park,323 E Cabrillo Blvd,Santa Barbara,CA,93101,,,"At Chase Palm Park there is a Shipwreck themed playground with a boat and sea creatures, an carousel, and a pond full of turtles. ",N,Playgrounds,,Y,Y,,Y,Y,N,"rubber, sand",Y,Y,Y,Y,Y,Y,N,N
PLA578,Fairway Glen Park,Calle De Primavera,Santa Clara,CA,95054,,,Fairway Glen Park's playground is dedicated for older kids. There are a number of slides and climbing walls. There is also a large field for kids to run and play as well as picnic tables overlooking the playground. Levi's stadium can be seen from the park. ,N,Playgrounds,,N,N,,N,Y,N,mulch,N,N,Y,Y,Y,Y,Y,N
PLA579,Southview Park,North St. & 3rd St.,Sausalito,CA,94965,,,,N,Playgrounds,,N,N,,N,Y,Y,sand,N,Y,Y,Y,Y,N,N,N
PLA58,Brigadoon Park,Brigadoon Way & Daniel Maloney Dr.,San Jose,CA,95121,,http://www.sanjoseca.gov/Facilities/Facility/Details/Brigadoon-Park-102,,N,Playgrounds,,N,N,,Y,Y,N,"rubber, mulch",N,N,Y,Y,Y,Y,Y,N
PLA580,Laguna Grande Park,Canyon Del Rey Blvd. & Hilby Ave.,Seaside,CA,93955,,,,N,Playgrounds,,Y,Y,,Y,Y,N,"mulch, sand",N,Y,Y,Y,Y,Y,Y,N
PLA581,Anna Jean Cummings Park,461 Soquel San Jose Rd,Soquel,CA,95073,,,,N,Playgrounds,,Y,Y,,Y,Y,N,sand,N,Y,Y,Y,Y,Y,N,N
PLA582,KT Carter Park,Cox St. & Newcomb St.,Sonoma,CA,95476,,,,N,Playgrounds,,N,N,,N,Y,N,sand,N,Y,Y,Y,N,N,N,N
PLA583,Victory Park,1001 N Pershing Ave,Stockton,CA,95203,,,,N,Playgrounds,,N,Y,,N,Y,N,mulch,N,N,Y,Y,Y,Y,Y,N
PLA584,Mike Day Memorial Park,"605,1-3 Civic Center Blvd",Suisun City,CA,94585,,,,N,Playgrounds,,N,N,,Y,Y,N,mulch,N,N,Y,Y,Y,Y,N,N
PLA585,Seven Hills Park,Florence St,Union City,CA,94587,,,,N,Playgrounds,,Y,Y,,N,Y,N,rubber,N,N,Y,Y,N,Y,Y,N
PLA586,Dan Foley Park,95 Amador St,Vallejo,CA,94590,,http://www.gvrd.org/?page=Dan_Foley_Park,"Dan Foley is one of our principal parks in the GVRD system. It features a community center, fishing lake (state fishing laws enforced- see California Dept. of Fish and Game), natural grass baseball field (with lights), playground, and synthetic lighted soccer/ softball field.",Y,Playgrounds,,Y,Y,,Y,Y,N,mulch,N,N,Y,Y,Y,Y,Y,N
PLA587,Beard Park,540 C Street,Waterford,CA,95386,,http://www.cityofwaterford.org/venue/beard-park/,"Colorful local park with three play structures, for toddlers, preschoolers and older children, respectively. All are located together which is great for families with kids of different ages. ",N,Playgrounds,,Y,Y,,N,Y,N,mulch,N,N,Y,Y,Y,Y,Y,Y
PLA588,Heather Farm Park,301 N San Carlos Dr,Walnut Creek,CA,94598,925 943 5858,http://www.walnut-creek.org/citygov/depts/ps/parks/heatherfarm/default.asp,"A very special park that has everything you can think of - swimming pool, tennis courts, rose garden, picnic areas, community center, equestrian center, skate park, off-leash dog park, bike paths, sand volleyball court, fishing pond, nature pond, six athletic fields, and connection to the Iron Horse Trail! Ofcourse there is an amazing all accessible playground as well.",N,Playgrounds,,Y,Y,,Y,Y,N,mulch,N,Y,Y,Y,Y,Y,Y,Y
PLA589,Larkey Park,Buena Vista Ave and 1st Ave,Walnut Creek,CA,94597,,http://www.walnut-creek.org/citygov/depts/ps/parks/larkey.asp,"Children's play areas, connection to walking trails, open turf area, picnic areas, swimming (May-September), tennis. Larkey Park is also home to the Lindsay Wildlife Museum and the Walnut Creek Model Railroad Society.",N,Playgrounds,,Y,Y,,Y,Y,N,mulch,N,Y,Y,Y,Y,Y,N,N
PLA59,Centennial Park,24000 Amador St,Hayward,CA,94541,510 881 6750,,,N,Playgrounds,,N,N,,N,Y,N,mulch,N,N,Y,Y,Y,Y,Y,N
PLA590,Rudgear Park,Steward Ave & Kenton Ct.,Walnut Creek,CA,94596,,,,N,Playgrounds,,Y,Y,,Y,Y,N,sand,N,Y,Y,Y,Y,Y,Y,N
PLA591,San Miguel Park,San Jose Ct.,Walnut Creek,CA,94598,,,,N,Playgrounds,,Y,N,,N,Y,N,mulch,N,N,N,N,Y,N,N,N
PLA592,Tice Valley Park,Rossmoor Pwy and Tice Valley Blvd,Walnut Creek,CA,94595,,http://www.walnut-creek.org/citygov/depts/ps/parks/ticevalley.asp,,N,Playgrounds,,Y,Y,,N,Y,N,"sand, rubber",N,Y,Y,Y,N,Y,Y,N
PLA593,Walden Park,2698 Oak Rd,Walnut Creek,CA,94597,,,,N,Playgrounds,,Y,Y,,N,Y,N,"mulch, rubber",N,Y,Y,Y,N,Y,Y,N
PLA594,Ocean View Park,102 Ocean View Ave,Santa Cruz,CA,95067,,http://www.cityofsantacruz.com/departments/parks-recreation/parks-beaches-and-open-spaces/neighborhood-parks/ocean-view-park,,N,Playgrounds,,N,Y,,N,Y,N,"rubber, mulch",N,N,Y,Y,Y,Y,Y,N
PLA595,West Lake Park,Bradley Dr. & Sprint St.,Santa Cruz,CA,95060,,http://www.cityofsantacruz.com/departments/parks-recreation/parks-beaches-and-open-spaces/neighborhood-parks/westlake-park,,N,Playgrounds,,N,N,,N,Y,N,"rubber, sand",N,Y,Y,Y,Y,Y,N,N
PLA596,Grant Park,1575 Holt Ave,Los Altos,CA,94024,,,,N,Playgrounds,,Y,N,,N,Y,N,mulch,N,N,Y,Y,Y,Y,N,N
PLA597,Los Altos Apricot Orchard,1 N San Antonio Rd,Los Altos,CA,94022,,,,N,Playgrounds,,Y,N,,N,Y,Y,mulch,N,N,Y,Y,N,N,N,N
PLA598,Marymeade Park,Fremont Ave. & Grant Rd.,Los Altos,CA,94024,,,,N,Playgrounds,,Y,N,,N,Y,N,mulch,N,N,Y,Y,Y,Y,Y,N
PLA599,Creekside Park,Miller Ave & Phil Ln.,Cupertino,CA,95014,,,,N,Playgrounds,,Y,Y,,Y,Y,Y,mulch,N,Y,Y,Y,Y,Y,Y,N
PLA6,Always Dream Play Park,Stevenson Blvd & Gallaudet,Fremont,CA,94536,,,,N,Playgrounds,,Y,Y,,Y,Y,N,rubber,N,Y,Y,Y,Y,Y,Y,N
PLA60,Centerville Community Park,3355 Country Dr,Fremont,CA,94536,,,,N,Playgrounds,,Y,Y,,N,Y,N,mulch,N,N,N,Y,Y,Y,N,N
PLA600,Bubb School,525 Hans Ave,Mountain View,CA,94040,,,,N,Playgrounds,,Y,Y,,N,Y,N,mulch,N,N,Y,Y,Y,Y,N,N
PLA601,Castro Park,505 Escuela Ave,Mountain View,CA,94040,(650) 526-3590,,,N,Playgrounds,,N,N,,N,Y,Y,"sand, mulch, rubber",N,Y,Y,Y,Y,N,N,N
PLA602,Fairmont Park,Fairmont Ave & Bush St.,Mountain View,CA,94040,,,"This is a very small park, near downtown Mountain View. This park is completely fenced in, has two small play structure for toddlers and a few picnic tables overlooking the play area. ",N,Playgrounds,,N,N,,N,Y,Y,sand,N,Y,Y,Y,N,Y,N,N
PLA603,Sylvan Park,550 Sylvan Ave,Mountain View,CA,94041,,,,N,Playgrounds,,Y,N,,Y,Y,N,sand,N,N,Y,Y,Y,Y,N,N
PLA604,Almaden Lake Park,15652 Almaden Expy,San Jose,CA,95120,,,,Y,Playgrounds,,Y,Y,,Y,Y,Y,mulch,Y,N,Y,Y,Y,Y,Y,N
PLA605,TJ Martin Park,The Strand Ave & Crump Ct.,San Jose,CA,95120,,,"Great neighborhood park, with lots of unique climbing structures. ",N,Playgrounds,,N,N,,Y,Y,N,mulch,N,Y,Y,Y,Y,Y,N,N
PLA606,Wallenberg Park,Curtner Ave & Cottle Ave.,San Jose,CA,95125,,,,N,Playgrounds,,Y,Y,,Y,Y,N,"mulch, rubber",N,Y,Y,Y,Y,Y,Y,N
PLA607,Magical Bridge Playground,600 E Meadow Dr,Palo Alto,CA,94306,,http://www.magicalbridge.org/,"Magic Bridge Playground is located within Meadow Park. It's enclosed and built primarily of rubber. The playground has an amphitheatre for story time. The park contains a number of sensory activities, a water feature, enclosed swings and climbing structures. There are also picnic tables within the playground. 

Just outside Magic Bridge Playground there are a number of play structures, picnic tables and BBQ pits that can be utilized after playtime is complete. ",N,Playgrounds,,Y,Y,,Y,Y,Y,rubber,Y,Y,Y,Y,Y,Y,Y,Y
PLA608,Belameda Park,1110 Alameda,Belmont,CA,94002,,http://www.belmont.gov/Home/Components/FacilityDirectory/FacilityDirectory/24/702,,N,Playgrounds,,N,N,,N,Y,Y,mulch,N,N,Y,Y,Y,Y,N,N
PLA609,O'Donnell Park,400 Ralston,Belmont,CA,94002,,http://www.belmont.gov/Home/Components/FacilityDirectory/FacilityDirectory/60/702,,N,Playgrounds,,N,N,,N,Y,Y,"sand, mulch",N,Y,Y,Y,Y,Y,Y,N
PLA61,Casanova Park,4012 Casanova Dr,San Mateo,CA,94403,650 522 7434,http://www.cityofsanmateo.org/index.aspx?NID=2443,"Casanova Park, connects to Meadow Park and is good for stroller walks. The playground itself is fully enclosed with a dinosaur theme. There is a bathroom nearby and a picnic area overlooking the playground. ",N,Playgrounds,,N,Y,,N,Y,Y,rubber,N,Y,Y,Y,Y,N,N,N
PLA610,Arcturus Park,824 Arcturus Circle,Foster City,CA,94404,,http://www.fostercity.org/parksandrecreation/Arcturus-Park.cfm,"Arcturus Park offers 3/4 acre of playground area, small lawn area, and a tiny tot play area.",N,Playgrounds,,N,N,,N,Y,N,mulch,N,N,Y,Y,Y,N,N,N
PLA611,Catamaran Park,Catamaran St & Magellan Ln.,Foster City,CA,94404,,http://www.fostercity.org/parksandrecreation/Catamaran-Park.cfm,"This beautiful 5.8 acre park offers a chance for a moonlight (or midday, for that matter!) stroll along the Lagoon with a view of downtown Foster City as a backdrop. Catamaran Park offers a large turf area, beach area, picnic area, basketball court, play apparatus, two lighted tennis courts, sand volleyball pit, and restroom facilities.",N,Playgrounds,,N,Y,,Y,Y,N,mulch,N,N,N,N,Y,N,N,N
PLA612,Edgewater Park,610 Foster City Blvd,Foster City,CA,94404,,http://www.fostercity.org/parksandrecreation/Edgewater-Park.cfm,"Edgewater Park is 9.5 acres with large lawn areas, lighted softball diamond, basketball courts, playgroundarea, and tennis courts.",N,Playgrounds,,N,Y,N,Y,Y,N,mulch,N,N,Y,Y,Y,Y,N,N
PLA613,Farragut Park,Farragut Blvd & Bridgeport Ln,Foster City,CA,94404,,http://www.fostercity.org/parksandrecreation/Farragut-Park.cfm,"Farragut Park offers a large lawn area, picnic tables, benches, small sand box, play apparatus, and restroom facilities.",N,Playgrounds,,N,Y,,Y,Y,N,mulch,N,Y,Y,Y,Y,Y,N,N
PLA614,Gull Park,Gull Ave & Killdeer Ct.,Foster City,CA,94404,(650) 286-3380,http://www.fostercity.org/parksandrecreation/Gull-Park.cfm,"Gull Park offers a sand beach and two playground areas, as well as swings, slides, a large lawn area, and restroom facilities. The picnic tables at Gull Park are reservable for groups of up to 50 people. Call for more details.",N,Playgrounds,,N,Y,,N,Y,N,mulch,N,Y,Y,Y,N,Y,N,N
PLA615,Ketch Park,Topsail Ct.,Foster City,CA,94404,,http://www.fostercity.org/parksandrecreation/Ketch-Park.cfm,"Neighborhood park with a small play structure and set of swings. There is a basketball court, and a gazebo suitable for a small picnic.",N,Playgrounds,,N,N,,N,Y,N,mulch,N,N,N,Y,N,Y,N,N
PLA616,Marlin Park,Marlin Ave & Pompano Cir,Foster City,CA,94404,(650)286-3380,http://www.fostercity.org/parksandrecreation/Marlin-Park.cfm,"In a waterfront setting, Marlin Park's offer a sand beach, playground area and large lawn area. One large play structure with both small and large slides. The picnic tables at Marlin Park are reservable for groups of up to 50 people. Call for details.",N,Playgrounds,,N,N,,N,Y,N,mulch,N,Y,N,Y,Y,Y,N,N
PLA617,Port Royal Park,100 Port Royal Ave,Foster City,CA,94404,,http://www.fostercity.org/parksandrecreation/Port-Royal-Park.cfm,"Tucked into the southern-most point of Foster City, Port Royal Park offers 4 acres of soccer fields, restrooms, play apparatus, and walkways for a lovely afternoon stroll.",N,Playgrounds,,Y,N,,Y,Y,N,rubber,N,N,Y,Y,Y,N,N,N
PLA618,Sea Cloud Park,Sea Cloud Dr,Foster City,CA,94404,,http://www.fostercity.org/parksandrecreation/Sea-Cloud-Park.cfm,"Play Ball!! Sea Cloud Park has been called the ""sporting gem"" of the Peninsula. It is the home of the Foster City Little League and offers more than 23 acres of baseball diamonds, soccer fields, lawn area, play apparatus, snack shack, batting cages, and restrooms.",N,Playgrounds,,Y,N,,Y,Y,N,mulch,N,N,Y,Y,Y,Y,N,N
PLA619,Shad Park,325 Bluefish Ct,Foster City,CA,94404,,http://www.fostercity.org/parksandrecreation/Shad-Park.cfm,"Shad Park provides 2.1 acres of lawn area, playgrounds, basketball court, and a multi-purpose court.",N,Playgrounds,,N,N,,Y,Y,N,mulch,N,N,Y,Y,Y,Y,N,N
PLA62,Brooktree Park,Fallingtree & Flickinger,San Jose,CA,95131,,,Brooktree Park shares its grounds with Brooktree Elementary School. The park has an enclosed playground good for tots with picnic tables and BBQ pits overlooking the area. The school has 2 playgrounds; one is primarily a climbing playground the other contains a couple of slides.,N,Playgrounds,,N,N,,N,Y,Y,mulch,N,N,Y,Y,Y,Y,Y,N
PLA620,Sunfish Park,Sea Horse Ct.,Foster City,CA,94404,,http://www.fostercity.org/parksandrecreation/Sunfish-Park.cfm,"With 2.4 acres, Sunfish Park offers playgrounds, a multi-purpose court and lawn area.",N,Playgrounds,,N,N,,N,Y,N,mulch,N,N,Y,Y,Y,N,N,N
PLA621,Turnstone Park,Avocet Ct,Foster City,CA,94404,,http://www.fostercity.org/parksandrecreation/Turnstone-Park.cfm,"Turnstone Park offers a 1.5 acres of playground equipment, a lawn area, and a basketball court. There's also a sand pit for the kids to play in.",N,Playgrounds,,N,N,,Y,Y,N,mulch,N,Y,Y,Y,Y,Y,N,N
PLA622,Howes Play Lot,Thomas Dr,Los Gatos,CA,95032,,http://www.losgatosca.gov/904/Howes-Play-Lot,"Howes Play Lot is located near Union Avenue,  between Thomas and Howes Drives, off Anne Way. It is only accessible from Thomas Drive and Howes Drive.",N,Playgrounds,,N,N,,N,Y,N,mulch,N,N,N,Y,Y,N,N,N
PLA623,Oak Hill Play Lot,Oakpark Dr. & Garden Ln.,Los Gatos,CA,95032,,http://www.losgatosca.gov/909/Oak-Hill-Play-Lot,"The play lot is located on the corner of Oak Park Drive and Garden Lane, off of Los Gatos Boulevard.

A small neighborhood play lot with a playground and small lawn.",N,Playgrounds,,N,N,,Y,Y,N,mulch,N,N,Y,Y,Y,Y,N,N
PLA624,Adventure Playground,160 University Ave,Berkeley,CA,94710,5109816720,http://www.ci.berkeley.ca.us/adventureplayground/,"This is a bucket list playground for all older children. It is a wonderfully unique outdoor facility where staff encourage children to play and build creatively. Come climb on the many unusual kid designed and built forts, boats, and towers. Ride the zip line or hammer, saw, and paint. Adventure Playground is designed for children seven years old and older, however younger children are welcome as long as they are within arms reach of a participating adult. Everyone must wear sturdy shoes like tennis shoes and clothes that can get dirty! Entrance is free unless you want to use the drop in option, which is $10 per child over 7 years old for 3 hours. Open only on the weekend and weekdays during the summer. ",Y,Playgrounds,,Y,Y,,N,Y,Y,sand,N,Y,N,N,Y,Y,Y,Y
PLA625,Kern Play Lot,Kern St & Esmond Ave.,Richmond,CA,94805,,http://www.ci.richmond.ca.us/index.aspx?NID=1664,,N,Playgrounds,,N,N,,N,Y,Y,mulch,N,N,Y,Y,Y,N,N,N
PLA626,Solano Playlot,38th Street & Solano Ave.,Richmond,CA,94805,,http://www.ci.richmond.ca.us/index.aspx?NID=1664,,N,Playgrounds,,N,N,,N,Y,Y,mulch,N,N,Y,Y,Y,Y,N,N
PLA627,Washington Park,Burlingame Ave & Anita Rd.,Burlingame,CA,94010,(650) 558 - 7300,https://www.burlingame.org/index.aspx?page=419&recordid=201,"Washington Park is the oldest park in Burlingame. The park is a year round center for community recreation. The Burlingame Recreation Division provides hundreds of classes and activities each year in the park and the Recreation Center. Tennis courts, a children’s playground, picnic areas, and baseball facilities are all in constant use. ",N,Playgrounds,,Y,Y,,Y,Y,N,rubber,N,Y,Y,Y,Y,Y,Y,N
PLA628,Hidden Valley Park,3490 Buena Vista Dr,Santa Rosa,CA,95404,,http://ci.santa-rosa.ca.us/departments/recreationandparks/parks/cityparks/listofparks/Pages/HiddenValleyPark.aspx,,N,Playgrounds,,N,N,,Y,Y,N,"rubber, sand",N,N,N,N,Y,Y,Y,N
PLA629,Pioneer Park,Pinercrest Dr & Peterson Ln.,Santa Rosa,CA,95403,,http://ci.santa-rosa.ca.us/departments/recreationandparks/parks/cityparks/listofparks/Pages/PioneerPark.aspx,,N,Playgrounds,,N,N,,N,Y,N,mulch,N,N,Y,Y,Y,Y,Y,N
PLA63,Arbolado Park,Arbolado Dr. & Sutton Dr.,Walnut Creek,CA,94598,,http://www.walnut-creek.org/citygov/depts/ps/parks/arbolado.asp,,N,Playgrounds,,Y,Y,,N,Y,N,mulch,N,Y,Y,Y,Y,Y,Y,N
PLA630,Olive Tot Lot,2 Elmwood Ct. ,Novato,CA,94945,,http://novato.org/Home/Components/FacilityDirectory/FacilityDirectory/44/535?npage=2,"The Olive Tot Lot is the smallest of all of the City's playgrounds, covering just a sliver of land in the shadow of Highway 101 off Olive Avenue. The site is packed with fun play equipment, including a ""race track"" and car wash for small trikes - perfect for younger children. There are two picnic tables and one barbecue grill under a wooden structure for shade. A four-seat permanent chess table is situated at the north end of the park, allowing play for older park-goers.",N,Playgrounds,,N,N,,N,Y,Y,mulch,N,N,Y,Y,N,Y,Y,N
PLA631,Blue Rocks Springs,650 Columbus Pkwy,Vallejo,CA,94591,,http://www.gvrd.org/?page=Blue_Rock_Springs_Park,"A historical site with large picnic areas (8 reservable sites) with BBQ's, open turf play areas, children's play equipment, a small lake and island with ducks and peacocks, off street parking and restrooms. A hiking trail provides access to the ridge of the Sulfur Springs Mountain for spectacular views of Vallejo and the Napa River.",Y,Playgrounds,,Y,Y,,Y,Y,N,mulch,N,N,Y,Y,Y,Y,Y,N
PLA632,Brisbane Community Park,198 San Francisco Ave,Brisbane,CA,94005,,http://www.ci.brisbane.ca.us/visiting/parks-and-trails,"This park at the center of town has a playground, gazebo and picnic tables. It can be reserved for private parties.",N,Playgrounds,,Y,Y,,N,Y,N,rubber,Y,N,Y,Y,Y,Y,N,N
PLA635,Miner Park,Copco Ln & Lean Ave,San Jose,CA,95123,,http://www.sanjoseca.gov/Facilities/Facility/Details/Miner-Park-156,,N,Playgrounds,,N,N,,Y,Y,N,mulch,N,N,N,Y,Y,N,N,N
PLA639,Roosevelt Park,900 E. Santa Clara St.,San Jose,CA,95116,,,"Roosevelt Park is located on Washington Street. The park has ample space and includes: a big kids play area, tots play area, an open field, skate park and community center. The big kids play area is located just off the major street and is partially fenced off from the street. There is a picnic area with a large BBQ pit, but this is located adjacent to the tot play area and skate park. ",N,Playgrounds,,Y,Y,,N,Y,N,mulch,N,Y,Y,Y,Y,Y,Y,N
PLA64,Cedar Rose Park,1300 Rose St,Berkeley,CA,94704,510 981 6700,http://www.ci.berkeley.ca.us/Parks_Rec_Waterfront/Trees_Parks/Parks__Cedar-Rose_Park.aspx,,N,Playgrounds,,N,Y,,N,Y,Y,"rubber, sand",N,N,Y,Y,Y,Y,Y,N
PLA640,Westwood Oaks Park, La Herran Dr and Pruneridge Ave,Santa Clara,CA,95051,,,"Westwood Oaks Park is a contains a small playground which is partially fenced in, completely on the street side. This park is dedicated for older kids, age 5-12, but also has little horses for tots to ride on. The park has a grass area for kids to run, and a path surrounding the park for riding your bike. The park also contains public bathrooms.",N,Playgrounds,,N,Y,,Y,Y,N,sand,N,Y,Y,Y,Y,N,N,N
PLA641,Live Oak Park,Rivermark Pwy and Moreland Way,Santa Clara,CA,95054,,,"Live Oak Park is a small neighborhood park located next to Northside Branch Library. There are two play structures at the park, one for big kids and one for little kids. The paly area is made of sand with rubber making it handicap accessible. The park has 4 small picnic tables with individual BBQs that overlook the play structures. The restrooms are also located nearby so not a lot of traveling is required.",N,Playgrounds,,Y,Y,,Y,Y,N,"sand, rubber",N,Y,Y,Y,Y,Y,Y,N
PLA642,Willow Oaks Park,Willow Road at Coleman Ave,Menlo Park,CA,94025,650-330-2220,http://www.menlopark.org/Facilities/Facility/Details/Willow-Oaks-Park-13,"Willow Oaks Park, just off Willow street. The playground is enclused and there are two play strutures, good for older and younger kids. The material is made of mulch. 
The park also contains a baseball, soccer, 4 tennis courts and an enclosed dog park. The parking lot itself is very small sufficient for only 12 cars. ",N,Playgrounds,,Y,N,,N,Y,Y,mulch,N,N,Y,Y,Y,N,N,N
PLA643,Encinal Park ,999 Corte Madera Ave,Sunnyvale,CA,94085,,,"Encinal Park has a large grass field. On one side of the park there are two playground, one enclosed for tots, the other for big kids. The tot playground is fully enclosed. The park also has a tennis court, volley ball court and baseball diamond. Most of the picnic tables and BBQ pits are located near the tennis courts, which is far away from the playgrounds. ",N,Playgrounds,,Y,Y,,N,Y,Y,mulch,N,Y,Y,Y,Y,Y,Y,N
PLA644,Jackson Playground,Arkansas Street and 17th Street,San Francisco,CA,94107,,,"This small playground is action pack with three play structures. One for smaller kids age 2-5, with two slides and a sand pit. The other two play structures are for older kids, age 5-12 and are connected by monkey bars. Surfaces are primarily sand based with some rubber. The park is connected to two baseball fields and has a basketball court and tennis court attached.",N,Playgrounds,,N,N,,N,Y,Y,"sand, rubber",N,Y,Y,Y,Y,Y,N,N
PLA645,Wilder Fields,Wilder Road ,Orinda,CA,94563,(925) 254-2445,http://www.cityoforinda.org/index.asp?Type=B_BASIC&SEC={A0439778-BF80-425E-B5B2-561092F5E1A5},"Located off of Highway 24, Orinda's newest park has a tot lot, group picnic areas that can be reserved, two artificial turf fields for soccer, lacrosse, rugby and baseball. ",N,Playgrounds,,Y,Y,,N,Y,N,mulch,N,N,Y,Y,N,Y,N,N
PLA645,Yerba Buena Playground,4th and Howard St.,San Francisco,CA,94103,,,,N,Playgrounds,,N,Y,,N,Y,Y,rubber,N,N,Y,Y,Y,N,N,N
PLA646,Pine Grove Sports Fields,Altarinda Road,Orinda,CA,94563,(925) 254-2445,http://www.cityoforinda.org/index.asp?Type=B_BASIC&SEC={A0439778-BF80-425E-B5B2-561092F5E1A5},"Pine Grove is a designated multi-use, natural turf field with two ball diamonds, a soccer field in between, a tot lot, picnic areas adjacent to the ball fields, restrooms and storage. A walking trail was incorporated into the project to create a connection between the residential properties and the recreational facilities.",N,Playgrounds,,Y,Y,,N,Y,N,rubber,N,N,Y,Y,N,Y,N,N
PLA647,Meadow Homes Spray Park,1351 Detroit Ave,Concord,CA,94520,(925) 671-3366,http://www.ci.concord.ca.us/page.asp?pid=3001,"Kids love this ocean themed spray park. Summer hours are 12p-6p, 7 days/week, and May, Aug. and Sept. the water Feature will operate 3p-6p Mon-Fri and 12p-6p Weekends and the spray park is closed Oct - April. Call to confirm opening hours. ",N,Playgrounds,,Y,Y,,N,Y,N,concrete,Y,N,N,N,N,Y,N,Y
PLA647,Roberts Regional Recreation Area,10570 Skyline Blvd,Oakland,CA,94611,,http://www.ebparks.org/parks/roberts,"This 82-acre area is a popular place for family and group picnicking. It is known for its lush setting in a grove of fragrant second growth redwood trees off Skyline Boulevard in Oakland. The all accessible playground has an very large play structure with slides, ramps and climbing walls. The Roberts Pool complex features a 25 yard, heated outdoor swimming pool is located next to the playground. ",N,Playgrounds,,Y,Y,,Y,Y,N,mulch,N,N,Y,Y,Y,Y,Y,Y
PLA648,Trenton Park,Trenton and Rollins,Burlingame,CA,94010,(650) 558 - 7300,https://www.burlingame.org/index.aspx?page=419&recordid=204,"Small fenced in neighborhood park providing only playground equipment for young children. Adult supervision is a necessity, given to proximity to the Rollins Road traffic. Right adjacent to highway 101 with the associated noise. ",N,Playgrounds,,N,N,,N,Y,Y,rubber,N,Y,N,Y,N,N,N,N
PLA649,Alpine Playground,Corner of Alpine & Carolan Avenues,Burlingame,CA,94010,(650) 558 - 7300,https://www.burlingame.org/index.aspx?page=419&recordid=176,"Small fenced playground with a small play structure and picnic area. Adult supervision is a necessity, given the proximity to the Carolan Avenue traffic.",N,Playgrounds,,N,N,,N,Y,Y,mulch,N,N,N,Y,N,Y,N,N
PLA65,Cordelia Community Park,1300 Gold Hill Rd,Fairfield,CA,94534,(707) 428 7428,http://www.fairfield.ca.gov/gov/depts/pw/parks/parks/cordelia.asp,,N,Playgrounds,,Y,Y,,Y,Y,N,mulch,N,N,Y,Y,Y,Y,Y,N
PLA650,Paloma Playground,Paloma and Edgehill,Burlingame,CA,94010,(650) 558 - 7300,https://www.burlingame.org/index.aspx?page=419&recordid=192,Paloma Park is a small playground for young children. There is a single picnic table available.,N,Playgrounds,,N,N,,N,Y,Y,"rubber, sand",N,Y,Y,Y,N,Y,N,N
PLA651,Victoria Park,30 Howard Ave,Burlingame,CA,94010,(650) 558 - 7300,https://www.burlingame.org/index.aspx?page=419&recordid=203,"Victoria Park is a small neighborhood park in the southeast section of Burlingame. The park has an upgraded playground, which is appropriate for young children. There is also a half court basketball court available for play. The park is notable for its grove of Coast Redwoods.",N,Playgrounds,,N,N,,N,Y,N,sand,N,N,Y,Y,N,N,N,N
PLA652,Ray Park,1525 Balboa,Burlingame,CA,94010,(650) 558 - 7300,https://www.burlingame.org/index.aspx?page=419&recordid=190,"Ray Park is a neighborhood park that can accommodate a variety of activities simultaneously. There is a shaded playground, which is ideal for hot days. A two-acre turf area is home to the local Girls Softball Association. Tennis courts and a multi-use court round out the available facilities. Two picnic tables are available without reservations for small groups.",N,Playgrounds,,Y,Y,,N,Y,N,mulch,N,N,Y,Y,N,Y,N,N
PLA653,Village Park,1535 California Drive,Burlingame,CA,94010,(650) 558 - 7300,https://www.burlingame.org/index.aspx?page=419&recordid=202,"Village Park is a neighborhood park on the north end of town that bustles with activity.  On weekdays, between the hours of 10:00 am and 3:00 pm, groups of more than 15 people need written permission from the City's Parks & Recreation Director.",N,Playgrounds,,N,Y,,N,Y,N,mulch,N,N,Y,Y,Y,Y,N,N
PLA654,Pershing Park,138 Crescent,Burlingame,CA,94010,(650) 558 - 7300,https://www.burlingame.org/index.aspx?page=419&recordid=191,"Local park with a modern play structure, swings and a climbing tower. ",N,Playgrounds,,N,N,,N,Y,N,rubber,N,N,N,Y,Y,N,N,N
PLA655,Laguna Park,1414 Laguna St,Burlingame,CA,94010,(650) 558 - 7300,https://www.burlingame.org/index.aspx?page=419&recordid=194,"Small park with two court tennis courts and a children’s play area. There is a small sand box, one play structure and some swings. ",N,Playgrounds,,N,N,,N,Y,Y,rubber,N,Y,N,Y,N,N,N,N
PLA656,"""J"" Lot Playground",248 Primrose Rd,Burlingame,CA,94010,(650) 558 - 7300,https://www.burlingame.org/index.aspx?page=419&recordid=195,"Cute, little playground in downtown Burlingame, tucked away in the corner of a City parking lot.",N,Playgrounds,,N,N,,N,Y,Y,rubber,N,N,N,Y,N,N,N,N
PLA657,Laurelwood Park,3471 Glendora Dr,San Mateo,CA,94403,,http://www.cityofsanmateo.org/exploreourparks/Parks/LAURELWOOD/laurelwood.html,,N,Playgrounds,,N,Y,,N,Y,Y,mulch,N,Y,Y,Y,Y,Y,Y,N
PLA658,David Jones Park,Lowry Rd. & Lark Way,Fremont,CA,94555,,,,N,Playgrounds,,N,N,,N,Y,N,rubber,N,N,N,Y,Y,N,N,N
PLA659,Hillcrest Park,Chipman Dr and Lynwood Terrace,Milpitas,CA,95035,,,,N,Playgrounds,,N,N,,Y,Y,N,mulch,N,N,Y,Y,N,Y,Y,N
PLA67,Cuernavaca Park,Hunt and Alcazar,Burlingame,CA,94010,650 558 7200,https://www.burlingame.org/index.aspx?page=419&recordid=180,Cuernavaca Park boasts a spectacular view of the Bay. It has radical elevation changes allowing the park to serve as a major green belt as well as a site for youth baseball and softball games. The children’s playground and basketball court are located at the highest elevation on the site. Park users often pause to view planes landing at the San Francisco airport.,N,Playgrounds,,Y,Y,,N,Y,N,rubber,N,Y,Y,Y,Y,Y,N,Y
PLA68,Cuesta Park,615 Cuesta Dr,Mountain View,CA,94043,,,,N,Playgrounds,,Y,Y,,Y,Y,N,rubber,N,Y,Y,Y,Y,Y,Y,N
PLA69,Del Medio Park,380 Del Medio Ave,Mountain View,CA,94040,650 903 6326,,"Del Medio Park is a small park that has two play structures; one for big kids and one for little kids. There are two picnic tables overlooking the play area and park benches surrounding. The playground also has a sand pit, a grassy area for kids to run around and excercise equipment for adults to get a workout in. ",N,Playgrounds,,N,N,,N,Y,N,rubber,N,Y,Y,Y,N,Y,N,N
PLA7,Alta Loma Field,638 McLellan Dr,South San Francisco,CA,94080,,,,N,Playgrounds,,Y,Y,,Y,Y,N,mulch,N,N,Y,Y,Y,Y,Y,N
PLA70,Depot Park,270 1st St W,Sonoma,CA,95476,,,,N,Playgrounds,,Y,Y,,N,Y,N,sand,N,Y,Y,Y,N,Y,Y,N
PLA71,Civic Park,1375 Civic Dr,Walnut Creek,CA,94596,,http://www.walnut-creek.org/citygov/depts/ps/parks/civic.asp,,N,Playgrounds,,Y,Y,,N,Y,N,mulch,N,Y,Y,Y,Y,Y,N,N
PLA72,Diablo Vista Park,1000 Tassajara Ranch Dr,Danville,CA,94526,,http://www.danville.ca.gov/Things-To-Do/Parks/Community-Parks/Diablo-Vista/,"This 20-acre park is known for the mosaic water-snake that winds down a hillside. The park has a children's play area, sand volleyball court, covered picnic area, lighted sports fields, and two tennis courts. The sports fields, tennis courts, picnic area, and a snack shack are available to rent 

Got a younger child who likes to explore? The playground located at Diablo Vista Park is ideal for kids 4 and under. Affectionately known as ""Snake Park,"" this park's pint-sized climbing structures, bucket swings and large sandy area is perfect for toddlers. The park is divided into three play areas: one with small buildings, one with a climbing structure and slides, and one with swings.

The center point of the park is a large tile snake. The snake, topped with fountains and a cement pad, slithers down a hill, offering pint-sized climbers many different paths to explore. Kids who climb the snake will be treated to not only a bird's eye view of the park, but also a few fountains for water play.",N,Playgrounds,,Y,Y,,Y,Y,N,"mulch, rubber",Y,N,Y,Y,N,Y,Y,N
PLA73,Dimond Park,3860 Hanly Rd,Oakland,CA,94602,510 482 7831,http://www2.oaklandnet.com/Government/o/opr/s/facility/OAK029384,,N,Playgrounds,,Y,Y,,Y,Y,N,sand,N,Y,Y,Y,Y,Y,Y,N
PLA74,Douglass Playground,26th St & Douglass Ave,San Francisco,CA,94199,,http://www.sfparksalliance.org/our-parks/parks/douglass-playground,"Renovated and reopened in 2002, Douglass Playground has an excellent hillside location complete with trees and rock outcroppings on two levels. The lowest level includes a Clubhouse, children's play area, informal lawn areas and tennis courts. The upper level is heavily wooded and contains a baseball field. There are picnic tables, restrooms, and it is quite dog friendly!",N,Playgrounds,,N,Y,,Y,Y,N,"sand, rubber",N,Y,Y,Y,Y,Y,N,N
PLA75,Duboce Park,Duboce Ave and Noe St,San Francisco,CA,94117,,http://www.sfparksalliance.org/our-parks/parks/duboce-park-harvey-milk-center,"Duboce Park features baby swings, play structures for kids and a sand play area. There is also a basketball court. The restrooms are located at the adjacent Harvey Milk Rec Center. The large grass field is a mecca for local dogs.

The park is located right next to the Harvey Milk Recreational Center, which offers a wealth of community programs which are free are very inexpensive.",N,Playgrounds,,N,N,,N,Y,N,rubber,N,Y,Y,Y,Y,N,N,N
PLA76,Earl J Carmichael Park,3445 Benton St,Santa Clara,CA,95051,408 615 2200,,"Earl J. Carmichael Park is a large park that contains a baseball field, basketball court, and children's playground. The park itself has a dedicated parking lot. The play area is of older design, being made of wood for all ages and resides on sand. Surrounding the play area are benches for easy child supervision. The park contains picnic tables and BBQs pits. There is one large BBQ located next to the baseball field, but it probably requires reservations.",N,Playgrounds,,Y,Y,Y,Y,Y,N,sand,N,N,Y,Y,Y,Y,Y,N
PLA77,Eleanor Pardee Park,851 Center Dr,Palo Alto,CA,94309,,,,N,Playgrounds,,N,N,,Y,Y,Y,"mulch, rubber",Y,Y,Y,Y,N,N,N,N
PLA78,Bray Commons Park,Keegan St and Finnian Way,Dublin,CA,94568,,http://www.dublin.ca.gov/Facilities/Facility/Details/4,,N,Playgrounds,,N,Y,,Y,Y,Y,mulch,N,N,Y,Y,Y,Y,Y,N
PLA79,De Anza Park,1150 Lime Dr,Sunnyvale,CA,94087,,,,N,Playgrounds,,Y,Y,,N,Y,N,"sand, rubber",N,N,Y,Y,Y,Y,Y,N
PLA8,Alta Plaza Park,Pierce St and Clay St,San Francisco,CA,94115,,http://www.sfparksalliance.org/our-parks/parks/alta-plaza-park,"Alta Plaza Park features a playground and a large lawn area, two full tennis courts plus a multipurpose basketball/tennis court. There are plenty of paved walking trails, benches, and views of the City. There is a kids' lot that contains three different play structures, a sand lot, benches, slides and seven swings.",N,Playgrounds,,N,Y,,Y,Y,Y,Rubber,N,Y,Y,Y,Y,N,N,Y
PLA80,Everett Alvarez Jr. Park,2280 Rosita Ave,Santa Clara,CA,95050,,,"Everett Alvarez Jr. Park has two at structures, one for the 2-5 and one for the 5-12 age range. The play structures contain numerous slide and climbing structures. The play structures reside on sand and have rubber as well to be handicap accessible. There are numerous big kid and a few little kid swings. The picnic tables overlook the play area, and there is one shared BBQ. The play structure is fenced off from the street but is not fully enclosed. The park has public restrooms and the woman's restroom has a change table.",N,Playgrounds,,N,Y,,Y,Y,N,"rubber, sand",N,Y,Y,Y,Y,Y,Y,N
PLA81,FM Smith Park,1969 Park Blvd,Oakland,CA,94606,,,,N,Playgrounds,,N,N,,N,Y,N,sand,N,Y,Y,Y,N,Y,Y,N
PLA83,Cherryland Park,Grove Way & June Ct.,Hayward,CA,94541,,,,N,Playgrounds,,N,Y,,Y,Y,N,mulch,N,N,N,Y,Y,Y,N,N
PLA84,Cahalan Park,Cahalan Ave and Pearlwood Wy,San Jose,CA,95123,,,,N,Playgrounds,,Y,Y,,N,Y,N,"rubber, mulch",N,N,Y,Y,Y,N,N,N
PLA85,Charlie Dorr Park,2208 Acton St,Berkeley,CA,94702,,http://www.ci.berkeley.ca.us/Parks_Rec_Waterfront/Trees_Parks/Parks__Charlie_Dorr_Mini_Park-.aspx,,N,Playgrounds,,N,N,,N,Y,Y,sand,N,Y,N,Y,N,N,N,N
PLA87,Glen Canyon Park,Elk St & Chenery Street,San Francisco,CA,94131,,http://www.sfparksalliance.org/our-parks/parks/glen-canyon-park,"Glen Canyon Park has hiking trails to explore, plus a rec center with several facilities available to the public: two baseball fields, a tennis court, as well as George Christopher Playground.",N,Playgrounds,,Y,Y,,Y,Y,N,sand,N,Y,Y,Y,Y,Y,Y,N
PLA88,Calabazas Park,Rainbow Drive & Blaney Avenue,San Jose,CA,95129,,http://www.sanjoseca.gov/Facilities/Facility/Details/Calabazas-Park-64,,N,Playgrounds,,Y,Y,,N,Y,N,"rubber, mulch",N,N,Y,Y,Y,Y,Y,N
PLA89,Cataldi Park,2900 Cataldi Dr,San Jose,CA,95132,,,"Cataldi Park is just under 40 acres in size and has playgrounds for all age groups. The park has plenty of parking as well with four parking through out the park. 
The marjor play area is located just off Cataldi Dr & Morril Ave. The park also has 7 tennis courts, 1/2 basketball court & tons of grass area for kids to play. ",N,Playgrounds,,Y,Y,,Y,Y,N,"rubber, mulch",N,Y,Y,Y,Y,Y,Y,N
PLA90,Hap Magee Ranch Park,1025 La Gonda Way,Danville,CA,94526,925 314 3484,http://www.danville.ca.gov/Things-To-Do/Parks/Community-Parks/Hap-Magee-Ranch/,"Hap Magee Ranch Park (1025 La Gonda Way). Hap Magee has a storied past. A barn façade at the park entrance commemorates the park’s former life as a ranch for longhorn steer. Before the cattle called it home, the site was a summer camp for San Francisco orphans, known as Camp Swain. Look for a drinking fountain commemorating Camp Swain with a plaque and a brick rendering of children playing.

Hap Magee’s water feature is a combination of metal tubes that form a tunnel with water spraying inside as kids run through, and water spraying up from the ground. A motion sensor activates the feature on a random circuit. This 17-acre park also has walking trails, separate play areas for younger and older children, picnic areas, and a dog park.",N,Playgrounds,,Y,Y,,N,Y,N,"sand, mulch",Y,Y,Y,Y,N,Y,Y,N
PLA91,East Avenue Park,3221 East Ave,Hayward,CA,94541,,,,N,Playgrounds,,Y,Y,,Y,Y,N,mulch,N,N,Y,Y,Y,Y,N,N
PLA92,Gordon E. Oliver Eden Shores Park,2841 Sea Haven Ct,Hayward,CA,94545,,,,N,Playgrounds,,Y,Y,,Y,Y,N,mulch,N,N,N,Y,Y,Y,N,N
PLA93,Lucchesi Park,320 N McDowell Blvd,Petaluma,CA,94954,,http://cityofpetaluma.net/parksnrec/parks-pages/lucchesi.html,,N,Playgrounds,,Y,Y,,Y,Y,N,mulch,N,N,Y,Y,Y,Y,Y,N
PLA94,Cimarron Park,736 Pride St,San Jose,CA,95132,,,Cimarron Park has a large grass field and a playground dedicated for older kids. The park also contains a basketball court. ,N,Playgrounds,,N,N,,N,Y,N,mulch,N,Y,Y,Y,Y,Y,N,N
PLA95,Henry Schmidt Park,555 Los Padres Boulevard,Santa Clara,CA,95050,,,"Henry Schmidt Park has a unique play area. The theme of the play area is the old west and is dedicated towards younger kids, aged 2-5, located on sand. Surrounding the play area are benches so kids can easily be supervised. There are picnic tables tables with individual BBQs throughout the park. The park also contains a tennis court and a baseball diamond.",N,Playgrounds,,Y,Y,,N,Y,N,sand,N,Y,Y,Y,N,Y,Y,N
PLA96,Henry Seale Park,3100 Stockton Pl,Palo Alto,CA,94303,,,"Henry Seale Park contains play structures for both older and younger kids. The older kids play structure appears to be newer in construction. The playground also contains a sand pit, and a small club house for tots to play in. There are picnic benches overlooking the play area, but the picnic tables with BBQs are located further away. 
The park also has a walking trail and a large open grass field. It's used by both joggers and dog walkers alike. ",N,Playgrounds,,N,Y,Y,Y,Y,N,"sand, rubber, mulch",N,Y,Y,Y,Y,Y,Y,N
PLA97,Edenvale Garden Park,Edenvale Ave & Eagle Rock Rd,San Jose,CA,95109,,http://www.sanjoseca.gov/Facilities/Facility/Details/Edenvale-Gardens-Regional-Park-188,,N,Playgrounds,,Y,Y,,Y,Y,N,mulch,N,Y,Y,Y,Y,Y,Y,N
PLA98,Golden Gate Heights Park,12th Ave & Rockridge Dr,San Francisco,CA,94116,,,,N,Playgrounds,,N,N,,N,Y,N,sand,N,Y,Y,Y,N,Y,N,N
PLA99,Emma Prusch Farm Park,647 S King Rd,San Jose,CA,95116,408 794 6262,,"Emma Prusch Farm Park has two major draws: a huge big kids play area and farm animals that can be fed. The park also contains a small kids area next to the big kids playground. The park has: chicken, goats, pigs, rabbits & cows. There are also a number of large reservable picnic areas.",N,Playgrounds,,Y,Y,,Y,Y,N,mulch,N,N,Y,Y,Y,Y,Y,N